"comp_key","banner","street_address","city","state","zipcode","latitude","longitude"
501,"201 Central","13108 Eastfield Rd","Huntersville","NC",28078,35.38487,-80.78439
502,"ABC","1506 S Ridgewood Ave","Daytona Beach","FL",32114,29.18474,-81.00941
503,"ABC","1000 Crosspointe Dr","Naples","FL",34110,26.27295,-81.79912
504,"ABC","11450 Beach Blvd","Jacksonville","FL",32246,30.2864,-81.52429
505,"ABC","3015 W Kennedy Blvd","Tampa","FL",33609,27.94512,-82.49194
506,"ABC","725 N Wickham Rd","Melbourne","FL",32935,28.1187,-80.67218
507,"ABC","1531 W Boynton Beach Blvd","Boynton Beach","FL",33436,26.52807,-80.09317
508,"ABC","316-320 Fox Hunt Dr","Bear","DE",19701,39.60649,-75.71095
509,"ABC","3355 N Federal Hwy","Oakland Park","FL",33306,26.16904,-80.11918
510,"ABC","14725 S Tamiami Trail","Fort Myers","FL",33912,26.52864,-81.87033
511,"ABC","1855 East Winter Park Rd","Orlando","FL",32803,28.56876,-81.34574
512,"ABC","8470 37th St E","Sarasota","FL",34243,27.38947,-82.51642
513,"Ace and Ales","2801 N Tenaya Way","Las Vegas","NV",89128,36.21138,-115.25
514,"AJ's","20427 North Hayden Road","Scottsdale","AZ",85255,33.67101,-111.90427
515,"Albertson's","74590 CA-111","Palm Desert","CA",92260,33.7227,-116.36387
516,"Albertson's","6520 N Nevada St","Spokane","WA",99208,47.71791,-117.39354
517,"Albertson's","2550 S Fort Apache Rd","Las Vegas","NV",89117,36.14337,-115.29591
518,"Safeway","15100 SE 38th St","Bellevue","WA",98006,47.57654,-122.13718
519,"Arthur's","4400 Sharon Rd","Charlotte","NC",28211,35.15223,-80.8319
520,"Richard's","1900 S Shepherd Dr","Houston","TX",77019,29.7488,-95.41107
521,"Whole Foods","4301 W William Cannon Dr","Austin","TX",78749,30.2215,-97.84118
522,"Austin Liquors","212 N Main St","Natick","MA",1760,42.30124,-71.36151
523,"Beltramo's","1540 El Camino Real","Menlo Park","CA",94025,37.45733,-122.18942
524,"Ben's","10870 S Virginia St","Reno","NV",89511,39.43396,-119.76534
525,"Bevmax","149 Westport Ave","Norwalk","CT",6851,41.12429,-73.40071
526,"BevMo","10333 Fairway Dr Suite D","Roseville","CA",95678,38.78909,-121.28678
527,"BevMo","1100 Bellevue Way NE","Bellevue","WA",98004,47.62029,-122.20062
528,"BevMo","15315 Culver Dr","Irvine","CA",92604,33.69713,-117.79991
529,"BevMo","79715 CA-111","La Quinta","CA",92253,33.70627,-116.27392
530,"BevMo","6712 W Bell Rd","Glendale","AZ",85308,33.63899,-112.20366
531,"BevMo","5765 Johnson Dr","Pleasanton","CA",94588,37.69924,-121.90686
532,"BevMo","5171 Mowry Ave","Fremont","CA",94538,37.53579,-122.00023
533,"BevMo","17197 Southcenter Pkwy","Tukwila","WA",98188,47.44939,-122.26329
534,"BJ's","1800 Dunlawton Ave","Port Orange","FL",32127,29.10909,-81.02388
535,"BJ's","415 E Merritt Ave","Merritt Island","FL",32953,28.36018,-80.69108
536,"BJ's","4697 Millenia Plaza Way","Orlando","FL",32839,28.49439,-81.42784
537,"BJ's","688 Providence Hwy","Dedham","MA",2026,42.24231,-71.17437
539,"BJ's","8075 Cooper Creek Blvd","University Park","FL",34201,27.39421,-82.45175
541,"BJ's","4697 Millenia Plaza Way","Orlando","FL",32839,28.49439,-81.42784
542,"BJ's","7007 SW 117th Ave","Miami","FL",33183,25.70283,-80.381
543,"Blanchard's","103 Harvard Ave","Allston","MA",2134,42.35267,-71.13219
544,"Blanchard's","418 Lagrange St","West Roxbury","MA",2132,42.28069,-71.1587
545,"Blue Max","14640 10th Ave S","Burnsville","MN",55337,44.73853,-93.26194
546,"Bottle King","343 W Mt Pleasant Ave","Livingston","NJ",7039,40.79533,-74.33959
547,"Bottles","610 Coleman Blvd","Mt Pleasant","SC",29464,32.79211,-79.87488
548,"Bullock's","1050 Buckhead Crossing","Woodstock","GA",30189,34.1058,-84.54085
549,"Cambridge Wine","202 Alewife Brook Pkwy","Cambridge","MA",2138,42.38889,-71.14177
550,"Canal's","5360 NJ-38","Merchantville","NJ",8109,39.93519,-75.06154
551,"Capital City Package","784 Collier Rd NW","Atlanta","GA",30318,33.80919,-84.41378
552,"Central Market","4477 S Lamar Blvd","Austin","TX",78745,30.23036,-97.79881
553,"Central Market","5750 E Lovers Ln","Dallas","TX",75206,32.8495,-96.76872
554,"Central Market","4651 West Fwy","Fort Worth","TX",76107,32.73029,-97.38919
555,"Costco","1021 Woodruff Rd","Greenville","SC",29607,34.83639,-82.31059
556,"Costco","10401 Research Blvd","Austin","TX",78759,30.39688,-97.74543
557,"Costco","1175 N 205th St","Shoreline","WA",98133,47.77455,-122.34363
558,"Costco","1201 39th Ave SW","Puyallup","WA",98373,47.15634,-122.30834
559,"Costco","1201 N Loop 1604 E","San Antonio","TX",78232,29.61006,-98.51105
561,"Costco","1401 Mall Dr","North Chesterfield","VA",23235,37.51458,-77.6051
562,"Costco","14050 Burnhaven Dr","Burnsville","MN",55337,44.74906,-93.29389
563,"Costco","14501 Hindry Ave","Hawthorne","CA",90250,33.89982,-118.37377
564,"Costco","14800 Sole Mia Way","North Miami","FL",33181,25.91391,-80.15286
565,"Costco","15255 North Hayden Road","Scottsdale","AZ",85260,33.62379,-111.90068
566,"Costco","15915 Pines Blvd","Pembroke Pines","FL",33027,26.00947,-80.36065
567,"Costco","1600 Expo Pkwy","Sacramento","CA",95815,38.59721,-121.45329
568,"Costco","1701 Dallas Pkwy","Plano","TX",75093,33.02439,-96.8319
569,"Costco","17550 N 79th Ave","Glendale","AZ",85308,33.64255,-112.23301
570,"Costco","17800 Congress Ave","Boca Raton","FL",33487,26.412,-80.10133
571,"Costco","1800 Cavitt Dr","Folsom","CA",95630,38.64584,-121.10999
572,"Costco","18109 33rd Ave W","Lynnwood","WA",98037,47.8342,-122.27346
573,"Costco","21398 Price Cascades Plaza","Sterling","VA",20164,39.02353,-77.4017
574,"Costco","2200 Harvard Way","Reno","NV",89502,39.50301,-119.78494
575,"Costco","2700 Park Ave","Tustin","CA",92782,33.69991,-117.82291
576,"Costco","2838 Wake Forest Rd","Raleigh","NC",27609,35.81835,-78.6225
577,"Costco","2855 Jordan Ct","Alpharetta","GA",30004,34.09037,-84.27778
578,"Costco","301 Highlands Blvd Dr","Manchester","MO",63011,38.59795,-90.50669
579,"Costco","3050 Ashley Town Center Dr","Charleston","SC",29414,32.79526,-80.03625
580,"Costco","3333 University Blvd","Winter Park","FL",32792,28.59884,-81.30002
581,"Costco","35100 Enchanted Pkwy S","Federal Way","WA",98003,47.28696,-122.31138
582,"Costco","3800 N Central Expy","Plano","TX",75074,33.04487,-96.69902
583,"Costco","3901 W Costco Dr","Tucson","AZ",85741,32.32627,-111.04995
584,"Costco","400 Costco Dr #150","Tukwila","WA",98188,47.44511,-122.24853
585,"Costco","4201 W Wendover Ave","Greensboro","NC",27407,36.05759,-79.88358
586,"Costco","43621 Pacific Commons Blvd","Fremont","CA",94538,37.50145,-121.97308
588,"Costco","4725 West Ox Rd","Fairfax","VA",22030,38.84909,-77.37192
589,"Costco","4901 Gate Pkwy","Jacksonville","FL",32246,30.25161,-81.53342
591,"Costco","5300 Overton Ridge Blvd","Fort Worth","TX",76132,32.67754,-97.40873
592,"Costco","5500 Littlerock Rd SW","Tumwater","WA",98512,46.99669,-122.9164
593,"Costco","5601 E Sprague Ave","Spokane Valley","WA",99212,47.65844,-117.33222
594,"Costco","5700 Lindero Canyon Rd","Westlake Village","CA",91362,34.15207,-118.79722
595,"Costco","5801 W 16th St","St Louis Park","MN",55416,44.96691,-93.3543
596,"Costco","6555 N Decatur Blvd","Las Vegas","NV",89131,36.27856,-115.20855
597,"Costco","6720 NE 84th St","Vancouver","WA",98665,45.68499,-122.60418
598,"Costco","6750 Stanford Ranch Rd","Roseville","CA",95678,38.78069,-121.26727
599,"Costco","71 2nd Ave","Waltham","MA",2451,42.3944,-71.26545
600,"Costco","7171 Cypress Lake Dr","Fort Myers","FL",33907,26.54453,-81.87451
601,"Costco","72800 Dinah Shore Dr","Palm Desert","CA",92211,33.80363,-116.38957
602,"Costco","791 Marks St","Henderson","NV",89014,36.06992,-115.03789
603,"Costco","801 S Pavilion Center Dr","Las Vegas","NV",89144,36.163,-115.33271
604,"Costco","8629 120th Ave NE","Kirkland","WA",98033,47.68062,-122.18153
605,"Costco","900 Center Blvd S","Newark","DE",19702,39.67772,-75.64754
606,"Costco","900 S Harbor Blvd","Fullerton","CA",92832,33.86256,-117.92386
609,"Costco","851 STATE HIGHWAY 121 BYP","Lewisville","TX",75067,32.99813,-96.96329
610,"Costco","9955 Coors Bypass NW","Albuquerque","NM",87114,35.1955,-106.66095
611,"Costco","2125 Matthews Township Pkwy","Matthews","NC",28105,35.13008,-80.70498
612,"Costco","500 Tyvola Rd","Charlotte","NC",28217,35.16195,-80.8848
613,"Costco","8055 Churchill Way","Dallas","TX",75251,32.91929,-96.76784
614,"Costco","4299-4117 N Greenbrier Rd","Long Beach","CA",90808,33.83612,-118.13275
615,"Costco","7795 W Flagler St","Miami","FL",33144,25.77268,-80.32293
617,"Crown Wine & Spirits","1030 NE 15th Ave","Fort Lauderdale","FL",33304,26.1384,-80.12805
618,"Crown Wine & Spirits","3500 N Federal Hwy","Boca Raton","FL",33431,26.38198,-80.07589
619,"Dierberg's","1080 Lindeman Road","Des Peres","MO",63131,38.6008,-90.43292
620,"Dierberg's","1730 Clarkson Rd","Chesterfield","MO",63017,38.6419,-90.56566
621,"Dierberg's","8450 Eager Rd","St. Louis","MO",63144,38.62752,-90.33937
622,"Dirt Cheap","2060 Hampton Ave","St. Louis","MO",63139,38.61785,-90.28721
623,"Don & Ben's","6016 West Ave","San Antonio","TX",78213,29.51616,-98.52501
624,"Fannon's","212 N Main St","Natick","MA",1760,42.30124,-71.36151
625,"Farm Fresh","2110 Great Neck Square Shopping Center","Virginia Beach","VA",23454,36.8911,-76.071
626,"Fifth Avenue Liquors","235 Old Connecticut Path","Framingham","MA",1701,42.30608,-71.40081
627,"France 44","4351 France Ave S","Minneapolis","MN",55410,44.92284,-93.32874
628,"Fred Meyer","12120 N Division St","Spokane","WA",99218,47.7672,-117.4024
629,"Fred Meyer","4615 196th St SW Ste 175","Lynnwood","WA",98036,47.82199,-122.29381
630,"Fred Meyer","555 Trosper Rd SW","Tumwater","WA",98512,46.99803,-122.91489
631,"Fred Meyer","7411 NE 117th Ave","Vancouver","WA",98662,45.67618,-122.5513
632,"Fred Meyer","2041 148th Ave NE","Bellevue","WA",98007,47.62908,-122.14412
633,"Friar Tuck","9053 Watson Rd","St. Louis","MO",63126,38.56263,-90.37138
634,"Fry's","16380 W Yuma Rd","Goodyear","AZ",85338,33.43776,-112.41148
635,"Fry's","2480 N Swan Rd","Tucson","AZ",85712,32.25251,-110.89136
636,"Fry's","4707 E Shea Blvd","Phoenix","AZ",85028,33.58088,-111.97889
637,"Gabriel's","1309 N Loop 1604 E #109","San Antonio","TX",78258,29.61107,-98.51305
638,"Gary's Wine","121 Main St","Madison","NJ",7940,40.75714,-74.41285
639,"Gary's Liquors","655 VFW Pkwy","Chestnut Hill","MA",2467,42.29642,-71.15678
640,"Gelson's","2734 Townsgate Rd","Westlake Village","CA",91361,34.15257,-118.82508
641,"Giant","1454 Chain Bridge Rd","McLean","VA",22101,38.93285,-77.18045
642,"Goody Goody","4740 SW Loop 820","Fort Worth","TX",76109,32.68438,-97.39613
643,"Goody Goody","5285 TX-121","The Colony","TX",75056,33.07143,-96.87891
645,"Goody Goody","Â 7124 Greenville Ave","Dallas","TX",75231,32.77666,-96.79699
646,"Green's","2614 Buford Hwy NE","Atlanta","GA",30324,33.82639,-84.34936
647,"Green's","400 Assembly St","Columbia","SC",29201,33.99034,-81.03005
648,"Green's","4012 Fernandina Rd","Columbia","SC",29212,34.06872,-81.14153
649,"Green's","445 Congaree Rd","Greenville","SC",29607,34.85073,-82.32929
650,"Haggen","1940 Village Center Cir","Las Vegas","NV",89134,36.19376,-115.30589
651,"Haggen","72675 Highway 111","Palm Desert","CA",92260,33.72025,-116.39654
653,"Harris Teeter","20070 Ashbrook Commons Plaza","Ashburn","VA",20147,39.06045,-77.47047
654,"Harris Teeter","4640 W Market St","Greensboro","NC",27407,36.07145,-79.86661
655,"Harris Teeter","6701 Morrison Blvd Morrocroft Village","Charlotte","NC",28211,35.15274,-80.82687
656,"Harris Teeter","975 Savannah Hwy St. Andrews","Charleston","SC",29407,32.78169,-79.99014
657,"Harris Teeter","3100 Weddington Rd Plantation Market","Matthews","NC",28105,35.08274,-80.733
658,"Harris Teeter","8200 Crestwood Heights Dr","Tysons","VA",22102,38.93011,-77.22754
659,"Haskell's","15304 Grove Cir N","Maple Grove","MN",55369,45.13638,-93.47666
660,"Haskell's","81 South 9th street #130","Minneapolis","MN",55402,44.97457,-93.27361
661,"HEB","14028 US-183","Austin","TX",78717,30.47684,-97.80392
662,"HEB","6900 Brodie Ln","Austin","TX",78745,30.21636,-97.83085
663,"HEB","8503 NW Military Hwy","San Antonio","TX",78231,29.55285,-98.53414
665,"Hi-Time Wine","250 Ogle St","Costa Mesa","CA",92627,33.63292,-117.91785
666,"Hop City","1000 Marietta St NW #302","Atlanta","GA",30318,33.77905,-84.41054
667,"Hunt Valley Liqours","116 A Shawan Rd","Hunt Valley","MD",21030,39.49742,-76.65521
668,"Jax Fine Wine & Spirits","Â 928 Market Place Blvd","Cumming","GA",30041,34.18188,-84.13094
669,"Joe Canal's","305 NJ-73","Marlton","NJ",8053,39.89737,-74.93152
670,"Jubilation","3512 Lomas Blvd NE","Albuquerque","NM",87106,35.08705,-106.60514
671,"Julio's Liquors","140 Turnpike Rd","Westborough","MA",1581,42.2844,-71.60995
672,"K & L","1400 Vine St","Hollywood","CA",90028,34.09649,-118.32635
673,"Kappy's","474 Boston Post Rd","Sudbury","MA",1776,42.36052,-71.42594
674,"Kreston","904 Concord Ave","Wilmington","DE",19802,39.76286,-75.54273
675,"Kroger","1800 Republic Rd","Virginia Beach","VA",23454,36.8523,-76.02804
676,"Kroger","1273 NW Maynard Rd","Cary","NC",27513,35.78561,-78.81205
677,"Kroger","14101 Midlothian Turnpike","Midlothian","VA",23113,37.50513,-77.6645
679,"Kroger","3000 Old Alabama Rd","Alpharetta","GA",30022,34.02215,-84.27148
680,"Kroger","3420 SW Durham Dr","Durham","NC",27707,35.95164,-78.98856
681,"Lakeville","16000 Galaxie Ave","Lakeville","MN",55044,44.71666,-93.20649
682,"Lee's","780 S Rampart Blvd","Las Vegas","NV",89145,36.16333,-115.29057
683,"Lee's","4427 E Sunset Rd","Henderson","NV",89014,36.06953,-115.07653
684,"Liquor Boy","5620 Cedar Lake Rd","St Louis Park","MN",55416,44.96395,-93.3503
685,"Lucky's Market","5000 Mowry Ave","Fremont","CA",94538,37.53512,-121.9976
686,"Lucky's Market","15830 Fountain Plaza Dr","Ellisville","MO",63011,38.60581,-90.58268
687,"Lueken's","1410 Main St","Dunedin","FL",34698,28.02029,-82.76733
688,"Dogwood Wine and Spirits","15678 Manchester Rd","Ellisville","MO",63011,38.59175,-90.57691
689,"Malt & Vine","16851 Redmond Way","Redmond","WA",98052,47.67116,-122.11504
690,"Martins","9645 W Broad St W Broad St","Henrico","VA",23233,37.64102,-77.56415
691,"Marty's","675 Washington St","Newton","MA",2458,42.35357,-71.20106
692,"Matignetti's","1650 Soldiers Field Rd","Brighton","MA",2135,42.35948,-71.1523
693,"MGM","1012 County Rd 42 W","Burnsville","MN",55337,44.74743,-93.29266
694,"Morelli's","535 Tedesco St","St Paul","MN",55130,44.96035,-93.07796
695,"Morelli's","535 Tedesco St","Saint Paul","MN",55130,44.96035,-93.07796
696,"Natick Wine and Spirits","7 Watson St","Natick","MA",1760,42.28187,-71.37805
697,"Norman's","5200 Clark Rd","Sarasota","FL",34233,27.26868,-82.46643
698,"Nugget's","4500 Post St","El Dorado Hills","CA",95762,38.65264,-121.06713
699,"OR State Store","4816 NE Thurston Way","Vancouver","WA",98662,45.65722,-122.59035
700,"PALCB","315 W Baltimore Ave","Media","PA",19063,39.9177,-75.39673
701,"Paradise Wine","8965 Tamiami Trail N","Naples","FL",34108,26.25249,-81.80249
702,"Pavillion's","1135 Lindero Canyon Rd","Thousand Oaks","CA",91362,34.18387,-118.78797
703,"Pavillion's","3901 Portola Pkwy","Irvine","CA",92602,33.73489,-117.76076
704,"Pete's","134 105th Ave NE","Bellevue","WA",98004,47.61085,-122.19986
705,"Pogo's","5360 W Lovers Ln # 200","Dallas","TX",75209,32.85015,-96.82044
706,"Publix","11222 Providence Rd W","Charlotte","NC",28277,35.04258,-80.84972
707,"Publix","12620 Beach Blvd #12","Jacksonville","FL",32246,30.28599,-81.48892
708,"Publix","1500 E Colonial Dr","Orlando","FL",32803,28.55262,-81.36151
709,"Publix","1401 Sam Rittenberg Blvd","Charleston","SC",29407,32.81362,-79.99659
711,"Publix","14641 Biscayne Blvd","North Miami","FL",33181,25.91151,-80.15572
712,"Publix","150 Harbison Blvd","Columbia","SC",29212,34.06621,-81.16459
713,"Publix","1500 Beville Rd #300","Daytona Beach","FL",32114,29.17112,-81.04393
714,"Publix","15880 Summerlin Rd","Fort Myers","FL",33908,26.51519,-81.90014
716,"Publix","215 Pelham Rd","Greenville","SC",29615,34.86715,-82.34743
717,"Publix","2875 University Pkwy","Sarasota","FL",34243,27.39089,-82.5114
718,"Publix","50 Ernest W Barrett Pkwy NW #1000","Marietta","GA",30066,34.01657,-84.54939
719,"Publix","601 S Andrews Ave","Fort Lauderdale","FL",33301,26.11414,-80.14373
720,"Publix","6876 Collins Ave","Miami Beach","FL",33141,25.85323,-80.12083
721,"Publix","7777 N Wickham Rd","Melbourne","FL",32940,28.22978,-80.69747
722,"Publix","10913 N Military Trl","Palm Beach Gardens","FL",33410,26.83977,-80.10646
723,"Publix","1635 Old 41 Hwy NW","Kennesaw","GA",30152,33.99364,-84.59942
724,"Publix","50 Ernest W Barrett Pkwy NW #1000","Marietta","GA",30066,34.01657,-84.54939
725,"Publix","10913 N Military Trl","Palm Beach Gardens","FL",33410,26.83977,-80.10646
726,"QFC","10116 NE 8th St","Bellevue","WA",98004,47.61855,-122.20562
728,"QFC","17525 WA-99 Ste F","Lynnwood","WA",98037,47.83984,-122.29752
729,"QFC","3505 SE 192nd Ave","Vancouver","WA",98683,45.59517,-122.47636
730,"Raley's","1915 Douglas Blvd","Roseville","CA",95661,38.74579,-121.25691
731,"Raley's","39200 Paseo Padre Pkwy","Fremont","CA",94538,37.55367,-121.97891
732,"Raley's","18144 Wedge Pkwy","Reno","NV",89511,39.39503,-119.76578
733,"Ralph's","13321 Jamboree Rd","Tustin","CA",92782,33.7293,-117.7902
734,"Ralph's","5241 Warner Ave","Huntington Beach","CA",92649,33.71677,-118.03795
737,"Randall's","14201 Manchester Rd","Manchester","MO",63011,38.59386,-90.50178
739,"Randall's","3300 Bee Cave Rd","West Lake Hills","TX",78746,30.27496,-97.79891
740,"Roche Bros Grocery","184 Linden St","Wellesley","MA",2482,42.3014,-71.29255
741,"Safeway","10100 N Newport Hwy","Spokane","WA",99218,47.7504,-117.39742
742,"Safeway","10773 N Scottsdale Rd","Scottsdale","AZ",85254,33.58433,-111.92457
743,"Safeway","1080 Pleasant Grove Blvd","Roseville","CA",95678,38.77684,-121.29147
744,"Safeway","1330 Chain Bridge Rd","McLean","VA",22101,38.93949,-77.17575
745,"Safeway","1850 Prairie City Rd","Folsom","CA",95630,38.64988,-121.16576
746,"Safeway","300 Bellevue Way NE","Bellevue","WA",98004,47.613,-122.20101
747,"Safeway","300 Bellevue Way NE","Bellevue","WA",98004,47.613,-122.20101
748,"Safeway","3215 Harrison Ave NW","Olympia","WA",98502,47.04554,-122.94198
749,"Safeway","3902 Washington Blvd","Fremont","CA",94538,37.53151,-121.95718
750,"Safeway","43150 Broadlands Center Plaza","Ashburn","VA",20148,39.02672,-77.50924
751,"Safeway","4823 Kietzke Ln","Reno","NV",89509,39.48047,-119.79733
752,"Safeway","6711 NE 63rd St","Vancouver","WA",98661,45.66642,-122.60363
753,"Safeway","3132 E Camelback Rd","Phoenix","AZ",85016,33.51138,-112.01475
754,"Safeway","20205 N 67th Ave #100","Glendale","AZ",85308,33.6694,-112.20254
755,"Safeway","4005 E. Chandler Blvd","Phoenix","AZ",85048,33.30319,-111.9962
756,"Safeway","19500 Hwy 99 Suite 110","Lynnwood","WA",98036,47.82247,-122.31677
759,"Sam's Club","350 Harbison Blvd","Columbia","SC",29212,34.07196,-81.15098
761,"Sam's Club","10600 Coors Bypass NW","Albuquerque","NM",87114,35.20985,-106.65725
763,"Sam's Club","4512 Lemay Ferry Rd","St. Louis","MO",63129,38.49733,-90.33515
764,"Schnuck's","10275 Clayton Rd","St. Louis","MO",63124,38.6343,-90.40475
765,"Schnuck's","141 Hilltown Village Center","Chesterfield","MO",63017,38.65906,-90.55325
766,"Schnuck's","6600 Clayton Rd","St. Louis","MO",63117,38.63327,-90.31485
767,"Scolari's","950 Holman Way","Sparks","NV",89431,39.55029,-119.75464
768,"Sherlock's","135 Ernest W Barrett Pkwy NW","Marietta","GA",30066,34.01283,-84.5542
769,"Shop N Save","10461 Manchester Rd","Kirkwood","MO",63122,38.60215,-90.40107
770,"Sigel's","5757 Greenville Ave","Dallas","TX",75206,32.85544,-96.76936
771,"Smith's","4800 McMahon Blvd NW","Albuquerque","NM",87114,35.20513,-106.67749
772,"Smith's","9851 W Charleston Blvd","Las Vegas","NV",89117,36.15758,-115.31238
774,"Spec's","4970 US-290","Austin","TX",78735,30.23522,-97.82016
775,"Spec's","5930 W Park Blvd #1400","Plano","TX",75093,33.02704,-96.82697
776,"Spec's","819 E Rector Dr","San Antonio","TX",78216,29.51776,-98.48115
777,"Spec's","9500 N Central Expy","Dallas","TX",75231,32.87843,-96.76936
778,"Spec's","2750 Hulen St","Fort Worth","TX",76109,32.71158,-97.38669
780,"Sprouts","10800 Alpharetta Hwy Suite C410","Roswell","GA",30076,34.04392,-84.34224
781,"Starrs","1135 S Big Bend Blvd","St. Louis","MO",63117,38.6317,-90.31952
782,"Stew Leonards","100 Westport Ave","Norwalk","CT",6851,41.12252,-73.40226
783,"Stew Leonards","396 NJ-17","Paramus","NJ",7652,40.94742,-74.07141
784,"Surdyk's","303 E Hennepin Ave","Minneapolis","MN",55414,44.98848,-93.25594
785,"Target","1272 Town And Country Crossing Dr","Chesterfield","MO",63017,38.62002,-90.51691
786,"The Cellars","1815 Radio Dr # E","St Paul","MN",55125,44.92367,-92.93168
787,"Tom Thumb","5809 E Lovers Lane","Dallas","TX",75206,32.85185,-96.76696
788,"Tom Thumb","3100 S Hulen St","Fort Worth","TX",76109,32.70606,-97.39004
789,"Tower","2161 Piedmont Rd NE","Atlanta","GA",30324,33.81554,-84.36583
790,"Trader Joes","44250 Town Center Way","Palm Desert","CA",92260,33.72746,-116.39661
791,"Trader Joes","39324 Argonaut Way","Fremont","CA",94538,37.54347,-121.98615
792,"Trader Joes","1530 Black Lake Blvd SW","Olympia","WA",98502,47.03326,-122.9376
793,"Trader Joes","4255 Hampton Ave","St. Louis","MO",63109,38.59261,-90.29573
794,"Tri-State Liquors","333 Naamans Rd","Claymont","DE",19703,39.81605,-75.44903
795,"Twin Liquors","999 E Basse Rd #149","San Antonio","TX",78209,29.49812,-98.46792
796,"Twin Liquors","1000 E 41st St Suite 810","Austin","TX",78751,30.30096,-97.72075
798,"Von's","8540 W Desert Inn Rd","Las Vegas","NV",89117,36.13163,-115.27728
799,"Von's","27320 Alicia Parkway","Laguna Niguel","CA",92677,33.56606,-117.71285
800,"Von's","78-271 CA-111","La Quinta","CA",92253,33.71477,-116.29795
801,"Von's","9119 Reseda Blvd","Northridge","CA",91324,34.23595,-118.53776
803,"Von's","12961 W Chapman Ave","Garden Grove","CA",92840,33.78963,-117.90705
804,"Walmart","3200 Old Boynton Road","Boynton Beach","FL",33436,26.52977,-80.09578
805,"Walmart","5200 Windward Pkwy","Alpharetta","GA",30004,34.09407,-84.2743
806,"Walmart","1100 N Estrella Pkwy","Goodyear","AZ",85338,33.45943,-112.39543
807,"Walmart","1401 American Pacific Dr","Henderson","NV",89074,36.04046,-115.04818
808,"Walmart","1451 Woodruff Rd","Greenville","SC",29607,34.82283,-82.28312
809,"Walmart","14821 6 Mile Cypress Pkwy","Fort Myers","FL",33912,26.52531,-81.86851
810,"Walmart","1800 Carl D. Silver Parkway","Fredericksburg","VA",22401,38.30656,-77.51375
811,"Walmart","2595 E Imperial Hwy","Brea","CA",92821,33.91347,-117.86521
812,"Walmart","2700 Marconi Ave","Sacramento","CA",95821,38.61699,-121.3991
813,"Walmart","3209 Pineville-Matthews Rd","Charlotte","NC",28226,35.0968,-80.78223
814,"Walmart","34500 Monterey Ave","Palm Desert","CA",92211,33.79809,-116.3849
815,"Walmart","3605 High Point Road","Greensboro","NC",27407,36.03864,-79.849
816,"Walmart","10237 Bay Pines Blvd","St. Petersburg","FL",33708,27.81592,-82.7814
817,"Walmart","40580 Albrae St","Fremont","CA",94538,37.52018,-121.98552
818,"Walmart","5017 W US-290","Austin","TX",78735,30.23222,-97.82556
819,"Walmart","5025 Northwest Loop 410","San Antonio","TX",78229,29.49014,-98.58773
820,"Walmart","5450 New Hope Commons Dr","Durham","NC",27707,35.95517,-78.99901
821,"Walmart","5734 S Orange Blossom Trail","Orlando","FL",32839,28.47491,-81.39922
822,"Walmart","6185 Retail Rd","Dallas","TX",75231,32.86264,-96.75442
823,"Walmart","6300 Oakmont Blvd","Fort Worth","TX",76132,32.66498,-97.40494
824,"Walmart","657 Phoenix Dr","Virginia Beach","VA",23452,36.82344,-76.07171
825,"Walmart","7809 NE Vancouver Plaza Dr","Vancouver","WA",98662,45.64931,-122.59283
826,"Walmart","8808 Beach Blvd","Jacksonville","FL",32216,30.28426,-81.56275
827,"Walmart","15063 Main St","Bellevue","WA",98007,47.6089,-122.13947
828,"Walmart","360 Harbison Blvd","Columbia","SC",29212,34.07387,-81.15115
829,"Walmart","4855 Kietzke Ln","Reno","NV",89509,39.48083,-119.79869
830,"Walmart","5900 Littlerock Rd SW","Tumwater","WA",98512,46.99434,-122.91896
831,"Walmart","8511 Golf Course Rd NW","Albuquerque","NM",87114,35.18061,-106.68974
832,"Walmart","507 E Joanne Ct","Spokane","WA",99218,47.74009,-117.40284
833,"Walmart","3951 W Ashley Cir","Charleston","SC",29414,32.82178,-80.08213
834,"Walmart","900 Walmart Way","Midlothian","VA",23113,37.5042,-77.6297
835,"Walmart","3270 Telegraph Rd","St. Louis","MO",63125,38.49479,-90.29636
836,"Wegman's","11620 Monument Dr","Fairfax","VA",22030,38.8511,-77.3477
837,"Wegman's","200 Boylston St","Chestnut Hill","MA",2467,42.3192,-71.17543
838,"Wegman's","2281 Carl D. Silver Parkway","Fredericksburg","VA",22401,38.31312,-77.50837
839,"Wegman's","7905 Hilltop Village Center Dr","Alexandria","VA",22315,38.74258,-77.16109
840,"Wegman's","2100 NJ-70","Cherry Hill","NJ",8002,39.92295,-75.03483
841,"Wegman's","14361 Newbrook Dr","Chantilly","VA",20151,38.87768,-77.44384
842,"Wegman's","8297 Stonewall Shops Square","Gainesville","VA",20155,38.78434,-77.65328
843,"Wegman's","45131 Columbia Pl","Sterling","VA",20166,39.00708,-77.44061
844,"Wegman's","15 Woodbridge Center Dr","Woodbidge","NJ",7095,40.54949,-74.29495
845,"Well's Liquor","6310 York Rd","Baltimore","MD",21212,39.37176,-76.61054
846,"Whole Foods","1400 Glades Rd Ste 110","Boca Raton","FL",33431,26.36575,-80.11485
847,"Whole Foods","5930 Roswell Rd","Atlanta","GA",30328,33.91779,-84.37978
848,"Whole Foods","1140 Woodruff Rd","Greenville","SC",29607,34.82558,-82.30101
849,"Whole Foods","100 S Green Valley Pkwy","Henderson","NV",89012,36.02343,-115.08246
850,"Whole Foods","4501 Market Commons Dr","Fairfax","VA",22033,38.85785,-77.37775
851,"Whole Foods","7111 E Mayo Blvd","Phoenix","AZ",85054,33.65372,-111.9271
852,"Whole Foods","6139 S Virginia St","Reno","NV",89502,39.46882,-119.78716
853,"Whole Foods","11173 W Broad St","Glen Allen","VA",23060,37.64757,-77.59973
854,"Whole Foods","255 E Basse Rd Ste 130","San Antonio","TX",78209,29.49562,-98.48122
855,"Whole Foods","3111 Mowry Ave","Fremont","CA",94538,37.55495,-121.98526
856,"Whole Foods","888 116th Ave NE","Bellevue","WA",98004,47.61829,-122.18459
857,"Whole Foods","1601 S Brentwood Blvd","Brentwood","MO",63144,38.62711,-90.34788
858,"Whole Foods","300 Legacy Pl","Dedham","MA",2026,42.23282,-71.17808
859,"Whole Foods","8855 W Charleston Blvd","Las Vegas","NV",89117,36.1577,-115.28829
860,"Whole Foods","2847 Park Ave","Tustin","CA",92782,33.69636,-117.82559
861,"Whole Foods","405 N Pacific Coast Hwy","Redondo Beach","CA",90277,33.84737,-118.38951
862,"Whole Foods","7881 Edinger Ave Ste 150","Huntington Beach","CA",92647,33.73121,-117.99052
864,"Whole Foods","300 Bergen Town Center","Paramus","NJ",7652,40.91463,-74.05907
865,"Whole Foods","1001 Galleria Blvd","Roseville","CA",95678,38.76739,-121.26726
866,"Wild Oats","1021 N Macdill Ave","Tampa","FL",33607,27.95294,-82.49247
867,"Wine & Cheese","7435 Forsyth Blvd","Clayton","MO",63105,38.6498,-90.32925
868,"Wine Depot","2868 Virginia Beach Blvd","Virginia Beach","VA",23452,36.84574,-76.07053
869,"Wine Exchange","1544 E Warner Ave","Santa Ana","CA",92705,33.71541,-117.84589
870,"Wine Library","586 Morris Ave","Springfield Township","NJ",7081,40.71707,-74.32443
871,"Wine Merchant","7817 Forsyth Blvd","Clayton","MO",63105,38.65049,-90.33763
872,"Wine Works","319 W Rte 70","Marlton","NJ",8053,39.89596,-74.93407
873,"Wines & More","242 Boston Post Rd","Milford","CT",6460,41.22187,-73.07384
874,"Yankee Spirits","376 Main St","Sturbridge","MA",1566,42.1127,-72.09148
877,"BJ's","7050 Coral Way","Miami","FL",33155,25.74557,-80.30975
878,"Food Source","4047 S Virginia St","Reno","NV",89502,39.48626,-119.7967
880,"Bremerton Naval Base PX","120 Dewey St","Bremerton","WA",98337,47.56251,-122.6497
883,"Jax Fine Wine & Spirits","928 Market Pl Blvd","Cumming","GA",30041,34.18188,-84.13094
884,"Minks Package","2565 Delk Rd SE","Marietta","GA",30067,33.92292,-84.47747
885,"The Wine Shop","640 Johnson Ferry Rd","Marietta","GA",30068,33.96441,-84.41111
886,"Kroger","4880 Lower Roswell Rd","Marietta","GA",30068,33.96478,-84.41001
887,"Kroger","3871 Peachtree Rd NE","Atlanta","GA",30319,33.85652,-84.3449
888,"Costco","1021 Pine Plaza Dr","Apex","NC",27523,35.7466,-78.8278
889,"Kappy's","10 Revere Beach Pkwy","Medford","MA",2155,42.4055,-71.0807
890,"BJ's","6 Hutchinson Dr","Danvers","MA",1923,42.55179,-70.93146
891,"Costco","11 Newbury St","Danvers","MA",1923,42.55669,-70.9786
892,"Winn Dixie","5600 W Sample Rd","Margate","FL",33073,26.27153,-80.19997
893,"Walmart","1885 N Pine Island Rd","Plantation","FL",33322,26.14937,-80.2702
894,"Walgreens","700 W Broward Blvd","Fort Lauderdale","FL",33312,26.12163,-80.15101
895,"Walmart","3001 N SR 7","Lauderdale Lakes","FL",33313,26.16479,-80.20315
896,"Walgreens","3015 S. University Dr","Davie","FL",33328,26.08312,-80.25166
897,"Albertson's","2500 E Imperial Hwy","Brea","CA",92821,33.91037,-117.86741
898,"Pavillion's","1135 Lindero Canyon Rd","Thousand Oaks","CA",91362,34.18387,-118.78797
899,"Lucky's Market","5000 Mowry Ave","Fremont","CA",94538,37.53512,-121.9976
900,"Publix","1501 Meeting Pl","Orlando","FL",32814,28.56629,-81.32711
901,"Bi Lo","4430 The Plaza","Charlotte","NC",28215,35.24864,-80.77972
902,"Lowes","10828 Providence Rd #100","Charlotte","NC",28277,35.06183,-80.77145
903,"Albertson's","10131 Coors Blvd NW","Albuquerque","NM",87114,35.2003,-106.65165
904,"Von's","6450 Sky Pointe Dr","Las Vegas","NV",89131,36.28037,-115.26147
905,"Food Lion","2245 Ashley Crossing Dr","Charleston","SC",29414,32.81368,-80.03969
906,"Albertson's","7400 Oakmont Blvd","Fort Worth","TX",76132,32.66302,-97.41972
907,"Harris Teeter","600 N Glebe Rd","Arlington","VA",22203,38.87658,-77.10977
908,"Harris Teeter","2800 Arctic Ave","Virginia Beach","VA",23451,36.85582,-75.98098
909,"K & L","3005 El Camino Real","Redwood City","CA",94061,37.46846,-122.2103
911,"BevMo","2940 N Main St","Walnut Creek","CA",94597,37.92769,-122.06111
912,"Stew Leonards","99 Federal Rd","Danbury","CT",6811,41.41306,-73.42491
913,"Lowes","6430 Tryon Rd","Cary","NC",27513,35.74608,-78.76135
914,"Smith's","750 S Meadows Pkwy","Reno","NV",89521,39.43738,-119.75678
915,"Spec's","5219 De Zavala Road #101","San Antonio","TX",78249,29.56615,-98.58717
916,"Wegman's","12501 Stone Village Way","Midlothian","VA",23113,37.5026,-77.62408
917,"Lee's","1450 W. Horizon Ridge Pkwy #415","Henderson","NV",89012,36.02168,-115.04224
918,"BJ's","13053 Fair Lakes Shopping Center","Fairfax","Va",22033,38.85705,-77.3943
919,"BevMo","1700 Rosecrans Ave Suite B","Manhattan Beach","CA",90266,33.90111,-118.38243
920,"Stater Bros","10114 Adams Ave","Huntington Beach","CA",92646,33.67027,-117.95225
921,"Costco","507 Piney Grove Road","Columbia","SC",29210,34.0703,-81.13904
922,"WinCo Foods","2101 NE Andresen Rd","Vancouver","WA",98661,45.63895,-122.59705
923,"Evergreens","12017 Shelbyville Road","Louisville","KY",40243,38.24916,-85.53235
924,"Kroger","9440 Brownsboro Rd","Louisville","KY",40241,38.30528,-85.5752
925,"Liquor Barn","4301 Towne Center Drive","Louisville","KY",40241,38.29915,-85.55856
926,"Prospect Party Center","9521 U.S. 42","Prospect","KY",40059,38.34404,-85.61815
927,"Westport Whiskey & Wine","1115 Herr Lane # 140","Louisville","KY",40222,38.26742,-85.61175
928,"Beverage Warehouse","4232 Shelbyville Road","Louisville","KY",40207,38.25095,-85.6373
929,"Party Mart","4808 Brownsboro Center","Louisville","KY",40207,38.27757,-85.63666
930,"Costco","5020 Norton Healthcare Boulevard","Louisville","KY",40241,38.31688,-85.57343
931,"Costco","3408 Bardstown Road","Louisville","KY",40218,38.20397,-85.66799
933,"Whole Foods","10133 Louetta Road","Houston","TX",77070,29.9985,-95.56197
934,"Costco","12405 North Gessner Road","Houston","TX",77064,29.95511,-95.54787
935,"Goody Goody","7055 Hwy 6 N","Houston","TX",77095,29.88042,-95.6469
936,"Randall's","5219 Fm 1960 West","Houston","TX",77069,29.98152,-95.50913
937,"Sam's Club","7950 Cypress Creek Pkwy","Houston","TX",77070,29.96343,-95.54792
938,"HEB","10919 Louetta Rd","Houston","TX",77070,29.99556,-95.576
939,"HEB","9503 Jones Rd","Houston","TX",77065,29.91111,-95.58618
940,"HEB","9710 Katy Fwy","Houston","TX",77055,29.78773,-95.53251
941,"Spec's","17414 Northwest Freeway","Jersey Village","TX",77040,29.89072,-95.58231
942,"Spec's","2410 Smith St","Houston","TX",77006,29.74858,-95.37719
943,"Spec's","6927 FM 1960","Houston","TX",77069,29.9685,-95.53221
944,"BevMo","850 NW 45th St","Seattle","WA",98107,47.6618,-122.36801
945,"Costco","4401 4th Ave S","Seattle","WA",98134,47.56535,-122.33047
946,"Fiesta Mart","8320 Farm to Market 1960","Houston","TX",77070,29.9599,-95.55119
948,"Costco","1000 N Rengstorff Ave","Mountain View","CA",94043,37.42095,-122.09564
949,"BevMo","6520 Canoga Ave Space D","Canoga Park","CA",91303,34.18902,-118.59522
950,"Costco","21800 Victory Blvd","Woodland Hills","CA",91367,34.18673,-118.60332
951,"Kroger","9125 West Sam Houston Pkwy N","Houston","TX",77064,29.90324,-95.55385
952,"Costco","1646 W Montebello Ave","Phoenix","AZ",85015,33.52125,-112.09608
953,"Costco","2224 East Williams Field Road","Gilbert","AZ",85295,33.30812,-111.74274
954,"Costco","6255 East Grant Road","Tucson","AZ",85712,32.25106,-110.85838
955,"Costco","1445 West Elliot Road","Tempe","AZ",85284,33.34756,-111.96231
956,"Costco","8810 Tampa Ave.","Northridge","CA",91324,34.23076,-118.55106
957,"Costco","2655 El Camino Real","Tustin","CA",92782,33.72852,-117.79581
958,"Costco","11800 4th Street","Rancho Cucamonga","CA",91730,34.0776,-117.54851
959,"Costco","24001 El Toro Road Suite B","Laguna Hills","CA",92653,33.6144,-117.7103
960,"Costco","340 LakewoodCenter Mall","Lakewood","CA",90712,33.85041,-118.13721
961,"Sendik's Food Market","13425 Watertown Plank Road","Elm Grove","WI",53122,43.04224,-88.07927
962,"Discount Liquor","919 North Barstow Street","Waukesha","WI",53186,43.01278,-88.22904
963,"Ray's Wine and Spirits","8930 West North Avenue","Milwaukee","WI",53226,43.06073,-88.02444
964,"Otto's Wine and Spirits","15380 Watertown Plank Road","Elm Grove","WI",53122,43.03739,-88.10593
965,"Metro Market","17630 West Bluemound Road","Brookfield","WI",54045,43.03639,-88.19276
966,"Woodman's","1600 East Main Street","Waukesha","WI",53186,43.02215,-88.20442
967,"Costco","7562 Center Ave.","Huntington Beach","CA",92647,33.73323,-117.99702
968,"BevMo","5171 Mowry Ave","Fremont","CA",94538,37.53579,-122.00023
969,"Costco","443 Pewaukee Road","Pewaukee","WI",53072,43.08899,-88.2309
971,"Pick 'N Save","2205 North Calhoun Road","Brookfield","WI",53005,43.05942,-88.12907
972,"Costco","2887 South Market Street","Gilbert","AZ",85295,33.29628,-111.74488
973,"Costco","27220 Heather Ridge Road","Laguna Niguel","CA",92677,33.56825,-117.71172
974,"Costco","7981 East Stockton Blvd.","Sacramento","CA",95823,38.46825,-121.4143
975,"Costco","2400 Monument Boulevard","Concord","CA",94520,37.95912,-122.03418
976,"Costco","11330 Fountains Drive","Maple Grove","MN",55369,45.09302,-93.42383
977,"Costco","7725 188th Ave NE","Redmond","CA",98052,47.67359,-122.09127
978,"Sam's Club","8080 W Tropical Pkwy","Las Vegas","NV",89149,36.27316,-115.27098
979,"Sam's Club","7100 Arroyo Crossing Pkwy","Las Vegas","NV",89118,36.06413,-115.24881
980,"Broudy's Liquors","353 Marsh Landing Parkway","Jacksonville Beach","FL",32250,30.2543,-81.38911
981,"Dorn's Liquors & Wine","4140 Northwest 16th Boulevard","Gainesville","FL",32605,29.67496,-82.38771
982,"LQR MKT","360 Connecticut Avenue","Norwalk","CT",6854,41.10248,-73.44023
983,"Kroger","9480 W Broad St","Richmond","VA",23294,37.64073,-77.55551
984,"Wegman's","12200 Wegmans Blvd","Henrico","VA",23233,37.66312,-77.63518
985,"Costco","12121 Jefferson Ave","Newport News","Va",23602,37.10535,-76.49494
986,"HEB","16811 El Camino Real","Houston","TX",77058,29.55478,-95.11772
987,"Spec's","1033 Bay Area Blvd","Houston","TX",77062,29.55618,-95.11917
988,"Costco","23645 Katy Freeway","Katy","TX",77494,29.78286,-95.78093
989,"Lexington Beverage Outlet","929 N Lake Dr.","Lexington","SC",29072,33.99633,-81.23125
990,"Kroger","16400 El Camino Real","Houston","TX",77062,29.55876,-95.1248
991,"BevMo","7639 N. Blackstone Ave","Fresno","CA",93720,36.84653,-119.79165
992,"Costco","7100 N Abby St","Fresno","CA",93720,36.83963,-119.78795
993,"Savemart","1107 E. Champlain","Fresno","CA",93720,36.87047,-119.76513
994,"Von's","8949 N. Cedar Ave","Fresno","CA",93720,36.86583,-119.75728
995,"Grape Tray","6023 N Palm Ave","Fresno","CA",93704,36.8236,-119.80879
996,"Sierra Nut House","7901 N. Blackstone Ave","Fresno","CA",93720,36.85001,-119.79437
997,"Vino and Friends","1560 E Champlain Dr #101","Fresno","CA",93720,36.86712,-119.75481
998,"The Meat Market","454 Alluvial Avenue West","Fresno","CA",93650,36.8449,-119.80055
999,"Sam's Deli","2415 N First St.","Fresno","CA",93703,36.7726,-119.7728
1000,"Safeway","5548 E Grant Rd","Tucson","AZ",85712,32.2493,-110.87261
1001,"Austin Liquors","20 Boston Turnpike","Shrewsbury","MA",1545,42.27398,-71.75266
1002,"BJ's","6102 Shops Way","Northborough","MA",1532,42.28964,-71.67457
1003,"Wegman's","9102 Shops Way","Northborough","MA",1532,42.29114,-71.67058
1004,"Walmart","600 Showers Drive","Mountain View","CA",94040,37.40075,-122.10984
1005,"Draeger's Market","342 1st St","Los Altos","CA",94022,37.37635,-122.11685
1006,"Whole Foods","270 Palladio Pkwy","Folsom","CA",95630,38.64887,-121.11814
1007,"Bel Air","5100 Laguna Blvd","Elk Grove","CA",95758,38.42195,-121.44535
1008,"Safeway","2522 Foulk Rd","Wilmington","DE",19810,39.82591,-75.49905
1009,"ACME Markets","101 Byers Drive","Glen Mills","PA",19342,39.88429,-75.52785
1010,"Wegman's","100 Applied Bank Blvd","Glen Mills","PA",19342,39.87529,-75.54132
1011,"Costco","6350 Peachtree Dunwoody Rd","Atlanta","GA",30328,33.92826,-84.35417
1012,"Citi Wine & Spirits","5861 Roswell Rd","Sandy Springs","GA",30328,33.91515,-84.37878
1013,"Costco","1300 Edwards Ferry Rd Ne","Leesburg","VA",20176,39.11538,-77.53292
1014,"Walmart","900 Walmart Way","Midlothian","VA",23113,37.5042,-77.6297
1015,"Whole Foods","12080 Jefferson Ave","Newport News","VA",23606,37.10289,-76.49076
1016,"Winn Dixie","11380 Beach Blvd Suite 6","Jacksonville","FL",32246,30.28509,-81.52698
1017,"Winn Dixie","678 N Federal Hwy","Fort Lauderdale","FL",33304,26.13093,-80.13649
1018,"B-21 Fine Wine & Spirits","43380 US Hwy 19 N","Tarpon Springs","FL",34689,28.16587,-82.74105
1019,"Whispering Vine Wine Company","3886 Mayberry Dr","Reno","NV",89519,39.50626,-119.85945
1020,"ShopRite","224 NJ-4","Paramus","NJ",7652,40.91429,-74.05324
1021,"Frair Tuck","4635 State Hwy K","O'Fallon","MO",63368,38.71992,-90.70298
1022,"Walmart","1521 Sam's Cir","Chesapeake","VA",23320,36.77367,-76.24825
1023,"Walmart","12401 Jefferson Ave","Newport News","VA",23602,37.11856,-76.50637
1024,"Nob Hill Foods","1250 Grant Road","Mountain View","CA",94040,37.37845,-122.07647
1025,"Safeway","645 North San Antonio Road","Mountain View","CA",94040,37.39269,-122.1141
1026,"Lowes","1236 Guilford College Rd","Jamestown","NC",27282,36.04031,-79.92113
1027,"Harris Teeter","885 Walnut St","Cary","NC",27511,35.77516,-78.76515
1028,"Kroger","7467 St Andrews Rd Suite 6","Irmo","SC",29063,34.08686,-81.18663
1029,"Lowes","850 East Suber Road #200","Greer","SC",29650,34.90105,-82.25448
1030,"99 Ranch Market","1350 Grant Road","Mountain View","California",94040,37.37729,-122.07669
1031,"Costco","9650 W Broad St","Glen Allen","VA",23060,37.64228,-77.56087
1032,"BJ's","3985 Plank Rd","Fredericksburg","VA",22407,38.29214,-77.52737
1033,"Costco","10000 Mickelberry Rd NW","Silverdale","WA",98383,47.65665,-122.68092
1034,"Kappy's","175 Andover St","Peabody","MA",1960,42.5431,-70.94089
1035,"Merchants Liquor Mart","88 High Street","Danvers","MA",1923,42.56057,-70.93113
1036,"Costco","14390 Chantilly Crossing Lane","Chantilly","VA",20151,38.89578,-77.4433
1037,"Costco","1200 South Fern Street","Arlington","VA",22202,38.86149,-77.05753
1038,"Costco","10701 Sudley Manor Drive","Manassas","VA",20109,38.78374,-77.51699
1039,"Sprouts","8330 S Tamiami Trail","Sarasota","FL",34238,27.2299,-82.49681
1040,"Sendik's Food Market","20222 Lower Union St","Brookfield","WI",53045,43.03527,-88.16491
1041,"Publix","3100 Southwest 35th Boulevard","Gainesville","FL",32608,29.62508,-82.37917
1042,"Walmart","2501 S Market St","Gilbert","AZ",85295,33.30485,-111.74097
1043,"Stater Bros","11085 Warner Ave","Fountain Valley","CA",92708,33.71708,-117.93524
1044,"Lee's","6690 N Durango Dr","Las Vegas","NV",89149,36.28246,-115.28418
1045,"Crown Liquors","9525 Westview Drive","Coral Springs","FL",33076,26.30003,-80.25141
1046,"Lidl","1120 S Main St","Wake Forest","NC",27587,35.96595,-78.51879
1047,"Lidl","15169 Brandy Rd","Culpeper","VA",22701,38.48484,-77.97288
1048,"Lidl","3315 Sides Branch Rd","Winston-Salem","NC",27127,36.03232,-80.26123
1049,"Lidl","12151 W Broad St","Henrico","VA",23233,37.65879,-77.63527
1050,"Lidl","6440 N Military Hwy","Norfolk","VA",23518,36.90037,-76.22628
1051,"Lee's","9110 S Las Vegas Blvd","Las Vegas","NV",89123,36.02422,-115.17178
1052,"Publix","5400 Wyndham Forest Dr","Glen Allen","VA",23059,37.68391,-77.58657
1053,"Lidl","11782 Sudley Manor Dr","Manassas","VA",20109,38.78413,-77.52101
1054,"Wegman's","300 W Grand Ave","Montvale","NJ",7645,41.05189,-74.06128
1055,"Whole Foods","1300 Ernest W Barrett Pkwy NW","Kennesaw","GA",30144,33.99822,-84.59012
1056,"Heritage Liquors & Wine","2815 Woodruff Rd Ste 101","Simpsonville","SC",29681,34.80751,-82.22463
1057,"Sam's Club","4001 SW 30 Pl","Gainesville","FL",32608,29.62655,-82.44867
1058,"Costco","10921 Causeway Blvd","Brandon","FL",33511,27.92148,-82.33065
1059,"Costco","13450 SW 120th St","Miami","FL",33186,25.65402,-80.41279
1060,"Costco","4696 Gardens Park Blvd","Orlando","FL",32839,28.49555,-81.42543
1061,"Costco","8201 S Tamiami Trl Unit 501","Sarasota","FL",34238,27.23436,-82.49135
1062,"Harris Teeter","21399 Epicerie Plaza","Sterling","VA",20164,39.02376,-77.3965
1063,"Kroger","1753 Sentinel Dr","Chesapeake","VA",23320,36.77844,-76.2539
1064,"Costco","3102 Plank Rd Ste 600","Fredericksburg","VA",22407,38.29054,-77.51554
1065,"Wegman's","101 Cross Trail Blvd SE","Lessburg","VA",20175,39.08904,-77.52199
1066,"Costco","3150 Fostoria Way","Danville","CA",94526,37.78265,-121.97344
1067,"Walmart","1220 Old Country Road","Hempstead","NY",11590,40.74321,-73.60082
1068,"Costco","1250 Old Country Rd","Westbury","NY",11590,40.74396,-73.59751
1069,"Beverage Barn","2080 Front Street","East Meadow","NY",11554,40.72416,-73.55927
1070,"Kegs & Cases","3811 Hempstead Turnpike","Levittown","NY",11756,40.72613,-73.4951
1071,"Stew Leonards","1897 Front St","East Meadow","NY",11554,40.7216,-73.56436
1073,"Costco","2450 E Beardsley Rd","Phoenix","AZ",85050,33.67089,-112.02863
1074,"Costco","10000 W McDowell Rd","Avondale","AZ",85392,33.46723,-112.27417
1075,"Costco","1415 N Arizona Ave","Gilbert","AZ",85233,33.376,-111.84084
1076,"Costco","5301 Almaden Expy","San Jose","CA",95118,37.25324,-121.88028
1077,"Costco","2800 Independence Dr","Livermore","CA",94551,37.70319,-121.81205
1078,"Costco","1001 Metro Center Blvd","Foster City","CA",94404,37.56184,-122.27443
1079,"Costco","26610 Ynez Rd","Temecula","CA",92591,33.52123,-117.15436
1080,"Costco","4601 183A","Cedar Park","TX",78613,30.5276,-97.8183
1081,"Kroger","3300 Texas Sage Trail","Fort Worth","TX",76177,32.90958,-97.31117
1082,"BJ's","101 S. Van Dorn St.","Alexandria","VA",22304,38.81315,-77.13252
1084,"Costco","2655 Gulf to Bay Blvd","Clearwater","FL",33759,27.95797,-82.7286
1085,"Costco","3250 Northlake Blvd","Palm Beach Gardens","FL",33403,26.80655,-80.08754
1086,"Costco","741 Orange Ave","Altamonte","FL",32714,28.66119,-81.41725
1087,"Costco","8275 Naples Blvd","Naples","FL",34109,26.2195,-81.77528
1088,"Costco","10088 Gulf Center Dr","Fort Myers","FL",33913,26.49002,-81.78571
1089,"Costco","1800 W Sample Rd","Pompano Beach","FL",33064,26.27351,-80.15001
1090,"Costco","1890 S University Dr","Davie","FL",33324,26.09676,-80.2479
1091,"Costco","8712 W Linebaugh Ave","Tampa","FL",33625,28.04152,-82.58028
1092,"Costco","4301 W William Cannon Dr","Austin","TX",78749,30.2215,-97.84118
1093,"Costco","15330 I-35 N","Selma","TX",78154,29.57625,-98.31963
1094,"Costco","5611 UTSA Boulevard","San Antonio","TX",78249,29.57647,-98.59704
1095,"Costco","1150 Bunker Hill Rd","Houston","TX",77055,29.788,-95.5304
1096,"Costco","21802 Townsen Blvd W","Humble","TX",77338,30.02147,-95.26665
1097,"Costco","3500 Business Center Dr","Pearland","TX",77584,29.54408,-95.3904
1098,"Costco","3836 Richmond Ave","Houston","TX",77027,29.7339,-95.43983
1099,"Costco","600 W Arbrook Blvd","Arlington","TX",76014,32.68366,-97.11314
1100,"Costco","8900 Tehama Ridge Pkwy","Fort Worth","TX",76177,32.90087,-97.32094
1101,"Albertson's","3931 Irvine Blvd","Irvine","CA",92602,33.7242,-117.77232
1102,"Albertson's","30530 Rancho California Rd","Temecula","CA",92591,33.51019,-117.1273
1103,"Trader Joes","18681 Main St","Huntington Beach","CA",92648,33.69253,-117.99272
1104,"Ralph's","1413 Hawthorne Blvd","Redondo Beach","CA",90278,33.86702,-118.35369
1105,"Whole Foods","2847 Park Ave","Tustin","CA",92782,33.69636,-117.82559
1106,"Don & Ben's","1150 N Loop 1604 E Ste 102","San Antonio","TX",78248,29.60627,-98.51049
1107,"Houston Wine Merchant","2646 S Shepherd Dr","Houston","TX",77098,29.74092,-95.41091
1108,"Cub Foods","7191 10th Street","Oakdale","MN",55128,44.96193,-92.96089
1109,"Liquor Barn","1837 Plaudit Pl","Lexington","KY",40509,38.01418,-84.41965
1110,"Whole Foods","525 N Lamar Blvd","Austin","TX",78703,30.27055,-97.75318
1111,"Kroger","10010 Cypresswood Drive","Houston","TX",77070,29.9833,-95.56583
1112,"Kroger","1035 N Shepherd Dr","Houston","TX",77008,29.78932,-95.41114
1113,"Kroger","4620 TX-121","Lewisville","TX",75056,33.06318,-96.88956
1114,"MGM","3900 Vinewood Ln N","Plymouth","MN",55441,45.02695,-93.44706
1115,"Target","8900 MN-7","Minneapolis","MN",55426,44.93603,-93.39339
1116,"Sam's Club","9925 Hudson RD","Woodbury","MN",55125,44.94269,-92.90712
1117,"Sam's Club","200 American Blvd W","Bloomington","MN",55420,44.86012,-93.28197
1118,"Wegman's","12200 Wegmans Blvd","Henrico","VA",23233,37.66312,-77.63518
1119,"Kroger","150 W Lowry Ln Ste 190","Lexington","KY",40503,38.00579,-84.52181
1120,"Woodman's","725 S Gammon Rd","Madison","WI",53719,43.04891,-89.50065
1121,"Hy-Vee","675 S Whitney Way","Madison","WI",53711,43.0509,-89.47141
1122,"Steve's Liquor","122 Junction Rd","Madison","WI",53719,43.06154,-89.52801
1123,"Spec's","2314 W Holcombe Blvd","Houston","TX",77030,29.74858,-95.37719
1124,"Costco","2150 Deming Way","Middleton","WI",53562,43.10131,-89.51913
1125,"Sam's Club","4201 Rodeo Rd","Santa Fe","NM",87507,35.63974,-106.00852
1126,"WineXpress","202 Scuffletown Rd","Simpsonville","SC",29681,34.80467,-82.22925
1127,"Costco","1500 Fitzgerald Ct","Lexington","KY",40509,38.02496,-84.40873
1128,"Wegman's","1245 Worcester St","Natick","MA",1760,42.30081,-71.38414
1129,"Target","4101 Towne Center Dr","Louisville","KY",40241,38.29739,-85.55783
1130,"Meijer","4100 Towne Center Dr","Louisville","KY",40241,38.29922,-85.55401
1131,"Walmart","3706 Diann Marie Rd","Louisville","KY",40241,38.30082,-85.54515
1132,"Meijer","351 Meijer Way","Lexington","KY",40503,37.99575,-84.53155
1133,"Target","131 W Reynolds Rd","Lexington","KY",40503,37.99267,-84.52533
1134,"Walmart","4051 Nicholasville Rd","Lexington","KY",40503,37.9794,-84.5309
1135,"Costco","10745 Kingston Pike","Knoxville","TN",37934,35.89671,-84.14055
1136,"Costco","7900 W Quincy Ave","Littleton","CO",80123,39.63727,-105.08611
1137,"Trader Joes","750 Colorado Blvd","Denver","CO",80206,39.72883,-104.94025
1138,"Tipsy","5869 S Alkire St","Littleton","CO",80127,39.61129,-105.14974
1139,"Applejack","3320 Youngfield St","Wheat Ridge","CO",80033,39.76346,-105.14107
1140,"Argonaut Wine and Liquor","760 E Colfax Ave","Denver","CO",80203,39.73965,-104.97788
1141,"Davidson Liquor","5555 Boatworks Dr","Highlands Ranch","CO",80126,39.56551,-104.92377
1142,"Kroger","9225 Kingston Pike","Knoxville","TN",37922,35.91298,-84.08873
1143,"Publix","11656 Parkside Dr","Knoxville","TN",37934,35.89357,-84.17006
1144,"Turkey Creek Wine and Spirits","10903 Turkey Drive","Knoxville","TN",37934,35.90404,-84.14726
1145,"Food City","11501 Hardin Valley Rd","Knoxville","TN",37932,35.93128,-84.18619
1146,"McScrooges Wine and Spirits","307 N Peters Rd","Knoxville","TN",37922,35.91454,-84.09031
1147,"Middlebrook Liquor Store","7431 Middlebrook Pike","Knoxville","TN",37909,35.94186,-84.04166
1148,"Bobs Liquor and Wine","220 N Winston Rd","Knoxville","TN",37919,35.9269,-84.04471
1150,"Albertson's","21001 N Tatum Blvd Suite 76","Phoenix","AZ",85050,33.67428,-111.97447
1151,"Lowes","2440 Augusta Hwy","Lexington","SC",29072,33.97989,-81.30665
1152,"Lowes","2815 Woodruff Rd","Simpsonville","SC",29681,34.80751,-82.22463
1153,"Molly's Spirits","5809 W 44th Ave","Denver","CO",80212,39.77895,-105.05949
1154,"King Sooper","2750 S Colorado Blvd","Denver","CO",80222,39.66676,-104.93688
1155,"Rosauers","1724 W Francis Ave","Spokane","WA",99205,47.7166,-117.43746
1156,"Target","1501 Miller Park Way","West Milwaukee","WI",53214,43.01506,-87.97038
1157,"Meijer","5800 W Layton Ave","Milwaukee","WI",53220,42.9607,-87.98654
1158,"BevMo","700 SE 160th Ave #111","Vancouver","WA",98683,45.61711,-122.50826
1159,"ABC","2726 S Orange Ave","Orlando","FL",32806,28.51164,-81.37676
1176,"Haskell's","19900 W 78th St.","Chanhassen","MN",55317,44.86293,-93.52061
1177,"Costco","1600 El Camino Real","South San Francisco","CA",94080,37.66532,-122.44837
1178,"Hy-Vee","1500 Central Park Village","Eagan","MN",55121,44.83441,-93.17138
1179,"Pine Orchard Liquors","10281 Baltimore National Pike #103","Ellicott City","MD",21042,39.27966,-76.86723
1180,"HEB","6711 S Fry Rd","Katy","TX",77494,29.71295,-95.77624
1181,"Spec's","24940 Farm to Market 1093","Richmond","TX",77406,29.7,-95.80893
1182,"Lidl","5215 Sunset Blvd","Lexington","SC",29072,34.00449,-81.20226
1184,"Trader Joes","59 Woodruff Industrial Ln","Greenville","SC",29607,34.82905,-82.30567
1185,"Lidl","1866 Woodruff Rd","Greenville","SC",29607,34.81988,-82.26641
1186,"Kokoman","34 Cities of Gold Rd","Santa Fe","NM",87506,35.88681,-106.01815
1187,"Winn Dixie","300 SW 16th Ave","Gainesville","FL",32601,29.6374,-82.32908
1188,"Winn Dixie","8951 Bonita Beach Rd SE #590","Bonita Springs","FL",34135,26.32998,-81.8045
1189,"Winn Dixie","2200 S Atlantic Ave","Daytona Beach Shores","FL",32118,29.19595,-80.99399
1580,"Winn Dixie","10580 Colonial Blvd Ste 101 Suite 101","Fort Myers","FL",33913,26.61104,-81.78366
1581,"Ralph's","42150 Washington St","Bermuda Dunes","CA",92203,33.7418,-116.30279
1582,"Harris Teeter","2425 N Harrison St","Arlington","VA",22207,38.89701,-77.13746
1583,"Safeway","13023 NE Hwy 99","Vancouver","WA",98686,45.71531,-122.64997
1584,"Safeway","413 Elden St","Herndon","VA",20170,38.96682,-77.37656
1585,"Safeway","5821 Crossroads Cir","Falls Church","VA",22041,38.85357,-77.12892
1586,"Safeway","150 E El Camino Real","Sunnyvale","CA",94087,37.36465,-122.03073
1587,"Safeway","20901 N. Pima Rd","Scottsdale","AZ",85255,33.67585,-111.88807
1588,"BevMo","1545 Holiday Ln","Fairfield","CA",94534,38.26032,-122.06171
1589,"Fry's","3036 E Thomas Rd","Phoenix","AZ",85016,33.48172,-112.01662
1590,"Lee's","2950 Northtowne Ln","Reno","NV",89512,39.55827,-119.78065
1591,"Costco","2900 Cumberland Blvd SE","Atlanta","GA",30339,33.88258,-84.47535
1592,"Consumer Beverage Outlet","5313 S 108th St","Hales Corners","WI",53130,42.94832,-88.04953
1593,"Safeway","1207 S 320th St","Federal Way","WA",98003,47.31382,-122.31786
1594,"Costco","1021 Oak Forest Lane","Myrtle Beach","SC",29577,33.70582,-78.91574
1595,"Costco","4261 Coral Ridge Dr","Coral Springs","FL",33065,26.28297,-80.28209
1596,"Keg Liquor","2860 S Colorado Blvd","Denver","CO",80222,39.66421,-104.94039
1597,"Cox's","296 N Hubbards Ln","Louisville","KY",40207,38.25941,-85.64119
1598,"Trader Joes","10600 Tamiami Trail N","Naples","FL",34108,26.26813,-81.80053
1599,"Kroger","3735 Renee Drive","Myrtle Beach","SC",29579,33.76103,-78.96656
1600,"Walmart","541 Seaboard St","Myrtle Beach","SC",29577,33.70274,-78.9122
1601,"Lowes","215 International Dr","Myrtle Beach","SC",29579,33.75982,-78.85507
1602,"Von's","16450 Beach Blvd","Westminster","CA",92683,33.72432,-117.98777
1603,"Walmart","1850 SW Gatlin Blvd","Port St. Lucie","FL",34953,27.26163,-80.40407
1604,"Walmart","2500 W Broward Blvd","Fort Lauderdale","FL",33312,26.11905,-80.1753
1605,"Walmart","9890 Hutchinson Park Dr","Jacksonville","FL",32225,30.34238,-81.54559
1606,"Walmart","5420 Juliet Blvd","Naples","FL",34109,26.2707,-81.74554
1607,"Walmart","7101 Gateway Blvd W","El Paso","TX",79925,31.77665,-106.38479
1608,"Spec's","2501 N Mesa St","El Paso","TX",79902,31.77554,-106.50449
1609,"Albertson's","2200 N Yarbrough Dr","El Paso","TX",79925,31.77433,-106.3375
1610,"Costco","6101 Gateway Blvd W Suite 1","El Paso","TX",79925,31.78319,-106.41319
1611,"WB Liquors","1188 N Yarbrough Dr","El Paso","TX",79925,31.75487,-106.34136
1612,"Fresco","7480 SW 117th Ave","Miami","FL",33183,25.69778,-80.3837
1613,"Publix","2201 N University Dr","Coral Springs","FL",33071,26.25832,-80.24799
1614,"Raley's","2075 Fair Oaks Blvd","Sacramento","CA",95825,38.57516,-121.41714
1615,"Safeway","3320 Arden Way","Sacramento","CA",95825,38.59448,-121.38686
1616,"Bottle King","95 Washington Ave","Dumont","NJ",7628,40.93944,-73.99361
1617,"Safeway","11501 Canyon Rd E.","Puyallup","WA",98373,47.1519,-122.35587
1618,"Amazon Prime","321 Speen Street","Natick","MA",1760,42.30403,-71.37965
1619,"Amazon Prime","13887 Manchester Road","St. Louis","MO",63011,38.59839,-90.4843
1620,"Amazon Prime","5601 Brodie Lane Suite 800","Austin","TX",78745,30.22668,-97.82083
1621,"Amazon Prime","3101 Texas Sage Trail","Fort Worth","TX",76177,32.91359,-97.31178
1622,"Amazon Prime","7640 Cypress Creek Pkwy","Houston","TX",77070,29.96618,-95.54315
1623,"Amazon Prime","17530 La Cantera Pkwy Ste103","San Antonio","TX",78257,29.60639,-98.59623
1624,"NH Liquor & Wine Outlet","294 Daniel Webster Hwy","Nashua","NH",3060,42.70412,-71.43652
1625,"Safeway","1701 Santa Rita Rd","Pleasanton","CA",94566,37.67492,-121.87458
1626,"Winestore","720 Governor Morrison St Suite 150","Charlotte","NC",28211,35.1568,-80.82415
1627,"Randall's","1910 South Jefferson","St. Louis City","MO",63104,38.61235,-90.22035
1628,"Randall's","10800 Lincoln Trail","Fairview Heights","IL",62208,38.59242,-89.99191
1629,"Schnuck's","625 Lincoln Hwy","Fairview Heights","IL",62208,38.59411,-89.97625
1630,"Schnuck's","2665 N Illinois St","Swansea","IL",62226,38.5432,-89.98552
1631,"Dierberg's","4000 Green Mt Crossing Dr","Shiloh","IL",62269,38.57136,-89.92672
1632,"HEB","5425 S Staples St","Corpus Christi","TX",78411,27.70215,-97.37391
1633,"Redneck Wine Company","3225 S MacDill Ave","Tampa","FL",33629,27.91573,-82.49467
1634,"Top Ten Liquors","12513 Central Ave NE","Blaine","MN",55434,45.19897,-93.23209
1635,"Publix","2724 W Hillsborough Ave","Tampa","FL",33614,27.99462,-82.48729
1636,"Food Lion","3081 Lauderdale Dr","Richmond","VA",23233,37.63781,-77.63204
1637,"Food Lion","13100 Midlothian Turnpike","Midlothian","VA",23113,37.50264,-77.64052
1638,"Food Lion","8006 Buford Ct","Richmond","VA",23235,37.5011,-77.54474
1639,"Von's","20440 Devonshire St","Chatsworth","CA",91311,34.25726,-118.57866
1640,"Joe Canal's","489 Route 1 S.","Iselin","NJ",8830,40.55556,-74.31356
1641,"Wegman's","8855 McGaw Rd","Columbia","MD",21045,39.18613,-76.82006
1642,"Raley's","3518 Marconi Ave","Sacramento","CA",95821,38.61652,-121.3815
1643,"Publix","3700 4th St N","St. Petersburg","FL",33704,27.80591,-82.64007
1644,"Publix","11255 Causeway Blvd","Brandon","FL",33511,27.92128,-82.32374
1645,"Winn Dixie","2100 W Swann Ave","Tampa","FL",33606,27.93609,-82.48132
1646,"Publix","252 Harbor Village Lane","Apollo Beach","FL",33572,27.75196,-82.41221
1647,"Publix","482 E Altamonte Dr #1005","Altamonte Springs","FL",32701,28.66201,-81.37369
1648,"Publix","7524 Dr Phillips Blvd","Orlando","FL",32819,28.45348,-81.4902
1649,"Publix","2873 S Orange Ave","Orlando","FL",32806,28.50989,-81.37327
1650,"Winn Dixie","340 S State Rd 434 Suite 1034","Altamonte Springs","FL",32714,28.65737,-81.42258
1651,"Winn Dixie","11957 S Apopka Vineland Rd","Orlando","FL",32836,28.39241,-81.50426
1652,"Winn Dixie","2960 Curry Ford Rd","Orlando","FL",32806,28.52346,-81.34495
1653,"Publix","7950 Dani Dr #200","Fort Myers","FL",33966,26.60407,-81.8086
1654,"Publix","20311 Grande Oak Blvd","Estero","FL",33928,26.43907,-81.76932
1655,"Publix","13121 Paul J Doherty Pkwy","Fort Myers","FL",33913,26.55567,-81.74774
1656,"Publix","2952 NE 199th St","Aventura","FL",33180,25.95962,-80.14121
1657,"Publix","1940 Cordova Rd","Fort Lauderdale","FL",33316,26.09722,-80.13011
1658,"Publix","3500 Davie Blvd","Fort Lauderdale","FL",33312,26.10411,-80.19335
1659,"Winn Dixie","20417 Biscayne Blvd","Aventura","FL",33180,25.96494,-80.14289
1660,"Winn Dixie","3805 NE 163rd St","North Miami Beach","FL",33160,25.93166,-80.1337
1661,"Winn Dixie","1625 Cordova Rd","Fort Lauderdale","FL",33316,26.10188,-80.13143
1662,"Winn Dixie","3260 Davie Blvd","Fort Lauderdale","FL",33312,26.10336,-80.18908
1663,"Publix","1478 W Granada Blvd","Ormond Beach","FL",32174,29.25557,-81.11159
1664,"Winn Dixie","353 W Granada Blvd","Ormond Beach","FL",32174,29.28248,-81.06839
1665,"Publix","4413 Town Center Pkwy #100","Jacksonville","FL",32246,30.26414,-81.52664
1666,"Winn Dixie","10915-122 Baymeadows Rd Unit 12","Jacksonville","FL",32256,30.21715,-81.5181
1667,"Publix","5380 Stadium Pkwy Ste 100","Rockledge","FL",32955,28.2682,-80.73894
1668,"Winn Dixie","100 Canaveral Plaza Blvd","Cocoa Beach","FL",32931,28.35599,-80.61005
1669,"Target","4701 N Illinois St","Fairview Heights","IL",62208,38.57265,-89.98747
1670,"Sam's Club","1350 W Hwy 50","O'Fallon","IL",62269,38.59446,-89.95057
1671,"Walmart","6101 Saratoga Blvd","Corpus Christi","TX",78414,27.67902,-97.37512
1672,"Walmart","4109 S Staples St","Corpus Christi","TX",78411,27.72765,-97.38238
1673,"Spec's","5625 S Padre Island Dr","Corpus Christi","TX",78412,27.70604,-97.3701
1674,"Sam's Club","4833 S Padre Island Dr","Corpus Christi","TX",78411,27.71297,-97.38441
1675,"WB Liquors","6181 Saratoga Blvd #103","Corpus Christi","TX",78414,27.6783,-97.37246
1676,"Costco","2 Mystic View Rd","Everett","MA",2149,42.39689,-71.07151
1677,"Lee's","8165 S Virginia St","Reno","NV",89511,39.45327,-119.7793
1678,"Von's","29530 Rancho California Rd","Temecula","CA",92591,33.50517,-117.14789
1679,"HEB","5313 Saratoga Blvd","Corpus Christi","TX",78413,27.68468,-97.38864
1680,"Lukas Liquors","8457 S Yosemite St","Lone Tree","CO",80124,39.56331,-104.88573
1681,"Wegman's","1200 Wake Towne Dr","Raleigh","NC",27609,35.82312,-78.62252
1682,"Sendik's Food Market","500 E Silver Spring Dr","Milwaukee","WI",53217,43.11886,-87.90367
1683,"Pick 'N Save","6969 N Port Washington Rd Bldg C","Glendale","WI",53217,43.14382,-87.91358
1684,"Woodman's","W124N8145 WI-145","Menomonee Falls","WI",53051,43.16488,-88.06667
1685,"Safeway","9229 Lincoln Ave","Lone Tree","CO",80124,39.53787,-104.88317
1686,"Safeway","7375 E Arapahoe Rd","Englewood","CO",80112,39.59635,-104.9033
1687,"King Sooper","8673 S Quebec St","Highlands Ranch","CO",80130,39.55892,-104.9078
1688,"Costco","8686 Park Meadows Center Dr","Lone Tree","CO",80124,39.55816,-104.87711
1689,"Publix Instacart","4320 Deerwood Lake Pkway","Jacksonville","FL",32216,30.26834,-81.5611
1690,"Publix Instacart","8833 Tamiami Trail N","Naples","FL",34108,26.2489,-81.80313
1691,"Publix Instacart","7524 Dr Phillips Blvd","Orlando","FL",32819,28.45348,-81.4902
1692,"Publix Instacart","12500 W Sunrise Blvd","Sunrise","FL",33323,26.14412,-80.31557
1693,"Publix Instacart","2401 W Azeele St","Tampa","FL",33609,27.94132,-82.48456
1694,"Publix","26841 S Tamiami Trail","Bonita Springs","FL",34134,26.34839,-81.80493
1695,"Winn Dixie","961 E Eau Gallie Blvd","Melbourne","FL",32937,28.13772,-80.58429
1698,"Walmart","45415 Dulles Crossing Plaza","Sterling","VA",20166,39.02289,-77.42831
1700,"Wegman's","4721 Virginia Beach Blvd","Virginia Beach","VA",23462,36.84349,-76.13972
1701,"Molly's Spirits","8557 E Arapahoe Rd Unit A","Greenwood Village","CO",80112,39.59658,-104.89078
1702,"Costco","995 Blue Gentian Rd","Eagan","MN",55121,44.85927,-93.14038
1703,"Publix","21301 S Tamiami Trail Suite 200","Estero","FL",33928,26.42978,-81.80792
1704,"Publix","11460 S US Highway 301","Riverview","FL",33578,27.83422,-82.32721
1705,"Winn Dixie","6929 S US Highway 301","Riverview","FL",33569,27.88033,-82.3284
1706,"Costco","5225 Commercial Blvd","Juneau","AK",99801,58.35937,-134.48239
1707,"Costco","4125 Debarr Rd","Anchorage","AK",99508,61.21013,-149.80664
1708,"Costco","8251 Eastchase Pkwy","Montgomery","AL",36117,32.36377,-86.15069
1709,"Costco","3650 Galleria Cir","Hoover","AL",35244,33.37821,-86.81214
1710,"Costco","1205 N. Memorial Pkwy","Huntsville","AL",35801,34.74369,-86.6027
1711,"Costco","1450 Tingle Circle West","Mobile","AL",36606,30.64897,-88.12109
1712,"Costco","1650 E Marketplace Blvd","Tucson","AZ",85713,32.18079,-110.94691
1713,"Costco","1444 S Sossaman Rd","Mesa","AZ",85209,33.38954,-111.66868
1714,"Costco","4502 E Oak St","Phoenix","AZ",85008,33.47329,-111.98457
1715,"Costco","3801 N 33rd Ave","Phoenix","AZ",85017,33.49144,-112.1283
1716,"Costco","4570 E Cactus Rd","Phoenix","AZ",85032,33.60393,-111.98553
1717,"Costco","3911 E State Route 69","Prescott","AZ",86301,34.57627,-112.36535
1718,"Costco","1130 Broadway Chula","Vista","CA",91911,32.60866,-117.08401
1719,"Costco","8125 Fletcher Parkway","La Mesa","CA",91941,32.77374,-117.02479
1721,"Costco","2030 North Imperial Ave","El Centro","CA",92243,32.81208,-115.57233
1722,"Costco","7803 Othello Ave","San Diego","CA",92111,32.81658,-117.1535
1723,"Costco","4605 Morena Blvd","San Diego","CA",92117,32.82272,-117.22655
1724,"Costco","1755 Hacienda Drive","Vista","CA",92081,33.18797,-117.27608
1725,"Costco","2200 E Willow St","Signal Hill","CA",90755,33.80405,-118.16573
1726,"Costco","5401 Katella Ave","Cypress","CA",90630,33.80447,-118.03948
1727,"Costco","2640 Lomita Blvd","Torrance","CA",90505,33.8066,-118.33359
1728,"Costco","3560 West Century Blvd","Inglewood","CA",90303,33.94275,-118.33341
1729,"Costco","6333 Telegraph Rd","Commerce","CA",90040,33.99466,-118.14156
1730,"Costco","5030 Hamner Ave","Eastvale","CA",91752,33.99745,-117.55829
1731,"Costco","1099 East Hospitality Lane","San Bernandino","CA",92408,34.06823,-117.26283
1732,"Costco","9404 Central Avenue","Montclair","CA",91763,34.08303,-117.69056
1733,"Costco","2207 West Commonwealth Avenue","Alhambra","CA",91803,34.08951,-118.14853
1734,"Costco","2901 Los Feliz Blvd","Los Angeles","CA",90039,34.12902,-118.26381
1735,"Costco","1220 West Foothill Boulevard","Azusa","CA",91702,34.13187,-117.92554
1736,"Costco","6100 Sepulveda Blvd","Van Nuys","CA",91411,34.18139,-118.4634
1737,"Costco","1051 Blvd","Burbank","CA",91506,34.18611,-118.32446
1738,"Costco","2001 E Ventura Blvd","Oxnard","CA",93036,34.22512,-119.14823
1739,"Costco","2660 Park Center Drive","Simi Valley","CA",93065,34.28381,-118.79595
1740,"Costco","7095 Market Place Drive","Goleta","CA",93117,34.42785,-119.87483
1741,"Costco","1141 West Avenue L","Lancaster","CA",93534,34.66143,-118.15099
1742,"Costco","1700 S. Bradley Rd","Santa Maria","CA",93454,34.92696,-120.41989
1743,"Costco","1540 Froom Ranch Way","San Luis Obispo","CA",93405,35.2522,-120.6917
1744,"Costco","4900 Panama Ln","Bakersfield","CA",93313,35.29712,-119.05799
1745,"Costco","3800 Rosedale Hwy","Bakersfield","CA",93308,35.3858,-119.0499
1746,"Costco","1405 W Cameron Ave","Visalia","CA",93277,36.29303,-119.30679
1747,"Costco","2395 E Lacey Blvd","Hanford","CA",93230,36.32594,-119.60683
1748,"Costco","1339 N Davis Rd","Salinas","CA",93907,36.70353,-121.66913
1749,"Costco","2270 Ave","Clovis","CA",93612,36.806,-119.70065
1750,"Costco","4500 W Shaw Ave","Fresno","CA",93722,36.80963,-119.87393
1751,"Costco","7251 Camino Arroyo","Gilroy","CA",95020,37.00838,-121.55661
1752,"Costco","6898 Raleigh Rd","San Jose","CA",95119,37.24427,-121.7865
1753,"Costco","1445 R St","Merced","CA",95340,37.30336,-120.4966
1754,"Costco","2201 Senter Rd","San Jose","CA",95112,37.30944,-121.85118
1755,"Costco","1601 Coleman Ave","Santa Clara","CA",95050,37.35705,-121.93928
1756,"Costco","1709 Automation Pkwy","San Jose","CA",95131,37.39061,-121.88454
1757,"Costco","2300 Middlefield Rd","Redwood City","CA",94063,37.47833,-122.21626
1758,"Costco","2955 N Tegner Rd","Turlock","CA",95380,37.51934,-120.88873
1759,"Costco","3801 Pelandale Ave","Modesto","CA",95356,37.70282,-121.06487
1760,"Costco","1900 Davis St San","Leandro","CA",94577,37.72063,-122.18303
1761,"Costco","3250 W Grant Line Rd","Tracy","CA",95304,37.75096,-121.47558
1762,"Costco","2440 Daniels St","Manteca","CA",95337,37.78525,-121.26067
1763,"Costco","4801 Central Avenue","Richmond","CA",94804,37.89876,-122.32022
1764,"Costco","2201 Verne Roberts Cir","Antioch","CA",94509,38.00894,-121.83552
1765,"Costco","1616 E Hammer Ln","Stockton","CA",95210,38.0188,-121.29275
1766,"Costco","2680 Reynolds Ranch Pkwy","Lodi","CA",95240,38.10019,-121.26337
1767,"Costco","5101 Business Center Dr","Fairfield","CA",94534,38.21541,-122.14491
1768,"Costco","1051 Hume Way","Vacaville","CA",95687,38.35041,-121.97995
1769,"Costco","5901 Redwood Dr","Rohnert Park","CA",94928,38.35268,-122.71711
1770,"Costco","7400 Blvd","Elk Grove","CA",95757,38.40887,-121.41374
1771,"Costco","1900 Ave","Santa Rosa","CA",95407,38.42023,-122.71161
1772,"Costco","2299 Bronze Star Dr","Woodland","CA",95776,38.67217,-121.72278
1773,"Costco","7000 Auburn Blvd","Citrus Heights","CA",95621,38.68996,-121.29733
1774,"Costco","1275 Airport Park Blvd","Ukiah","CA",95482,39.12726,-123.19664
1775,"Costco","2100 Dr Mlk Jr Pkwy","Chico","CA",95928,39.7209,-121.81142
1776,"Costco","1300 Dana Dr","Redding","CA",96003,40.58633,-122.34491
1777,"Costco","1006 W Wabash Ave","Eureka","CA",95501,40.79211,-124.18285
1778,"Costco","5885 Barnes Rd","Colorado Springs","CO",80922,38.89279,-104.71837
1779,"Costco","5050 N Nevada Ave","Colorado Springs","CO",80918,38.90496,-104.82102
1780,"Costco","4000 River Point Pkwy","Sheridan","CO",80110,39.64472,-105.00737
1781,"Costco","1471 S Havana St","Aurora","CO",80012,39.69053,-104.86803
1782,"Costco","5195 Wadsworth Blvd","Arvada","CO",80002,39.78941,-105.08273
1783,"Costco","6400 W 92nd Ave","Westminister","CO",80031,39.86322,-105.06544
1784,"Costco","4705 Weitzel St","Timnath","CO",80547,40.52106,-104.98927
1786,"Costco","3600 E Main St","Waterbury","CT",6705,41.53971,-72.96894
1787,"Costco","2441 Market St NE","Washington","DC",20018,38.92067,-76.95026
1789,"Costco","1873 Rd","Lantana","FL",33462,26.58822,-80.0713
1790,"Costco","2225 Grand Cypress Dr","Lutz","FL",33559,28.18926,-82.39366
1791,"Costco","2101 Waterbridge Blvd","Orlando","FL",32837,28.40416,-81.40599
1792,"Costco","8000 Parramore Rd","Jacksonville","FL",32244,30.20226,-81.75631
1793,"Costco","4067 Lagniappe Way","Tallahassee","FL",32317,30.46093,-84.21225
1794,"Costco","1700 Mount Zion Rd","Morrow","GA",30260,33.5721,-84.33326
1795,"Costco","3980 Venture Dr","Duluth","GA",30096,33.94771,-84.14318
1796,"Costco","1550 Mall of Georgia Blvd","Buford","GA",30519,34.06198,-83.99486
1797,"Costco","1211 Bald Ridge Marina Rd","Cumming","GA",30041,34.21309,-84.11647
1798,"Costco","4589 Pkwy","Kapolei","HI",96707,21.32716,-158.08837
1799,"Costco","4300 Nuhou St. (Kauai)","Lihue","HI",96766,21.96701,-159.37957
1800,"Costco","7205 Mills Civic Pkwy","Des Moines","IA",50266,41.56235,-93.8049
1801,"Costco","2790 E 53rd St","Davenport","IA",52807,41.57561,-90.53308
1802,"Costco","2900 Heartland Dr","Coralville","IA",52241,41.69766,-91.61719
1803,"Costco","2051 S Cole Rd","Boise","ID",83709,43.58568,-116.27596
1804,"Costco","9915 W 159th St","Orland Park","IL",60467,41.59976,-87.86142
1805,"Costco","1320 S Route 59","Naperville","IL",60564,41.74572,-88.20415
1806,"Costco","7300 S Cicero Ave","Chicago","IL",60629,41.75923,-87.74389
1807,"Costco","2500 South Harlem Ave","North Riverside","IL",60546,41.84436,-87.80547
1808,"Costco","1901 W 22nd St","Oak Brook","IL",60523,41.84548,-87.96585
1809,"Costco","1430 S Ashland Ave","Chicago","IL",60608,41.86208,-87.66782
1810,"Costco","8400 W North Ave","Melrose Park","IL",60160,41.90975,-87.83679
1811,"Costco","2746 N Clybourn Ave","Chicago","IL",60614,41.9299,-87.67705
1812,"Costco","7311 N Melvina Ave","Niles","IL",60714,42.01505,-87.78095
1813,"Costco","1375 N Meacham Rd","Schaumburg","IL",60173,42.05509,-88.04311
1814,"Costco","2900 Patriot Blvd","Glenview","IL",60026,42.10928,-87.82156
1815,"Costco","5000 Stadium Drive","Loves Park","IL",61111,42.31984,-88.96202
1816,"Costco","1201 Cross Pointe Pl","Evansville","IN",47715,37.99152,-87.46709
1817,"Costco","4628 E County Line Rd","Indianapolis","IN",46237,39.63842,-86.08927
1818,"Costco","6110 E 86th St","Indianapolis","IN",46250,39.91366,-86.06167
1819,"Costco","9010 Michigan Rd","Indianapolis","IN",46268,39.91722,-86.2271
1820,"Costco","5110 Value Dr","Fort Wayne","IN",46808,41.12606,-85.15779
1821,"Costco","1310 E 79th Ave","Merrillville","IN",46410,41.47459,-87.32211
1822,"Costco","9700 E Kellogg","Wichita","KS",67207,37.68018,-97.22383
1823,"Costco","9350 Marshall Dr","Lenexa","KS",66215,38.95793,-94.73263
1824,"Costco","3900 Dublin St","New Orleans","LA",70118,29.96786,-90.11061
1825,"Costco","2400 Five Lees Ln","Glenarden","MD",20706,38.92386,-76.85061
1826,"Costco","7077 Arundel Mills Cir","Hanover","MD",21076,39.15616,-76.73041
1827,"Costco","6675 Marie Curie Dr","Elkridge","MD",21075,39.18637,-76.79364
1828,"Costco","9919 Pulaski Hwy","Baltimore","MD",21220,39.35828,-76.44548
1829,"Costco","5100 Century Ave","Kalamazoo","MI",49006,42.27151,-85.65009
1830,"Costco","6700 Whitmore Lake Rd","Brighton","MI",48116,42.50337,-83.76167
1831,"Costco","3000 Commerce Xing","Commerce Township","MI",48390,42.53406,-83.44517
1832,"Costco","2343 S Telegraph Rd","Bloomfield","MI",48302,42.60648,-83.29374
1833,"Costco","2540 E Saginaw Highway","East Lansing","MI",48823,42.7515,-84.44417
1834,"Costco","4901 Wilson Ave SW","Wyoming","MI",49418,42.87587,-85.764
1835,"Costco","5100 28th St SE","Grand Rapids","MI",49512,42.91108,-85.54333
1836,"Costco","2020 Commerce Dr NW","Rochester","MN",55901,44.04661,-92.51729
1837,"Costco","7070 Tamarack Rd","Woodbury","MN",55125,44.93747,-92.9635
1838,"Costco","3311 Broadway St NE","Minneapolis","MN",55413,45.00075,-93.21685
1839,"Costco","1431 Beam Ave","Maplewood","MN",55109,45.02943,-93.04044
1840,"Costco","3636 2nd St S","Saint Cloud","MN",56301,45.5495,-94.20113
1841,"Costco","4200 Rusty Rd","Saint Louis","MO",63128,38.50807,-90.3387
1842,"Costco","1600 NW 88th St","Kansas City","MO",64155,39.25404,-94.59921
1843,"Costco","2505 Catron St","Bozeman","MT",59718,45.7134,-111.07052
1844,"Costco","2290 King Ave W","Billings","MT",59102,45.75334,-108.57314
1845,"Costco","2195 E Custer Ave","Helena","MT",59602,46.61554,-112.00327
1846,"Costco","3220 N Reserve St","Missoula","MT",59808,46.89551,-114.03803
1847,"Costco","2330 US Highway 93 N","Kalispell","MT",59901,48.23404,-114.33379
1848,"Costco","5351 Gingerwood Dr","Wilmington","NC",28405,34.24854,-77.8729
1849,"Costco","1510 N Pointe Dr","Durham","NC",27705,36.02875,-78.91433
1850,"Costco","1085 Hanes Mall Blvd","Winston Salem","NC",27103,36.06475,-80.31769
1851,"Costco","1620 Pine Lake Road","Lincoln","NE",68512,40.73944,-96.69802
1852,"Costco","2361 State Route 66","Ocean","NJ",7712,40.23381,-74.04575
1853,"Costco","4100 Quakerbridge Rd","Lawrence Township","NJ",8648,40.28301,-74.67444
1854,"Costco","2835 Route 35 N","Hazlet","NJ",7730,40.41996,-74.17079
1855,"Costco","1290 US Highway 22E","North Plainfield","NJ",7060,40.61264,-74.45806
1856,"Costco","1055 Hudson St Union","Untion","NJ",7083,40.69424,-74.2878
1857,"Costco","1420 N Renaissance Blvd NE","Albuquerque","NM",87107,35.13647,-106.61438
1858,"Costco","3411 Saint Rose Pkwy","Henderson","NV",89052,35.98785,-115.1392
1859,"Costco","4810 Galleria Pkwy","Sparks","NV",89436,39.57921,-119.73862
1860,"Costco","2975 Richmond Ave","Staten Island","NY",10314,40.57281,-74.16877
1861,"Costco","3705 Hampton Rd","Oceanside","NY",11572,40.61861,-73.65195
1862,"Costco","6135 Junction Blvd","Rego Park","NY",11374,40.7334,-73.86387
1863,"Costco","3250 Vernon Blvd","Long Island City","NY",11106,40.76753,-73.9391
1864,"Costco","3000 Middle Country Rd","Nesconset","NY",11767,40.85946,-73.13017
1865,"Costco","1768 Old Country Rd","Riverhead","NY",11901,40.92639,-72.70639
1866,"Costco","1100 E Kemper Rd","Springdale","OH",45246,39.28881,-84.45107
1867,"Costco","9691 Waterstone Blvd","Cincinnati","OH",45249,39.29498,-84.30445
1868,"Costco","5300 Cornerstone North Blvd","Centerville","OH",45440,39.6631,-84.10574
1869,"Costco","3888 Stelzer Rd","Columbus","OH",43219,40.05351,-82.90828
1870,"Costco","7300 State Route 161 E","Plain City","OH",43064,40.11042,-83.18935
1871,"Costco","1500 Gemini Pl","Columbus","OH",43240,40.1508,-82.97637
1872,"Costco","6720 Bass Pro Rd","Boston Heights","OH",44236,41.26519,-81.50662
1873,"Costco","1409 Golden Gate Blvd","Cleveland","OH",44124,41.52396,-81.44661
1874,"Costco","3405 W Central Ave","Toledo","OH",43606,41.67642,-83.62586
1875,"Costco","3075 Hamrick Rd","Central Point","OR",97502,42.37425,-122.88733
1876,"Costco","4141 NE Stephens St","Roseburg","OR",97470,43.25944,-123.3509
1877,"Costco","2500 NE Highway 20","Bend","OR",97701,44.05759,-121.26771
1878,"Costco","2828 Chad Dr","Eugene","OR",97408,44.08913,-123.06601
1879,"Costco","3130 Killdeer Ave SE","Albany","OR",97322,44.63874,-123.06629
1880,"Costco","1010 Hawthorne Ave SE","Salem","OR",97301,44.91885,-122.99584
1881,"Costco","7850 SW Dartmouth St","Tigard","OR",97223,45.43511,-122.75725
1882,"Costco","1255 NE 48th Ave","Hillsboro","OR",97124,45.53619,-122.93544
1883,"Costco","4849 NE 138th Ave","Portland","OR",97230,45.55927,-122.52378
1884,"Costco","1804 SE Ensign Ln","Warrenton","OR",97146,46.14622,-123.9138
1885,"Costco","1875 Hempstead Rd","Lancaster","PA",17601,40.0531,-76.25642
1886,"Costco","5125 Jonestown Rd Ste 221","Harrisburg","PA",17112,40.30925,-76.79856
1887,"Costco","1050 Cranberry Square Dr Cranberry","Township","PA",16066,40.69058,-80.10788
1888,"Costco","3525 Park Avenue Blvd","Mount Pleasant","SC",29466,32.88163,-79.77084
1889,"Costco","3700 S Grange Ave","Sioux Falls","SD",57105,43.51266,-96.73975
1890,"Costco","3775 Hacks Cross Rd","Memphis","TN",38125,35.04622,-89.79722
1891,"Costco","2431 N Germantown Pkwy","Cordova","TN",38016,35.19183,-89.7959
1892,"Costco","6670 Charlotte Pike","Nashville","TN",37209,36.13927,-86.88529
1893,"Costco","1501 W Kelly Ave","Pharr","TX",78577,26.19313,-98.20303
1895,"Costco","8185 Highway 242","Conroe","TX",77385,30.20918,-95.45256
1896,"Costco","1901 Kelly Ln","Pflugerville","TX",78660,30.47005,-97.5916
1897,"Costco","8282 Park Ln","Dallas","TX",75231,32.87042,-96.76369
1898,"Costco","1225 State Highway 276","Rockwall","TX",75032,32.90857,-96.44623
1899,"Costco","2601 E State Highway 114","Southlake","TX",76092,32.94153,-97.11139
1900,"Costco","3650 W University Dr","McKinney","TX",75071,33.21934,-96.65947
1901,"Costco","6020 34th St","Lubbock","TX",79407,33.56478,-101.94657
1902,"Costco","3571 W 10400 S","South Jordan","UT",84095,40.55961,-111.97594
1903,"Costco","5201 S Intermountain Dr","Murray","UT",84107,40.65702,-111.88928
1904,"Costco","3747 S 2700 W","Salt Lake City","UT",84119,40.69095,-111.95705
1905,"Costco","1818 S 300 W","Salt Lake City","UT",84115,40.73142,-111.90177
1906,"Costco","3656 Wall Ave","Ogden","UT",84405,41.19577,-111.97833
1907,"Costco","3171 District Ave","Charlottesville","VA",22901,38.06878,-78.48958
1908,"Costco","1830 Reservoir St","Harrisonburg","VA",22801,38.4279,-78.85702
1909,"Costco","2700 Potomac Mills Circle","Woodbridge","VA",22192,38.64336,-77.29618
1911,"Costco","7940 Richmond Hwy","Alexandria","VA",22306,38.74185,-77.08756
1912,"Costco","2310 Longfibre Rd","Union Gap","WA",98903,46.56275,-120.4994
1913,"Costco","1470 Marvin Rd NE","Lacey","WA",98516,47.05902,-122.7605
1914,"Costco","9801 204th Ave E","Bonney Lake","WA",98391,47.16703,-122.15928
1916,"Costco","3900 20th St E","Fife","WA",98424,47.23831,-122.3734
1917,"Costco","1801 10th Ave NW","Issaquah","WA",98027,47.55126,-122.05271
1918,"Costco","1725 S Blvd","Burlington","WA",98233,48.45369,-122.33627
1919,"Costco","4125 Arctic Ave","Bellingham","WA",98226,48.79125,-122.51459
1920,"Costco","7707 94th Ave","Pleasant Praire","WI",53158,42.56461,-87.91938
1921,"Costco","2850 Hoepker Rd","Sun Praire","WI",53590,43.16788,-89.27374
1922,"Costco","5401 W. Integrity Way","Grand Chute","WI",54913,44.27062,-88.48817
1923,"Costco","2355 Costco Way","Bellevue","WI",54311,44.4583,-87.98575
1924,"Costco","451 S Airport Blvd","San Franscisco","CA",94080,37.64242,-122.40053
1925,"Costco","900 Dubuque Ave","San Francisco","CA",94080,37.66089,-122.4016
1926,"Costco","170 Cooley Mesa Rd","Gymsum","CO",81637,39.6451,-106.89086
1927,"Costco","400 S Zuni St","Denver","CO",80223,39.70835,-105.01392
1928,"Costco","779 Connecticut Avenue","Norwalk","CT",6854,41.09192,-73.45137
1929,"Costco","284 Flanders Rd","East Lyme","CT",6333,41.35945,-72.2127
1930,"Costco","200 Federal Rd","Brookfield","CT",6804,41.44193,-73.40644
1931,"Costco","645 Barrett Parkway NW","Kennesaw","GA",30144,34.00444,-84.56966
1932,"Costco","100 Cobb Pkwy","Ringgold","GA",30736,34.96843,-85.19426
1933,"Costco","540 Haleakala Hwy","Kahului","HI",96732,20.88712,-156.45077
1934,"Costco","333 A Keahole Street","Honolulu","HI",96825,21.28369,-157.70949
1935,"Costco","525 Alakawa St","Honolulu","HI",96817,21.31819,-157.87061
1936,"Costco","355 E Neider Ave","Coeur D'Alene","ID",83815,47.70895,-116.78377
1937,"Costco","221 S Randall Rd","Saint Charles","IL",60174,41.96878,-88.34067
1938,"Costco","999 N Elmhurst Rd","Mount Prospect","IL",60056,42.08333,-87.93258
1939,"Costco","625 E University Dr","Granger","IN",46530,41.71884,-86.172
1940,"Costco","120 Stockwell Dr","Avon","MA",2322,42.13722,-71.06632
1942,"Costco","200 Costco Way","Saint Peters","MO",63376,38.79642,-90.60769
1943,"Costco","750 23rd Ave East","West Fargo","ND",58078,46.84472,-96.88657
1944,"Costco","245 Stafford Park Blvd","Stafford Township","NJ",8050,39.70656,-74.28744
1945,"Costco","100 Centerton Rd","Mount Laurel","NJ",8054,39.97167,-74.90736
1946,"Costco","465 Route 70","Brick","NJ",8723,40.05518,-74.15803
1947,"Costco","222 S Martin L King Blvd","Las Vegas","NV",89106,36.17145,-115.16199
1948,"Costco","517 E 117th St","New York","NY",10035,40.79539,-73.93102
1949,"Costco","120 Township Blvd","Camillus","NY",13031,43.05775,-76.26771
1950,"Costco","335 Westfall Road","Rochester","NY",14620,43.11299,-77.61262
1951,"Costco","700 Evergreen Dr","Glen Mills","PA",19342,39.89004,-75.53208
1952,"Costco","100 Veterans Way","Warminister","PA",18974,40.19728,-75.08036
1953,"Costco","740 Upper State Rd","North Wales","PA",19454,40.23678,-75.23387
1954,"Costco","202 Costco Dr","Pittsburgh","PA",15205,40.45885,-80.1656
1955,"Costco","835 N 3050 E","Saint George","UT",84790,37.12222,-113.52214
1956,"Costco","330 W Dimond Blvd","Anchorage","AK",99515,61.14279,-149.8842
1957,"Costco","595 S Galleria Way","Chandler","AZ",85226,33.29388,-111.89874
1958,"Costco","650 Gateway Center Dr","San Diego","CA",92102,32.71262,-117.11576
1959,"Costco","101 Town Center Parkway","Santee","CA",92071,32.84037,-116.98752
1960,"Costco","951 Palomar Airport Rd","Carlsbad","CA",92009,33.12098,-117.31537
1962,"Costco","115 Technology West Drive","Irvine","CA",92618,33.65955,-117.7438
1963,"Costco","480 McKinley Street","Corona","CA",92879,33.88656,-117.5237
1964,"Costco","101 N Beach Blvd","La Habra","CA",90631,33.93281,-117.96972
1965,"Costco","520 N Lone Hill Ave","San Dimas","CA",91773,34.11251,-117.82676
1966,"Costco","801 Tioga Ave","Sand City","CA",93955,36.61712,-121.84536
1967,"Costco","220 Sylvania Ave","Santa Cruz","CA",95060,36.98438,-122.03401
1968,"Costco","150 Lawrence Station Rd","Sunnyvale","CA",94086,37.37247,-121.99496
1969,"Costco","450 10th St","San Francisco","CA",94103,37.77043,-122.4108
1970,"Costco","300 Vintage Way","Novato","CA",94945,38.08747,-122.55048
1971,"Costco","198 Plaza Dr","Vallejo","CA",94591,38.13296,-122.21409
1972,"Costco","600 Marshall Rd","Superior","CO",80027,39.95951,-105.17451
1973,"Costco","405 Hartford Rd","New Britain","CT",6053,41.70943,-72.76399
1974,"Costco","805 Lighthouse Blvd","Bradenton","FL",34212,27.49598,-82.47124
1975,"Costco","825 Cabela Dr","Augusta","GA",30909,33.52488,-82.02001
1976,"Costco","500 Brookhaven Ave NE","Atlanta","GA",30319,33.87259,-84.33615
1977,"Costco","113 Lincoln St","Woodstock","GA",30188,34.11994,-84.51567
1978,"Costco","731 Pole Line Rd","Twin Falls","ID",83301,42.59289,-114.46449
1979,"Costco","305 W Quinn Rd","Pocatello","ID",83201,42.90487,-112.45444
1980,"Costco","301 W Washington St","East Peoria","IL",61611,40.68935,-89.59162
1981,"Costco","830 E Boughton Rd","Bolingbrook","IL",60440,41.7283,-88.03203
1982,"Costco","505 W Army Trail Rd","Bloomingdale","IL",60108,41.94111,-88.13341
1983,"Costco","250 N Randall Rd","Lake In The Hills","IL",60156,42.17943,-88.33555
1984,"Costco","680 S Rand Rd","Lake Zurich","IL",60047,42.18656,-88.0934
1985,"Costco","800 Heights Blvd","Florence","KY",41042,38.98853,-84.64562
1987,"Costco","119 Daggett Dr West","Springfield","MA",1089,42.13182,-72.62035
1988,"Costco","200 Legacy Blvd","Dedham","MA",2026,42.23158,-71.1738
1989,"Costco","880 Russell Ave","Gaithersburg","MD",20879,39.15585,-77.21447
1990,"Costco","575 E Ordnance Rd","Glen Burnie","MD",21060,39.19647,-76.59974
1991,"Costco","400 Brown Rd","Auburn Hills","MI",48326,42.70657,-83.29593
1992,"Costco","125 E South Airport Rd","Traverse City","MI",49686,44.73424,-85.57215
1994,"Costco","241 E Linwood Blvd","Kansas City","MO",64111,39.06688,-94.58083
1995,"Costco","392 Talbert Rd","Mooresville","NC",28117,35.58264,-80.85189
1996,"Costco","311 Daniel Webster Hwy","Nashua","NH",3060,42.70266,-71.44237
1997,"Costco","100 Grand Avenue","North Brunswick","NJ",8902,40.43719,-74.50751
1998,"Costco","205 Vineyard Rd","Edison","NJ",8817,40.53005,-74.37656
1999,"Costco","325 Promenade Blvd","Bridgewater","NJ",8807,40.56361,-74.55859
2000,"Costco","156 SR-10 West East","Hanover","NJ",7936,40.8108,-74.38071
2001,"Costco","149 State Route 23","Wayne","NJ",7470,40.89008,-74.25489
2002,"Costco","315 State Route 15 N","Wharton","NJ",7885,40.90676,-74.56961
2004,"Costco","700 Old Clear Creek Rd","Carson City","NV",89705,39.11699,-119.7764
2005,"Costco","605 Rockaway Tpke","Lawrence","NY",11559,40.63044,-73.74006
2006,"Costco","976 3rd Ave","Brooklyn","NY",11232,40.65576,-74.00926
2007,"Costco","625 Broadhollow Rd","Melville","NY",11747,40.75781,-73.42042
2008,"Costco","125 Beacon Dr","Holbrook","NY",11741,40.77355,-73.05067
2009,"Costco","201 Allendale Rd","King of Prussia","PA",19406,40.09137,-75.38676
2010,"Costco","501 Waterfront Dr W","Homestead","PA",15120,40.40329,-79.92122
2011,"Costco","791 N Krocks Rd","Allentown","PA",18106,40.56685,-75.55787
2012,"Costco","211 W Blackstock Rd","Spartanburg","SC",29301,34.93984,-81.99745
2013,"Costco","250 W Highway 67","Duncanville","TX",75137,32.62123,-96.91024
2014,"Costco","273 E 1000 N","Spanish Fork","UT",84660,40.12372,-111.6489
2015,"Costco","648 E 800 S","Orem","UT",84097,40.28006,-111.67986
2016,"Costco","198 N 1200 E","Lehi","UT",84043,40.38934,-111.82279
2017,"Costco","573 W 100 N West","Bountiful","UT",84010,40.88948,-111.89431
2018,"Costco","850 Glenrock Rd","Norfolk","VA",23502,36.85265,-76.20043
2019,"Costco","251 Front Royal Pike","Winchester","VA",22602,39.1573,-78.15698
2020,"Costco","218 Lower Mountain View Dr","Colchester","VT",5446,44.50395,-73.17432
2021,"Costco","301 5th St","Clarkston","WA",99403,46.42323,-117.04309
2022,"Costco","375 Highline Dr East","Wenatchee","WA",98802,47.4017,-120.28034
2023,"Costco","955 W Washington St","Sequim","WA",98382,48.07707,-123.12507
2024,"Costco","950 Port Washington Rd","Grafton","WI",53024,43.32453,-87.92184
2025,"Costco","19001 N 27th Ave","Phoenix","AZ",85027,33.6599,-112.11582
2026,"Costco","12155 Tech Center Drive","Poway","CA",92064,32.9362,-117.03372
2028,"Costco","33961 Doheny Park Road","San Juan Capistrano","CA",92675,33.46982,-117.67813
2029,"Costco","27972 Cabot Rd","Laguna Niguel","CA",92677,33.55571,-117.67707
2030,"Costco","29315 Central Ave","Lake Elsinore","CA",92532,33.69641,-117.33925
2031,"Costco","17900 Newhope Street","Fountain Valley","CA",92708,33.70318,-117.93112
2032,"Costco","79795 Hwy 111","La Quinta","CA",92253,33.7041,-116.27309
2033,"Costco","11000 Blvd","Garden Grove","CA",92843,33.77278,-117.94149
2034,"Costco","22633 Savi Ranch Parkway","Yorba Linda","CA",92886,33.87656,-117.74304
2035,"Costco","12530 Prairie Ave","Hawthorne","CA",90250,33.91909,-118.3427
2036,"Costco","12324 Hoxie Avenue","Norwalk","CA",90650,33.91953,-118.10268
2037,"Costco","12700 Day Street","Moreno Valley","CA",92553,33.93535,-117.2768
2038,"Costco","13463 Washington Blvd","Marina del Ray","CA",90292,33.99319,-118.44717
2039,"Costco","17550 Castleton St","City of Industry","CA",91748,33.99401,-117.92223
2040,"Costco","13111 Peyton Drive","Chino Hills","CA",91709,34.014,-117.74216
2041,"Costco","16505 Sierra Lakes Parkway","Fontana","CA",92336,34.13744,-117.44272
2042,"Costco","13550 W Paxton St","Pacoima","CA",91331,34.27188,-118.42672
2043,"Costco","18649 Via Princessa","Santa Clarita","CA",91387,34.40461,-118.46176
2044,"Costco","14555 Valley Center Drive","Victorville","CA",92392,34.51518,-117.31944
2046,"Costco","28505 Hesperian Blvd","Hayward","CA",94545,37.61608,-122.08925
2047,"Costco","22330 Hathaway Ave","Hayward","CA",94541,37.66741,-122.10238
2048,"Costco","11260 White Rock Rd","Rancho Cordova","CA",95742,38.58862,-121.26378
2049,"Costco","18414 Cottonwood Dr","Parker","CO",80138,39.55573,-104.7747
2050,"Costco","16375 N. Washington St","Thornton","CO",80023,39.99096,-104.98343
2051,"Costco","16580 NW 59th Ave","Miami Lakes","FL",33014,25.92354,-80.29911
2052,"Costco","11001 Southern Blvd","Royal Palm Beach","FL",33411,26.68254,-80.22279
2053,"Costco","16700 N Market Place Blvd","Nampa","ID",83687,43.61529,-116.58933
2054,"Costco","25901 Riverwoods Rd","Mettawa","IL",60045,42.23749,-87.90344
2057,"Costco","16006 Crain Hwy","Brandywine","MD",20613,38.67055,-76.87317
2058,"Costco","10925 Baltimore Ave","Beltsville","MD",20705,39.03262,-76.90848
2059,"Costco","11160 Veirs Mill Rd","Wheaton","MD",20902,39.03567,-77.05522
2060,"Costco","10270 Mill Run Circle","Owings Mills","MD",21117,39.40607,-76.78901
2061,"Costco","13700 Middlebelt Rd","Livonia","MI",48150,42.3817,-83.33201
2063,"Costco","27118 Gratiot Ave","Roseville","MI",48066,42.49583,-82.93503
2064,"Costco","30550 Stephenson Hwy","Madison Heights","MI",48071,42.5164,-83.11731
2066,"Costco","12011 Technology Dr","Eden Prairie","MN",55344,44.86058,-93.43591
2067,"Costco","12547 Riverdale Blvd NW","Minneapolis","MN",55448,45.19857,-93.3478
2068,"Costco","13650 Elder Dr","Baxter","MN",56425,46.34933,-94.24785
2069,"Costco","19040 E Valley View Pkwy","Independence","MO",64055,39.03622,-94.35719
2070,"Costco","12515 Portside Parkway","La Vista","NE",68128,41.17713,-96.10864
2071,"Costco","12300 W Dodge Rd","Omaha","NE",68154,41.26387,-96.1045
2072,"Costco","16690 Royalton Rd","Strongsville","OH",44136,41.31691,-81.81606
2073,"Costco","35804 Detroit Road","Avon","OH",44011,41.4607,-82.01096
2074,"Costco","26400 Dixie Hwy","Perrysburg","OH",43551,41.53422,-83.63285
2075,"Costco","13200 N Western Ave","Oklahoma City","OK",73114,35.60496,-97.53107
2076,"Costco","10220 S Memorial Dr","Tulsa","OK",74133,36.01481,-95.88838
2077,"Costco","25900 SW Heather Pl","Wilsonville","OR",97070,45.33257,-122.76356
2078,"Costco","13130 SE 84th Ave","Clackamas","OR",97015,45.42841,-122.57385
2079,"Costco","15901 SW Jenkins Rd","Aloha","OR",97006,45.50935,-122.84164
2080,"Costco","17520 Southwest Fwy","Sugar Land","TX",77479,29.58548,-95.64429
2081,"Costco","26960 NW Freeway","Cypress","TX",77433,29.97812,-95.7112
2082,"Costco","11220 Dallas Pkwy","Frisco","TX",75033,33.17178,-96.83694
2083,"Costco","11100 S Auto Mall Dr","Sandy","UT",84070,40.54992,-111.89479
2084,"Costco","19610 SE 1st St","Camas","WA",98607,45.62262,-122.47344
2085,"Costco","8505A W. Gage Blvd","Kennewick","WA",99336,46.22558,-119.23696
2086,"Costco","27520 Way SE","Covington","WA",98042,47.35543,-122.12206
2087,"Costco","10990 Harbor Hill Dr NW","Gig Harbor","WA",98332,47.35797,-122.60387
2088,"Costco","12020 N Newport Hwy","Spokane","WA",99218,47.76635,-117.38296
2089,"Costco","24008 Snohomish Rd","Woodinville","WA",98072,47.77989,-122.1477
2090,"Costco","19105 Highway 99","Lynnwood","WA",98036,47.82587,-122.30984
2091,"Costco","10200 19th Ave SE","Everett","WA",98208,47.90383,-122.20943
2092,"Costco","16616 Twin Lakes Ave","Marysville","WA",98271,48.14749,-122.19045
2093,"Costco","15300 West Grange Ave","New Berlin","WI",53151,42.94584,-88.10564
2094,"Costco","48 College Rd","Fairbanks","AK",99701,64.85308,-147.70671
2095,"Costco","75 Freshwater Blvd","Enfield","CT",6082,41.99386,-72.57501
2096,"Costco","40 Fischer Crossings Dr","Sharpsburg","GA",30277,33.39778,-84.61741
2097,"Costco","73-5600 Maiau St Kailua","Kona","HI",96740,19.68578,-156.01674
2098,"Costco","94-1231 Ka Uka Blvd","Waipahu","HI",96797,21.42689,-157.99978
2099,"Costco","10 Monocacy Blvd","Frederick","MD",21704,39.40179,-77.40964
2100,"Costco","18 Route 9 North","Morganville","NJ",7751,40.36148,-74.30339
2101,"Costco","2A Walter E Foran Blvd N","Flemington","NJ",8822,40.52226,-74.85144
2102,"Costco","21 Goldsborough Dr","Bayonne","NJ",7002,40.67305,-74.1045
2103,"Costco","20 Bridewell Pl","Clifton","NJ",7014,40.83156,-74.13758
2104,"Costco","2 Landing Dr","Teterboro","NJ",7608,40.86119,-74.06338
2105,"Costco","80 S River St","Hackensack","NJ",7601,40.87624,-74.03791
2106,"Costco","10 Garet Pl","Commack","NY",11725,40.80703,-73.28575
2107,"Costco","1 Industrial Ln New","Rochelle","NY",10805,40.89676,-73.79424
2108,"Costco","20 Stew Leonard Dr","Yonkers","NY",10710,40.97475,-73.86173
2109,"Costco","1 Westchester Ave","Port Chester","NY",10573,40.99923,-73.6619
2110,"Costco","50 Overlook Blvd","Nanuet","NY",10954,41.10678,-74.02524
2111,"Costco","14 W Lightcap Rd","Pottstown","PA",19464,40.23887,-75.57534
2112,"Costco","98 Seaboard Ln","Brentwood","TN",37027,35.96383,-86.81699
2113,"Costco","W162N9235 Perishing Ave","Menomonee Falls","WI",53051,43.18499,-88.11209
2114,"Publix","1100 6th St Space 200","Miami Beach","FL",33139,25.77535,-80.14033
2115,"Target","1045 5th St Unit 201","Miami Beach","FL",33139,25.77486,-80.13924
2117,"ABC","4838 Gate Pkwy N","Jacksonville","FL",32246,30.255,-81.53668
2118,"Grapes and Grains","3719 Old Alabama Rd Building 100","Johns Creek","GA",30022,34.02336,-84.25191
2119,"201 Central","5939 Weddington Rd","Wesley Chapel","NC",28104,35.00314,-80.69988
2120,"ABC","725 Bald Eagle Dr","Marco Island","FL",34145,25.95567,-81.72475
2121,"ABC","21700 S Tamiami Trail","Estero","FL",33928,26.42519,-81.81186
2122,"ABC","11153 Park Blvd N","Seminole","FL",33772,27.84177,-82.79327
2123,"ABC","21700 S Tamiami Trail","Estero","FL",33928,26.42519,-81.81186
2124,"ABC","401 Orlando Ave","Winter Park","FL",32789,28.60116,-81.36585
2125,"ABC","1198 Dunlawton Ave","Port Orange","FL",32127,29.1234,-81.01073
2126,"ABC","14025 Biscayne Blvd","North Miami Beach","FL",33181,25.90627,-80.1582
2127,"ABC","3433 SW Archer Rd","Gainesville","FL",32608,29.62568,-82.3732
2128,"ABC","4816 Gate Pkwy","Jacksonville","FL",32246,30.25556,-81.53754
2129,"Aldi","14626 W Roscoe Blvd","Panorama City","CA",91402,34.22088,-118.45136
2130,"Aldi","110 Moss Grove Blvd","Knoxville","TN",37922,35.90991,-84.09029
2131,"BevMo","Â 14800 Camden Ave","San Jose","CA",95124,37.26131,-121.92838
2132,"BevMo","3149 Stevens Creek Blvd","San Jose","CA",95117,37.32389,-121.95218
2133,"BJ's","26996 US Hwy 19 N","Clearwater","FL",33761,28.01841,-82.74028
2134,"Bottles","4410 Fort Jackson Blvd","Columbia","SC",29209,33.99185,-80.97292
2135,"Central Market","3815 Westheimer Road","Hosuton","TX",77027,29.74106,-95.4442
2137,"Costco","1718 Boston Post Rd","Milford","CT",6460,41.25074,-73.02392
2138,"Costco","500 Eubank Blvd SE","Albuquerque","NM",87123,35.06826,-106.53073
2139,"Costco","1310 JasmineAve","Webster","TX",77598,29.53411,-95.13804
2140,"Costco","7373 Boston Blvd","Springfield","VA",22153,38.73954,-77.19686
2142,"Food Lion","801 Volvo Pkwy","Chesapeake","VA",23320,36.76756,-76.22878
2143,"Gary's Wine","67 Vervalen St","Closter","NJ",7624,40.96983,-73.95622
2144,"Giant","13043 Lee Jackson Mem Hwy","Fairfax","VA",22033,38.87919,-77.39895
2145,"Green's","2850 N Kings Hwy","Myrtle Beach","SC",29577,33.70858,-78.86379
2146,"Harris Teeter","1812 Sam Rittenberg Blvd","Charleston","SC",29407,32.80178,-80.01925
2147,"Harris Teeter","1720 Augusta St","Greenville","SC",29605,34.82675,-82.39915
2148,"Harris Teeter","1320 Colonial Avenue","Norfolk","VA",23517,36.86493,-76.29253
2149,"Kroger","800 Glenwood Ave SE","Atlanta","GA",30316,33.7417,-84.36021
2150,"Kroger","291 N Hubbards Ln Ste 130","St Matthews","KY",40207,38.25866,-85.63792
2151,"Kroger","189 Brooklawn St.","Knoxville","TN",37934,35.88042,-84.15716
2152,"Kroger","9000 Staples Mill Rd","Henrico","VA",23228,37.63716,-77.51447
2153,"Liquor Barn","1850 S Hurstbourne Pkwy","Louisville","KY",40220,38.22068,-85.58374
2154,"Lowes","5222 Sunset Blvd","Lexington","SC",29072,34.00477,-81.2039
2155,"Lucky's Market","9184 Wiles Rd","Coral Springs","FL",33067,26.28539,-80.24868
2156,"Lucky's Market","3815 Tamiami Trail E","Naples","FL",34112,26.11954,-81.75708
2157,"Publix","1181 South University Drive","Plantation","FL",33324,26.10658,-80.25147
2158,"Publix","1764 Biscayne Blvd","Miami","FL",33132,25.7926,-80.18952
2159,"Publix","13401 Summerlin Rd","Fort Myers","FL",33919,26.54766,-81.88441
2160,"Publix","11800 Haynes Bridge Rd b","Alpharetta","GA",30009,34.07317,-84.2938
2161,"Publix","6029 W Gate City Blvd","Greensboro","NC",27407,36.00519,-79.90311
2162,"Publix","1750 Woodruff Rd","Greenville","SC",29607,34.81832,-82.27174
2163,"Publix","3460 Pump Rd","Henrico","VA",23233,37.65048,-77.61477
2164,"Publix","3642 Savannah Hwy Suite 132","Johns Island","SC",29455,32.80507,-80.11155
2165,"Raley's","4900 Elk Grove Blvd","Elk Grove","CA",95758,38.40733,-121.4483
2166,"Raley's","2895 N McCarran Blvd","Sparks","NV",89431,39.55533,-119.75439
2167,"Safeway","Â 1978 Contra Costa Blvd","Pleasant Hill","CA",94523,37.94911,-122.058
2168,"Safeway","4950 Almaden Expy","San Jose","CA",95118,37.26036,-121.87452
2169,"Sam's Club","2021 W Brandon Blvd","Brandon","FL",33511,27.93488,-82.31658
2170,"Sam's Club","10600 Davis Dr","Alpharetta","GA",30009,34.04241,-84.31474
2171,"Sam's Club","1401 Alliant Ave","Jeffersontown","KY",40299,38.2223,-85.53386
2172,"Smith's","6001 Lomas Blvd NE","Albuquerque","NM",87110,35.08819,-106.57922
2173,"Sprouts","301 Gellert Blvd","Daly City","CA",94015,37.66886,-122.46663
2174,"Sprouts","1989 Aloma Ave","Winter Park","FL",32792,28.60125,-81.32479
2175,"Target","43950 Pacific Commons Blvd","Fremont","CA",94538,37.50155,-121.96828
2176,"Target","5150 Town Center Cir","Boca Raton","FL",33486,26.36172,-80.12277
2177,"Target","718 Maguire Blvd","Orlando","FL",32803,28.55567,-81.34508
2178,"Target","4053 Factoria Square Mall SE","Bellevue","WA",98006,47.57387,-122.17346
2179,"Target","1448 NW Market St Ste 100 Suite 100","Seattle","WA",98107,47.66905,-122.37593
2180,"Trader Joes","3721 Battleground Ave","Greensboro","NC",27410,36.13129,-79.85777
2181,"Walmart","455 E Wetmore Rd","Tucson","AZ",85705,32.28849,-110.96538
2182,"Walmart","4501 Rosewood Dr","Pleasanton","CA",94588,37.69832,-121.88729
2183,"Walmart","8400 Coral Way","Miami","FL",33155,25.74612,-80.33262
2184,"Walmart","11110 Causeway Blvd","Brandon","FL",33511,27.92556,-82.32624
2185,"Walmart","201 Highlands Blvd. Drive","Manchester","MO",63011,38.596,-90.50674
2186,"Wegman's","3850 Mystic Valley Pkwy","Medford","MA",2155,42.4069,-71.09193
2187,"Westbury Liquors","1250 Old Country Rd #5624","Westbury","NY",11590,40.74396,-73.59751
2188,"Whole Foods","Â 2941 Ygnacio Valley Rd","Walnut Creek","CA",94598,37.92562,-122.01688
2189,"Whole Foods","4944 Shelbyville Rd","Louisville","KY",40207,38.24863,-85.62598
2190,"Whole Foods","1635 Boro Pl","McLean","VA",22102,38.92462,-77.23353
2191,"Whole Foods","11660 Plaza America Dr","Reston","VA",20190,38.95178,-77.3494
2192,"Whole Foods","1800 Laskin Rd","Virginia Beach","VA",23454,36.85093,-76.02816
2193,"Corks and Kegs","7110 Patterson Ave suite a","Richmond","VA",23229,37.59266,-77.53298
2195,"Crazy Bruce","176 Newington Rd","West Hartford","CT",6110,41.72564,-72.73177
2196,"Curtis Liqours","486 Columbian St","Weymouth","MA",2190,42.18091,-70.97182
2197,"Dixie Lee","13044 Kingston Pike","Knoxville","TN",37934,35.86207,-84.22062
2198,"Esquin","2700 4th Ave S","Seattle","WA",98134,47.57941,-122.3282
2199,"Grand Vin Wine Merchants","1003 4th Ave E","Olympia","WA",98506,47.04542,-122.88966
2201,"HEB","2805 Business Center Drive","Pearland","TX",77584,29.55917,-95.39051
2202,"Hop, Grain & Vine","3997 Dallas Hwy","Marietta","GA",30064,33.94897,-84.66938
2203,"Kelly Liquors","2270 Wyoming Blvd NE","Albuquerque","NM",87112,35.10541,-106.55026
2204,"Liquor World","6030 W Windmill Ln","Las Vegas","NV",89139,36.04263,-115.22453
2205,"Local Vine","3101 Cobb Pkwy SE","Atlanta","GA",30339,33.87865,-84.45661
2206,"Lucky","6155 W. Las Positas","Pleasanton","CA",94588,37.68253,-121.90542
2207,"Lucky","2840 Dublin Blvd","Dublin","CA",94568,37.70448,-121.85373
2208,"Lucky's Market","6765 22nd Ave N","St. Petersburg","FL",33710,27.79186,-82.73213
2209,"Lucky's Market","3501 S Tamiami Trail","Sarasota","FL",34239,27.30063,-82.52856
2210,"Lucky's Market","3230 E Colonial Dr","Orlando","FL",32803,28.55159,-81.34114
2211,"Lucky's Market","6424 Naples Blvd","Suite 601","Naples",34109,26.21835,-81.77036
2212,"Lueken's","6950 Seminole Blvd","Seminole","FL",33772,27.83542,-82.7875
2213,"Luke's Liquors","167 Market St","Rockland","MA",2370,42.12,-70.91409
2214,"Lunardi's","345 Railroad Ave","Danville","CA",94526,37.81941,-121.99876
2215,"Manchester Liqours","1010 Tolland Turnpike","Manchester","CT",6042,41.79547,-72.54666
2216,"Market Basket","110 Market Pl Dr","Waltham","MA",2451,42.38071,-71.2631
2217,"Metropolitan Market","100 Mercer St","Seattle","WA",98109,47.62474,-122.3548
2218,"Norman's","5495 Lena Rd","Bradenton","FL",34211,27.43988,-82.45289
2219,"Oake's Farm Seed to Table","2205 Davis Blvd","Naples","FL",34104,26.13912,-81.77763
2220,"Publix","3928 SW Archer Rd","Gainesville","FL",32608,29.62164,-82.38172
2221,"Publix","440 Orlando Ave","Winter Park","FL",32789,28.60074,-81.3628
2222,"Roger Wilco","1001 NJ-73","Pennsauken Township","NJ",8110,39.99141,-75.02762
2223,"Sam's Club","2575 Gulf to Bay Blvd","Clearwater","FL",33765,27.95927,-82.73162
2224,"Sam's Club","13455 Manchester Rd","Saint Louis","MO",63131,38.59962,-90.47102
2225,"Sam's Club","9440 W Broad St","Richmond","VA",23294,37.6393,-77.55582
2226,"Schnuck's","12332 Manchester Rd","Saint Louis","MO",63131,38.6015,-90.44213
2227,"Spec's","4970 US-290","Austin","TX",78735,30.23522,-97.82016
2228,"Stew Leonards","221 Glen Cove Rd","Carle Place","NY",11514,40.74813,-73.61586
2229,"Stew Leonards","55 Westport Ave","Norwalk","CT",6851,41.12212,-73.40525
2230,"Stew Leonards","700 Paramus Park","Paramus","NJ",7652,40.95667,-74.06887
2231,"Susan's","1005 S St Francis Dr STE 101","Santa Fe","NM",87505,35.67718,-105.95335
2232,"Target","2747 Gulf to Bay Blvd","Clearwater","FL",33759,27.95859,-82.72409
2233,"The Fresh Market","924 W 21st","Norfolk","VA",23517,36.8724,-76.29828
2234,"The Wine Guy","220 W Main St","Smithtown","NY",11787,40.85592,-73.20276
2235,"Tim's Wine Market","1223 N Orange Ave","Orlando","FL",32804,28.56222,-81.37303
2236,"Trader Joes","4209 N Campbell Ave","Tucson","AZ",85719,32.2835,-110.9448
2237,"Trader Joes","2625 Marconi Ave","Sacramento","CA",95821,38.6186,-121.40017
2238,"Trader Joes","3903 Santa Rita Rd","Pleasanton","CA",94588,37.69679,-121.87689
2239,"Trader Joes","1683 West Ave","Miami Beach","FL",33139,25.79179,-80.14216
2240,"Walmart","1101 Beville Rd","Daytona Beach","FL",32119,29.17257,-81.03009
2241,"Walmart","2900 SW 42nd St","Gainesville","FL",32608,29.62731,-82.38824
2242,"Walmart","1239 State Road 436 Ste 101","Casselberry","FL",32707,28.63475,-81.32327
2243,"Walmart","8500 N Wickham Rd","Melbourne","FL",32940,28.23323,-80.72431
2244,"Wegman's","53 3rd Ave","Burlington","MA",1803,42.48751,-71.22598
2245,"WinCo Foods","5850 W Bell Rd","Glendale","AZ",85308,33.63967,-112.18533
2246,"Liquor World","6410 S Rainbow Blvd","Las Vegas","NV",89118,36.07189,-115.24186
2247,"Costco_Instacart","14800 Sole Mia Way","North Miami","FL",33181,25.91249,-80.15394
2248,"Highlands Wine Seller","6670 Timberline Rd","Highlands Ranch","CO",80130,39.54297,-104.91098
2249,"Aw Shucks","6100 Pouncey Tract Rd","Glen Allen","VA",23059,37.70587,-77.63697
2250,"Publix","1313 S Dale Mabry Hwy","Tampa","FL",33629,27.93134,-82.50591
2251,"Publix","7640 W Sand Lake Rd","Orlando","FL",32819,28.44987,-81.4886
2252,"Publix","3930 SW Archer Rd","Gainesville","FL",32608,29.61832,-82.38443
2253,"Walmart","5110 Jefferson Hwy","Harahan","LA",70123,29.95083,-90.21415
2254,"Winn Dixie","211 Veterans Memorial Blvd","Metairie","LA",70005,30.00022,-90.12405
2256,"Rouses Market","2900 Veterans Memorial Blvd","Metairie","LA",70002,30.00268,-90.15123
2257,"Martin's Wine Cellar","714 Elmeer Ave","Metairie","LA",70005,30.00233,-90.13621
2258,"Walmart","1700 Dallas Pkwy","Plano","TX",75093,33.02446,-96.80681
2259,"Costco_Non-comp","1900 Davis Street","San Leandro","CA",94577,37.72081,-122.18187
2260,"Costco_Non-comp","17550 Castleton Street","City of Industry","CA",91748,33.99559,-117.92333
2261,"Costco_Non-comp","2201 Senter Rd","San Jose","CA",95112,37.30992,-121.85215
2262,"Ace Spirits","4 Shady Oak Rd #18","Hopkins","MN",55343,44.92178,-93.42702
2263,"Publix","1120 Bichara Blvd","The Villages","FL",32159,28.94136,-81.94772
2264,"Publix Instacart","1566 Bella Cruz Dr","The Villages","FL",32159,28.95133,-81.95819
2265,"Sam's Club","755 N US-441","Lady Lake","FL",32159,28.92347,-81.89437
2266,"ABC","865 N Highway 27","Lady Lake","FL",32159,28.89983,-81.91142
2267,"Sam's Club Instacart","755 N US-441","Lady Lake","FL",32159,28.92347,-81.89437
2268,"Albertson's","2678 Johnston St","Lafayette","LA",70503,30.20755,-92.03809
2269,"Norcos","217 Apple St","Norco","LA",70079,30.00091,-90.41216
2270,"Dorignacs","710 Veterans Memorial Blvd","Metairie","LA",70005,30.00138,-90.12948
2271,"Breaux Mart","2904 Severn Ave","Metairie","LA",70002,30.00542,-90.15923
2272,"Matherne's","1424 W Airline Hwy","Laplace","LA",70068,30.07217,-90.49461
2273,"Consecos","1519 Metairie Rd","Metairie","LA",70005,29.98696,-90.14012
2274,"Lee's","7752 N El Capitan Way","Las Vegas","NV",89143,36.3001,-115.28124
2275,"Fry's","4842 E Bell Road","Scottsdale","AZ",85254,33.63821,-111.92538
2276,"Walmart","15355 N Northsite","Scottsdale","AZ",85255,33.62569,-111.8494
2277,"Basha's","10111 E Bell Road","Scottsdale","AZ",85260,33.63911,-111.86423
2278,"Walgreens","4710 E Rose Garden Lane","Phoenix","AZ",85050,33.67687,-112.02618
2279,"CVS Pharmacy","21001 North Tatum","Phoenix","AZ",85054,33.67495,-111.96874
2280,"WinCo Foods","5850 W Bell Road","Glendale","AZ",85308,33.64136,-112.18312
2281,"Sprouts","9301 E Shea Blvd","Scottsdale","AZ",85258,33.5823,-111.88755
2282,"Target","15444 N Frank Lloyd Wright Blvd","Scottsdale","AZ",85260,33.6266,-111.88899
2283,"Sam's Club","1459 N Dysart Road","Avondale","AZ",85323,33.45204,-112.33918
2285,"Circle K","18422 N Tatum Blvd","Phoenix","AZ",85032,33.65468,-111.9779
2286,"Burris Liquors","418 Meeting St","Charleston","SC",29403,32.79272,-79.93812
2287,"Zuppardo's","5010 Veterans Memorial Blvd","Metairie","LA",70006,30.00413,-90.19889
2288,"Total Beverage","900 E 104th Ave","Thornton","CO",80233,39.88366,-104.97631
2289,"Total Beverage","9359 Sheridan Blvd","Westminster","CO",80031,39.86669,-105.0556
2290,"Rouses Market","6136 Johnston St","Lafayette","LA",70503,30.16486,-92.08618
2291,"Super 1 Foods","3747 Ambassador Caffery Pkwy","Lafayette","LA",70503,30.17282,-92.06606
2292,"Champagne's Market","454 Heymann Blvd","Lafayette","LA",70503,30.20347,-92.01918
2293,"Costco","201 Meadow Farm Dr","Lafayette","LA",70508,30.15599,-92.04409
2295,"A&A Wine and Spirits","1415 South Main Chapel Way","Gambrills","MD",21054,39.0344,-76.68438
2296,"Rouses Market","601 Bertrand Drive","Lafayette","LA",70506,30.21341,-92.04991
2297,"Smith's","2110 S Pacheco St","Santa Fe","NM",87505,35.65693,-105.96003
2298,"Sarasota Wine & Spirits","4295 S Tamiami Trail","Venice","FL",34293,27.05191,-82.39143
2299,"Giant Eagle","11505 N Illinois St","Carmel","IN",46032,39.95229,-86.16634
2300,"Meijer","1424 W Carmel Dr","Carmel","IN",46032,39.97346,-86.15479
2301,"Kroger","1217 S Range Line Rd","Carmel","IN",46032,39.96285,-86.12774
2304,"Kindred Spirits","1118 Bichara Blvd","Lady Lake","FL",32159,28.93932,-81.94975
2305,"Publix Instacart","14641 Biscayne Blvd","North Miami Beach","FL",33181,25.91152,-80.15791
2306,"Publix","1566 Bella Cruz Dr","The Villages","FL",32159,28.95227,-81.96309
2307,"Lakeview Grocery","801 Harrison Ave","New Orleans","LA",70124,30.00502,-90.10747
2308,"Ideal Market","4421 Airline Dr","Metairie","LA",70001,29.97579,-90.17947
2309,"Piggly Wiggly","5525 Cameron St","Scott","LA",70583,30.2326,-92.09051
2310,"Vine & Table","313 E Carmel Dr","Carmel","IN",46032,39.96142,-86.12292
2312,"Sam's Club","7235 E 96th St","Indianapolis","IN",46250,39.92526,-86.04145
2313,"Kroger","11700 Olio Rd","Fishers","IN",46037,39.95944,-85.92466
2314,"Kahn's Fine Wines & Spirits","5341 North Keystone Avenue","Indianapolis","IN",46220,39.84989,-86.12355
2315,"Grapevine Cottage","61 South Main Street","Zionsville","IN",46077,39.95107,-86.26139
2316,"21st Amendment Wine and Spirits","1154 W 86th St","Indianapolis","IN",46260,39.91304,-86.18213
2317,"Big Red Liquors","1111 E 86th St","Nora","IN",46240,39.91215,-86.14131
2318,"Crown Liquors","2402 Lake Cir Dr","Indianapolis","IN",46268,39.91395,-86.20593
2319,"Payless Liquors","1317 W 86th St","Indianapolis","IN",46260,39.91139,-86.18454
2320,"Goody Goody","3340 W Royal Ln","Irving","TX",75063,32.91106,-96.99493
2374,"Kroger","1365 E 86th St","Indianapolis","IN",46240,39.91146,-86.14011
2375,"LAX Wine & Spirits","3035 Naylor Road","SE Washington","DC",20020,38.85331,-76.96695
2376,"Robert Fresh Market","5016 W Esplanade Ave","Metairie","LA",70006,30.0162,-90.19973
2377,"Amazon Fresh","13672 Jamboree Rd","Irvine","CA",92602,33.7189,-117.79203
2378,"Costco","16385 W Waddell Rd","Surprise","AZ",85388,33.60914,-112.41276
2379,"Wegman's","1835 Capital One Drive South","Tysons","VA",22102,38.9247,-77.21535
2381,"Sam's Club","8425 N.W. 13th Ter.","Miami","FL",33126,25.7862,-80.33665
2382,"Fresh Thyme","14727 Fresh Thyme Market Dr.","Carmel","IN",46033,40.00188,-86.10889
2383,"Walgreens","1424 S Rangeline Rd Carmel","Carmel","IN",46032,39.95704,-86.12932
2384,"Market District","11505 N Illinois Street Carmel","Carmel","IN",46032,39.95212,-86.16608
2385,"Publix","13880 Wellington Trace","West Palm Beach","FL",33414,26.6606,-80.26882
2386,"ABC","1845 Bruce B Downs Blvd","Wesley Chapel","FL",33544,28.18403,-82.35666
2387,"Publix Instacart","2121 Collier Parkway","Land O' Lakes","FL",34639,28.18834,-82.44108
2390,"Bottles","1110 N Main St","Summerville","SC",29483,33.03402,-80.16433
2391,"Walmart","1481 N Hwy 17","Mt Pleasant","SC",29464,32.81406,-79.84779
2392,"HEB","4320 S. Alameda Street","St. Corpus Christi","TX",78412,27.72999,-97.37105
2393,"Maximum Beverage","333 N Main St","West Hartford","CT",6117,41.78502,-72.74861
2394,"Maximum Beverage","258 Main St","Farmington","CT",6032,41.70921,-72.84381
2395,"M & R Liquors","838 Farmington Ave # 1","Farmington","CT",6032,41.72796,-72.82669
2396,"M & R Liquors","206 Buckland Rd","South Windsor","CT",6074,41.81364,-72.55565
2397,"Checkers Discount Liquors & Wine","9881 N Kendall Dr.","Miami","FL",33176,25.68777,-80.35591
2398,"Festival Foods","810 E Washington Ave","Madison","WI",53703,43.09642,-89.40474
2399,"Target","740 N Glebe Rd","Arlington","VA",22203,38.87971,-77.11399
2400,"Publix","Embrey Mill Rd","Stafford","VA",22554,38.426,-77.43407
2401,"State Line Liquors","333 Naamans Rd","Claymont","DE",19703,39.81546,-75.44825
2402,"Food Lion","3415 Avent Ferry Rd","Raleigh","NC",27606,35.76658,-78.69709
2403,"Buyrite Liquors","410 River St","Hackensack","NJ",7601,40.89134,-74.03841
2404,"Walmart","1001 Main St","River Edge","NJ",7661,40.89216,-74.09293
2405,"Walmart","3450 Farm to Market 1960 Rd W","Houston","TX",77068,29.99841,-95.48425
2406,"Kroger","5665 E Mockingbird Ln","Dallas","TX",75206,32.83841,-96.77317
2407,"Stew Leonards","3475 Berlin Turnpike","Newington","CT",6111,41.65234,-72.73201
2408,"Acquistapace's","125 E 21st Ave","Covington","LA",70433,30.4747,-90.1025
2409,"Acquistapace's","631 North Causeway Blvd","Mandeville","LA",70448,30.37431,-90.09237
2410,"Spec's","5130 Richmond Ave","Houston","TX",77056,29.73275,-95.46645
2411,"Spec's","12901 Queensbury Ln","Houston","TX",77079,29.77764,-95.56576
2412,"Spec's","27490 Interstate 45 N","Oak Ridge North","TX",77385,30.16071,-95.45114
2413,"Spec's","17996 FM 529","Houston","TX",77095,29.88,-95.68561
2414,"Spec's","19322 US-59","Humble","TX",77338,29.99758,-95.27165
2415,"Publix","15878 Summerlin Road","Fort Myers","FL",33908,26.51469,-81.90269
2416,"Stater Bros","15150 Kensington Park Dr","Tustin","CA",92780,33.71148,-117.81859
2417,"Whole Foods","1700 Post Oak Blvd #100","Houston","TX",77056,29.74986,-95.46378
2418,"Roswell Beverage","10498 Alpharetta Hwy","Roswell","GA",30076,34.03798,-84.34707
2419,"Red's","270 S Main Street","Alpharetta","GA",30004,34.06825,-84.30202
2420,"Tower","5877 Buford Hwy NE","Doraville","GA",30340,33.9101,-84.26702
2421,"Meijer","5531 28th St SE Grand Rapids","Grand Rapids","MI",4951,42.91593,-85.53434
2422,"Mega-bev","2770 29th St SE","Grand Rapids","MI",49512,42.90966,-85.6008
2423,"Beer City","825 28th St SE","Grand Rapids","MI",49508,42.91319,-85.64829
2424,"Rishi's International Beverage","3839 28th St SE","Grand Rapids","MI",49512,42.91313,-85.57467
2425,"Forest Hills Foods","4668 Cascade Rd SE","Grand Rapids Charter Township","MI",49546,42.94546,-85.55623
2426,"Martha's Vineyard","200 Union Ave NE","Grand Rapids","MI",49503,42.96753,-85.65651
2427,"Von's","11861 Valley View Street","Garden Grove","CA",92845,33.79017,-118.03123
2428,"Walmart","5660 W Grand Pkwy S","Richmond","TX",77406,29.6905,-95.77702
2429,"D&W Fresh Market","1814 Breton Rd SE","Grand Rapids","MI",49506,42.92949,-85.61015
2430,"Sam's Club","4326 28th St SE","Kentwood","MI",49512,42.91182,-85.56274
2432,"Costco","2345 Fenton Pkwy","San Diego","CA",92108,32.78255,-117.1304
2433,"Costco","2219 S 37th St","Tacoma","WA",98409,47.22533,-122.4703
2434,"Costco","10000 Dawnadele Ave BLDG A","Baton Rouge","LA",70809,30.41912,-91.07697
2435,"Costco","771 Airport Blvd","Ann Arbor","MI",48108,42.23064,-83.74618
2436,"Costco","20000 Haggerty Rd","Livonia","MI",48152,42.43169,-83.43167
2437,"Costco","45460 Market St","Shelby Charter Twp","MI",48315,42.63038,-82.98174
2438,"Costco","12350 Carmel Mountain Rd","San Diego","CA",92128,32.98723,-117.09883
2439,"Costco","725 Center Dr","San Marcos","CA",92069,33.13584,-117.12754
2441,"Whole Foods","1700 Post Oak Blvd Suite 100","Houston","Texas",77056,29.7499,-95.4647
2442,"BevMo","7129 E Shea Blvd","Scottsdale","Arizona",85254,33.58077,-111.92931
2443,"Fry's","10450 N 90th Street","Scottsdale","Arizona",85258,33.58061,-111.89171
2444,"Stater Bros","15150 Kensington Park Drive","Tustin","California",92782,33.71148,-117.81859
2445,"Whole Foods","2847 Park Ave","Tustin","California",92782,33.69636,-117.82778
2446,"Albertson's","1268 Madera Road","Simi Valley","California",93065,34.26169,-118.79686
2449,"BevMo","6820 Katella Ave","Cypress","California",90630,33.80179,-118.01632
2450,"BevMo","9160 W Stockton Blvd","Elk Grove","California",95758,38.42374,-121.40421
2452,"BevMo","5765 Johnson Drive","Petaluma","California",94588,37.69925,-121.909
2453,"Manchester Liqours","1010 Tolland Turnpike","Manchester","Connecticut",6042,41.79547,-72.54885
2454,"Target","810 County Road 42 W","Burnsville","Minnesota",55337,44.74919,-93.29168
2455,"Target","851 W 78th Street","Chanhassen","Minnesota",55317,44.8615,-93.54457
2456,"Lunds & Byerly's","13081 Ridgedale Drive","Hopkins","Minnesota",55305,44.96849,-93.44906
2457,"Wegman's","1245 Worcester Street","Natick","Massachusetts",1760,42.30104,-71.38589
2458,"Kappy's","158 Andover Street Route 114","Danvers","Massachusetts",1923,42.5576,-70.97327
2459,"Wegman's","53 3rd Ave","Burlington","Massachusetts",1803,42.48751,-71.22818
2460,"Kroger","9440 Brownsboro Road","Louisville","Kentucky",40241,38.30528,-85.57739
2461,"Liquor Barn","4808 Brownsboro Center","Louisville","Kentucky",40207,38.27757,-85.63886
2462,"Kroger","4101 Tates Creek Centre Drive","Lexington","Kentucky",40517,37.96999,-84.50076
2463,"Kroger","11895 W Broad Street","Richmond","Virginia",23233,37.65283,-77.62672
2464,"Publix","3460 Pump Road","Richmond","Virginia",23233,37.65048,-77.61696
2465,"Wegman's","12200 Wegmans Blvd","Richmond","Virginia",23233,37.66312,-77.63737
2466,"King Sooper","15051 E 104th Ave","Commerce City","Colorado",80022,39.8875,-104.81313
2468,"Kroger","1101 Flower Mound Road","Flower Mound","Texas",75028,33.00962,-97.04918
2469,"Spec's","2416 S Stemmons Fwy","Lewisville","Texas",75067,33.00678,-96.97042
2470,"Tom Thumb","1075 W FM 3040","Lewisville","Texas",75067,33.00663,-97.01944
2471,"Target","150 E Stacy Road","Allen","Texas",75002,33.12975,-96.66087
2472,"Whole Foods","105 Stacy Road","McKinney","Texas",75069,33.13109,-96.65874
2473,"Whole Foods","1411 E Renner Road","Richardson","Texas",75082,32.99884,-96.70091
2474,"Spec's","1420 Kingwood Drive","Kingwood","Texas",77339,30.04869,-95.23645
2475,"Kroger","4142 Cedar Springs Road","Dallas","Texas",75219,32.81336,-96.81433
2476,"Sigel's","2800 Routh Street Suite 180","Dallas","Texas",75201,32.7991,-96.80564
2477,"Tom Thumb","3878 Oaklawn Ave #180","Dallas","Texas",75219,32.81576,-96.80299
2479,"Walmart","8000 Town Drive","Raleigh","NC",27616,35.87002,-78.56724
2480,"Target","3599 W Hillsboro Blvd","Deerfield Beach","Florida",33442,26.31997,-80.15325
2481,"Publix","10920 Baymeadows Road","Jacksonville","Florida",32256,30.21458,-81.51948
2482,"Publix","4413 Town Center Pkwy Suite 100","Jacksonville","Florida",32246,30.26414,-81.52884
2483,"Walmart","13490 Beach Blvd","Jacksonville","Florida",32224,30.28475,-81.46477
2484,"Winn Dixie","10915-123 Baymeadows Road Unit 13","Jacksonville","Florida",32256,30.21749,-81.5205
2485,"Publix","5991 Pine Ridge Road","Naples","Florida",34119,26.21315,-81.73099
2486,"Publix","13540 Immokalee Road Suite 103","Naples","Florida",34120,26.27819,-81.59949
2487,"ABC","1540 SE Federal Hwy","Stuart","Florida",34994,27.18461,-80.24631
2488,"Publix","1501 NW Federal Hwy","Stuart","Florida",34994,27.22359,-80.26456
2489,"Sprouts","8330 S Tamiami Trail","Sarasota","Florida",34238,27.23094,-82.49799
2490,"Walmart","11110 Causeway Blvd","Brandon","Florida",33511,27.92556,-82.32843
2492,"Target","2004 El Camino Real","Santa Clara","California",95050,37.35033,-121.96322
2494,"Festival Foods","5600 S 108th Street","Hales Corners","Wisconsin",53130,42.94242,-88.04859
2495,"Wegman's","8297 Stonewall Shops Square","Gainesville","Virginia",20155,38.78434,-77.65547
2496,"Walmart","8801 Ohio Drive","Plano","Texas",75024,33.09744,-96.8015
2497,"HEB","6711 S Fry Road","Katy","Texas",77494,29.71318,-95.77823
2498,"Spec's","24940 FM 1093","Richmond","Texas",77406,29.70001,-95.81113
2500,"Smith's","1000 Rio Rancho Blvd SE Se","Rio Rancho","NM",87124,35.26512,-106.6302
2501,"Spec's","3404 N Central Expy","Plano","TX",75074,33.04123,-96.70241
2502,"Target","101 N Cattlemen Rd","Sarasota","FL",34243,27.38678,-82.46074
2503,"Target","20745 Stevens Creek Blvd","Cupertino","CA",95014,37.32461,-122.03817
2504,"Winestore","19400 Jetton Road Suite 204 Cornelius","Cornelius","NC",28031,35.47661,-80.89519
2505,"Winestore","9831 Rea Rd. Suite E Charlotte","Charlotte","NC",28277,35.03484,-80.8067
2506,"Publix Instacart","1920 Co Rd 581","Wesley Chapel","FL",33544,28.18524,-82.35267
2507,"Party Liquors and Fine Wines","2410 Land O' Lakes Blvd Land O' Lakes","FL 34639","FL",34639,28.19226,-82.46581
2508,"King Sooper","4600 Leetsdale Drive","Denver","CO",80246,39.70855,-104.93452
2509,"Spec's","12611 Hymeadow Drive","Austin","TX",78729,30.45785,-97.79366
2510,"Twin Liquors","14028 US 183","Austin","TX",78729,30.47715,-97.80618
2511,"BevMo","12204 Foothill Blvd","Rancho Cucamonga","CA",91701,34.10766,-117.54141
2512,"HEB","12400 W Hwy 71","Austin","TX",78738,30.30406,-97.93458
2513,"HEB","701 Capitol of Texas Hwy Bldg C","West Lake Hills","TX",78746,30.3104,-97.82831
2514,"HEB","600 W William Cannon Drive","Austin","TX",78745,30.19734,-97.78727
2515,"Giant","6200 Little River Turnpike","Alexandria","VA",22312,38.81914,-77.14226
2516,"BevMo","925 Camino De La Reina Suite A","San Diego","CA",92108,32.76754,-117.1573
2517,"Ralph's","5680 Mission Center Rd","San Diego","CA",92108,32.77486,-117.15801
2518,"Von's","3610 Adams Ave","San Diego","CA",92116,32.76355,-117.11722
2519,"LARA","2nd Floor 525 W. Allegan St.","Lansing","MI",48933,42.73235,-84.56013
2520,"Kroger","1401 N Main Street","Suffolk","VA",23434,36.74926,-76.58617
2521,"Kroger","1550 W Grand Pkwy S","Katy","Texas",77494,29.75802,-95.78061
2522,"BevMo","3126 NW Randall Way","Silverdale","Washington",98383,47.66027,-122.69404
2523,"ABC","55 Interlachen Rd","Melbourne","FL",32940,28.23217,-80.70063
2524,"Wegman's","1104 Highway 35 S","Ocean","NJ",7712,40.23819,-74.04133
2525,"ShopRite","145 Monmouth Rd","West Long Branch","NJ",7764,40.29565,-74.03338
2526,"Buyrite Liquors","4057 Asbury Avenue","Titon Falls","NJ",7753,40.23644,-74.08076
2527,"Circus Wines","56 Newman Springs Rd","Red Bank","NJ",7701,40.33853,-74.06846
2528,"Calandro's","12732 Perkins Road Baton Rouge","Baton Rouge","LA",70810,30.36697,-91.07839
2529,"Rouses Market","7580 Bluebonnet Blvd","Baton Rouge","LA",70810,30.38156,-91.10098
2530,"Martin's Wine Cellar","7248 Perkins Rd","Baton Rouge","LA",70808,30.39659,-91.11636
2531,"Publix","1920 Co Rd 581","Wesley Chapel","FL",33544,28.18524,-82.35267
2532,"Harris Teeter","1605 New Garden Rd Garden Creek Center","Greensboro","NC",27410,36.11832,-79.87728
2533,"One Stop Liquors","57 Sack Blvd","Leominster","MA",1453,42.53051,-71.74744
2534,"One Stop Liquors","340 Constitution Ave","Littleton","MA",1460,42.55278,-71.47868
2535,"One Stop Liquors","255 Main St","North Reading","MA",1864,42.59068,-71.11906
2536,"One Stop Liquors","1900 Main St","Tewksbury","MA",1876,42.59097,-71.20441
2537,"Target","111 Pioneer Trail","Chaska","MN",55318,44.82757,-93.6012
2538,"Kroger","11895 W Broad Street","Richmond","VA",23233,37.65293,-77.62547
2539,"Fred Meyer","15609 E Sprague Ave","Veradale","WA",99037,47.65857,-117.19415
2540,"Kroger","1592 S Loop 288","Denton","TX",76205,33.19541,-97.09569
2541,"Target","1801 S Loop 288","Denton","TX",76205,33.18943,-97.09879
2542,"Publix","2310 Pine Ridge Road","Naples","FL",34109,26.21081,-81.77159
2543,"Spec's","2315 Colorado Blvd","Denton","TX",76205,33.19109,-97.10328
2544,"Kroger","25651 US Hwy 59 N","Humble","TX",77339,30.07192,-95.2431
2545,"BevMo","3126 NW Randall Way","Silverdale","WA",98383,47.66026,-122.6919
2546,"Giant","6200 Little River Turnpike","Alexandria","VA",22312,38.81865,-77.14002
2547,"Publix","6525 Nova Drive","Fort Lauderdale","FL",33317,26.08723,-80.23083
2548,"Dierberg's","9901 Manchester Road","Saint Louis","MO",63122,38.60517,-90.38062
2549,"Harris Teeter","2281 Cloverdale Ave NW","Winston-Salem","NC",27103,36.09111,-80.2784
2550,"Harris Teeter","4250 Campbell Ave Village of","Arlington","VA",22206,38.84144,-77.09092
2551,"Dogwood Wine and Spirits","2601 State Hwy K","O'Fallon","MO",63368,38.77349,-90.70396
2552,"Wally's","3000 S Las Vegas Blvd","Las Vegas","NV",89109,36.13407,-115.16807
2553,"Kroger","400 S Maple Rd","Ann Arbor","MI",48103,42.2776,-83.78434
2554,"Kroger","3300 Cobb Pkwy SE Suite 100","Atlanta","GA",30339,33.87198,-84.45758
2555,"Kroger","25651 US Hwy 59 N","Humble","TX",77339,30.07193,-95.24314
2556,"Park Plaza Liquor & Deli","402 W Goodwin St","Prescott","AZ",86303,34.54059,-112.47581
2557,"Fry's","950 Fair St","Prescott","AZ",86305,34.5542,-112.48442
2558,"Frugal McDougal","701 Division St","Nashville","TN",37203,36.14932,-86.78031
2559,"Cool Springs Wine & Spirits","1935 Mallory Ln","Franklin","TN",37067,35.9548,-86.82145
2560,"BevMo","26538 Carmel Ranch Blvd","Carmel-By-The-Sea","CA",93923,36.54223,-121.90836
2561,"Publix","1000 Johnnie Dodds Blvd Suite 106","Mount Pleasant","SC",29464,32.8137,-79.87011
2562,"Publix","1125 SE Port Street Lucie Blvd","Port Saint Joe","FL",34952,27.27294,-80.31664
2563,"Target","10302 156Th Street E","Puyallup","WA",98374,47.11303,-122.29172
2564,"Walmart","11225 Tamiami Trail N","Naples","FL",34110,26.27428,-81.803
2565,"Publix","24600 S Tamiami Trail Suite 218","Bonita Springs","FL",34134,26.38195,-81.80962
2566,"Walmart","310 31st Ave SE","Puyallup","WA",98374,47.1611,-122.2888
2567,"Target","3310 S Meridian","Puyallup","WA",98373,47.16004,-122.29508
2568,"Publix","6900 Daniels Pkwy Suite 19","Fort Myers","FL",33912,26.54481,-81.84188
2569,"Costco","16901 Chenal Parkway","Little Rock","AR",72223,34.75751,-92.45406
2570,"Costco","11428 Sherman Way","North Hollywood","CA",91605,34.19978,-118.38235
2571,"Costco","2000 Market Place Dr","Monterey Park","CA",91755,34.03682,-118.10587
2572,"Costco","3680 E Guasti Rd","Ontario","CA",91761,34.06458,-117.57523
2573,"Costco","895 E H St Chula","Vista","CA",91910,32.63715,-117.02317
2574,"Costco","1715 Charles Hardy Pkwy","Dallas","GA",30157,33.92052,-84.76423
2575,"Costco","2495 E Lincoln Rd","Idaho Falls","ID",83401,43.51331,-111.98743
2576,"Costco","3403 W Chinden Blvd","Meridian","ID",83646,43.66288,-116.44014
2577,"Costco","2002 N Neil St","Champaign","IL",61820,40.14054,-88.24711
2578,"Costco","16261 S Boulevard Place","Plainfield","IL",60586,41.58793,-88.17019
2579,"Costco","4816 Bay City Rd","Midland","MI",48462,43.6037,-84.17039
2580,"Costco","700 Highland Colony Pkwy","Ridgeland","MS",39157,32.42276,-90.14891
2581,"Costco","650 Garden Park Blvd","Cherry Hill","NJ",8002,39.92765,-75.0427
2582,"Costco","1325 57th Ave Ne","Bismarck","ND",58503,46.86563,-100.77289
2583,"Costco","2651 S Telephone Rd","Moore","OK",73160,35.31381,-97.49856
2588,"Costco","1083 N Redwood Rd","Saratoga Springs","UT",84045,40.3886,-111.91865
2589,"Market Basket","110 Market Place Drive","Waltham","MA",2451,42.38097,-71.26492
2590,"Meijer","3145 Ann Arbor-Saline Rd","Ann Arbor","MI",48103,42.23962,-83.76652
2591,"A&L Wine Castle","2424 W Stadium Blvd","Ann Arbor","MI",48103,42.27839,-83.77928
2592,"Target","2000 W Waters Rd","Ann Arbor","MI",48103,42.24382,-83.76986
2593,"Plum Market","375 N Maple Rd","Ann Arbor","MI",48103,42.28488,-83.78154
2594,"Trader Joes","5473 E 82nd Street","Indianapolis","IN",46250,39.90371,-86.07737
2595,"Harris Teeter","12404 Warwick Blvd","Newport News","VA",23606,37.0684,-76.49174
2596,"Von's","2355 E Colorado Blvd","Pasadena","CA",91107,34.14767,-118.10214
2597,"Spec's","3909 S Cooper St","Arlington","TX",76015,32.68223,-97.13292
2598,"BevMo","39672 Winchester Rd","Temecula","CA",92591,33.54032,-117.14177
2599,"CorksDorksWine","4009 Hillsboro Pike","Nashville","TN",37215,36.10408,-86.8158
2600,"Albertson's","427 E Farm to Market Rd 1382","Cedar Hill","TX",75104,32.59312,-96.9352
2601,"Kroger","5007-2 Victory Blvd","Yorktown","VA",23693,37.11361,-76.4668
2602,"Whole Foods","923 Houston Northcutt Blvd","Mt Pleasant","SC",29464,32.80238,-79.88894
2603,"Target","3535 Peachtree Rd NE","Atlanta","GA",30326,33.85164,-84.35963
2604,"Publix","3535 Peachtree Rd NE","Atlanta","GA",30326,33.85105,-84.35941
2605,"Walmart","1202 S Kirkwood Rd","Kirkwood","MO",63122,38.56303,-90.40332
2606,"Target","1042 S Kirkwood Rd","Kirkwood","MO",63122,38.56491,-90.40414
2607,"Costco","801 Tioga Ave","Sand City","CA",93955,36.61712,-121.84755
2608,"Publix","101 Creekside Crossing","Brentwood","TN",37027,36.03692,-86.80102
2609,"Costco","3911 E State Rte 69","Prescott","AZ",86301,34.57935,-112.36388
2610,"Costco","98 Seaboard Ln","Brentwood","TN",37027,35.96482,-86.81908
2611,"The Wine Garden","13927 19 Mile Rd","Sterling Heights","MI",48313,42.61106,-82.99058
2612,"Kroger","43893 Schoenherr Rd","Sterling Heights","MI",48313,42.61764,-82.99653
2613,"Meijer","15055 Hall Rd","Utica","MI",48315,42.63011,-82.97889
2614,"Spec's","11751 Bandera Rd","San Antonio","TX",78250,29.54958,-98.66951
2615,"Twin Liquors","12400 State Hwy 71","Bee Cave","TX",78738,30.30481,-97.93234
2616,"Sam's Club","1460 Cornerstone Blvd","Daytona Beach","FL",32117,29.22012,-81.09856
2617,"Costco","2660 Park Center Dr","Simi Valley","CA",93065,34.28384,-118.79594
2618,"Twin Liquors","27120 Fulshear Bend Dr Suite 1000","Katy","TX",77494,29.71954,-95.84884
2619,"BevMo","3126 NW Randall Way","Silverdale","WA",98383,47.66018,-122.69193
2620,"Spec's","4820 Hwy 6 N","Houston","TX",77084,29.84649,-95.64526
2621,"HEB","5106 Bissonnet St","Bellaire","TX",77401,29.70775,-95.46982
2622,"Safeway","5146 Stevens Creek Blvd","San Jose","CA",95129,37.32084,-121.99257
2623,"HEB","530 Hwy 6","Sugar Land","TX",77478,29.60823,-95.64586
2624,"Sam's Club","5310 S Rice Ave","Houston","TX",77081,29.72433,-95.47115
2625,"BJ's","8085 Cooper Creek Blvd","University Park","FL",34201,27.3942,-82.4518
2626,"Spec's","8622 Stella Link Rd","Houston","TX",77025,29.68864,-95.44094
2627,"Publix","19451 Cochran Blvd Unit 2000","Port Charlotte","FL",33948,27.00999,-82.13437
2628,"Spec's","3335 Hwy 6","Sugar Land","TX",77478,29.59269,-95.6035
2629,"Target","20777 US-59 N","Humble","TX",77338,30.01953,-95.26879
2630,"7 Eleven","650 Adams St","Quincy","MA",2169,42.25563,-71.0324
2631,"Kroger","4825 Sweetwater Blvd","Sugar Land","TX",77479,29.58557,-95.63303
2632,"Lowes","3372 Robinhood Rd","Winston-Salem","NC",27106,36.1152,-80.31446
2633,"Bottle King","1050 Route 35","Middletown","NJ",77486,40.3969,-74.11179
2634,"Circus Wines","853 NJ-35","Middletown","NJ",7748,40.3917,-74.09994
2635,"Circus Wines","56 Newman Springs Rd","Red Bank","NJ",7701,40.33853,-74.06846
2636,"Rumson Wine and Spirits","5 W River Rd","Rumson","NJ",7760,40.37577,-74.01242
2637,"Sea Bright Wine And Spirits","1060 Ocean Ave","Sea Bright","NJ",7760,40.36311,-73.97658
2638,"Vingo","172 Newman Springs Rd E","Red Bank","NJ",7701,40.33797,-74.07521
2639,"Whole Foods","471 St Route 35 N","Red Bank","NJ",7701,40.37517,-74.08959
2640,"Trevor's Liquor","471 St Route 35 N","Red Bank","NJ",7701,33.46614,-111.92509
2641,"Pavillion's","2660 San Miguel Dr","Newport Beach","CA",92660,33.62664,-117.85067
2642,"Nugget's","771 Pleasant Grove Blvd","Roseville","CA",95678,38.78939,-121.28217
2643,"BJ's","19150 Quesada Ave","Port Charlotte","FL",33948,27.0119,-82.13845
2644,"Whole Foods","3740 Midtown Dr","Tampa","FL",33607,27.95288,-82.50704
2645,"Publix","8409 S Tamiami Trail","Sarasota","FL",34238,27.22852,-82.49354
2646,"Party Liquors and Fine Wines","9630 US HWY 301 South","Riverview","FL",33569,27.85864,-82.32714
2647,"WinCo Foods","1913 S 72nd Street","Tacoma","WA",98408,47.1953,-122.46202
2648,"Lucky","2000 California Ave","Sand City","CA",93955,36.61991,-121.84582
2649,"Target","272 116th Ave NE Bellevue","Bellevue","WA",98004,47.61248,-122.18657
2650,"Grapes and Grains","4783 Peachtree Rd","Chamblee","GA",30341,33.88041,-84.32275
2651,"Safeway","815 Canyon Del Rey Blvd","Del Rey Oaks","CA",93940,36.59756,-121.85257
2652,"Costco","12350 Carmel Mtn Road","San Diego","CA",92128,32.98721,-117.09008
2653,"Costco","725 Center Drive","San Marcos","CA",92609,33.1351,-117.1279
2654,"Sam's Club","4400 Bryant Irvin Rd","Fort Worth","TX",76132,32.68827,-97.41418
2655,"Target","5355 W Loop 1604 N","San Antonio","TX",78253,29.4933,-98.70982
2656,"Ralph's","11875 Carmel Mountain Rd","San Diego","CA",92128,32.98097,-117.07778
2657,"Publix","1001 S Federal Hwy","Boca Raton","FL",33432,26.3404,-80.08973
2658,"Meijer","20401 Haggerty Rd","Northville","MI",48167,42.43842,-83.43926
2659,"Busch's","41840 W 10 Mile Rd","Novi","MI",48375,42.46802,-83.45823
2660,"ABC","5052 Bayou Blvd","Pensacola","FL",32504,30.4726,-87.21138
2661,"Bevmax","538 Boston Post Rd","Orange","CT",6477,41.25528,-73.02476
2662,"Bin52","New Jersey 17","Paramus","NJ",7652,40.94742,-74.0736
2663,"Festival Foods","4777 S 27th St","Greenfield","WI",53221,42.95699,-87.95365
2664,"Wine & Cheese","195 Lamp and Lantern Village","Town and Country","MO",63017,38.62474,-90.51798
2665,"Top Ten Liquors","19900 W 78th St","Chanhassen","MN",55317,44.86294,-93.52271
2895,"Walmart","1511 Camp Jackson Rd","Cahokia","IL",62206,38.52402,-90.14779
2896,"ABC","5820 NW 34th Blvd","Gainesville","FL",32653,29.70935,-82.35467
2897,"Local Vine","5805 State Bridge Rd Suite 200","Johns Creek","GA",30097,34.01691,-84.1863
2898,"LAX","11011 Baltimore Ave","Beltsville","MD",20705,39.03354,-76.9077
2899,"Wegman's","122 Shawan Rd","Hunt Valley","MD",21030,39.49609,-76.65588
2900,"Publix","18877 FL-54","Lutz","FL",33558,28.19499,-82.50554
2901,"Target","5001 Junipero Serra Blvd","Colma","CA",94014,37.67384,-122.46643
2902,"Winn Dixie","5410 Murrell Rd Unit 135","Rockledge","FL",32955,28.26742,-80.72002
2903,"Costco","4305 FL-404","Melbourne","FL",32940,28.18973,-80.7175
2904,"Von's","11986 Bernardo Plaza Dr","San Diego","CA",92128,33.02089,-117.07457
2905,"Sprouts","11710 Carmel Mountain Rd","San Diego","CA",92128,32.98121,-117.09756
2906,"Stater Bros","9909 Carmel Mountain Rd","San Diego","CA",92129,32.95956,-117.11601
2907,"Publix","5057 N 9th Ave","Pensacola","FL",32504,30.47273,-87.21618
2908,"Sam's Club","1250 Airport Blvd","Pensacola","FL",32504,30.483,-87.21644
2909,"Walmart","2650 Creighton Rd","Pensacola","FL",32504,30.49746,-87.19526
2910,"The Fresh Market","1650 Airport Blvd Suite 400","Pensacola","FL",32504,30.48168,-87.20997
2911,"Wine World","4970 Bayou Blvd","Pensacola","FL",32503,30.47183,-87.20985
2912,"BJ's","7005 N Davis Hwy","Pensacola","FL",32504,30.4972,-87.22658
2913,"Evergreens","9521 US-42","Prospect","KY",40059,38.33791,-85.64415
2914,"BevMo","1397 E Gladstone St","Glendora","CA",91740,34.11466,-117.83706
2915,"Harris Teeter","6805 Parker Farm Dr","Wilmington","NC",28405,34.23613,-77.8333
2916,"Lowes","341 College Rd #37","Wilmington","NC",28403,34.23415,-77.87386
2917,"Sam's Club","412 College Rd","Wilmington","NC",28403,34.23389,-77.88024
2918,"Publix","7144 Market St","Wilmington","NC",28411,34.27054,-77.82027
2919,"BevMo","11475 Carmel Mountain Rd","San Diego","CA",92128,32.97803,-117.08648
2920,"Big Red Liquors","8607 N Michigan Rd","Indianapolis","IN",46268,39.91207,-86.25718
2921,"Haskell's","5155 W 98th St","Bloomington","MN",55437,44.82404,-93.48897
2922,"Target","3101 Richmond Hwy","Alexandria","VA",22305,38.83408,-77.05165
2923,"Publix","2630 LPGA Blvd","Daytona Beach","FL",32124,29.2159,-81.12068
2924,"Winn Dixie","1459 NW 23rd Ave","Gainesville","FL",32605,29.67276,-82.34282
2925,"AJ's","7131 W Ray Rd","Chandler","AZ",85226,33.31809,-111.96649
2926,"Albertson's","3542 Zafarano Dr","Santa Fe","NM",87507,35.64091,-106.01562
2927,"BJ's","620 Riverside Dr","Coral Springs","FL",33071,26.23979,-80.24699
2928,"Albertson's","9650 Airline Hwy","Baton Rouge","LA",70815,30.43216,-91.08539
2929,"Richey's East","6895 N 9th Ave c","Pensacola","FL",32504,30.49459,-87.19114
2930,"Costco","1220 Tamarack Ave","South Windsor","CT",6074,41.8174,-72.55569
2931,"CT Beverage Mart","3127 Berlin Turnpike","Newington","CT",6111,41.66368,-72.72422
2932,"Ryann's Wines","1897 Front St unit w","East Meadow","NY",11554,40.72156,-73.56384
2933,"Stew Leonards","210 Airport Plaza Blvd","Farmingdale","NY",117354,40.73744,-73.41829
2934,"Gary's Wine","1308 Rte 202","NJ-23 Wayne","NJ",7470,40.92887,-74.26801
2935,"Winestore","1125 Military Cutoff Rd N","Wilmington","NC",28405,34.23576,-77.82932
2936,"Winestore","1800 E Franklin St #25","Chapel Hill","NC",275145,35.93687,-79.02742
2937,"Trevor's Liquor","7340 E McDowell Rd","Scottsdale","AZ",85257,33.46614,-111.92376
2938,"Crown Wine & Spirits","1645 Cordova Rd","Ft. Lauderdale","FL",33316,26.10099,-80.13331
2939,"Cottage Hill Package Store","6376 Cottage Hill Rd","Mobile","AL",36609,30.64139,-88.19039
2943,"Market Basket","139 Endicott St","Danvers","MA",1923,42.55098,-70.93448
2944,"Spec's","1729 Texas Ave S","College Station","TX",77840,30.61524,-96.31892
2945,"Spec's","1505 University Dr E Ste 700","College Station","TX",77840,30.63959,-96.31589
2946,"HEB","1900 Texas Ave S","College Station","TX",77840,30.61242,-96.31918
2947,"HEB","725 E Villa Maria Rd Ste 1300","Bryan","TX",77802,30.6438,-96.3511
2948,"Kroger","3535 Longmire Dr","College Station","TX",77845,30.58181,-96.28699
2949,"Twin Liquors","1915 Texas Ave S","College Station","TX",77840,30.61418,-96.3159
2950,"Sam's Club","1405 Earl Rudder Fwy S","College Station","TX",77845,30.63394,-96.30371
2951,"Target","2100 Texas Ave S","College Station","TX",77840,30.61014,-96.31732
2952,"Aldi","1760 Briarcrest Dr","Bryan","TX",77802,30.65326,-96.33827
2953,"Walmart","1815 Brothers Blvd","College Station","TX",77845,30.5972,-96.30141
2954,"Kroger","210 Franklin Rd Suite 100","Brentwood","TN",37027,36.03203,-86.78954
2955,"WB Liquors","2305 Boonville Rd #600","College Station","TX",77845,30.67377,-96.33725
2956,"King Sooper","S Cherry St","Glendale","CO",80246,39.70775,-104.9377
2957,"King Sooper","17761 Cottonwood Dr","Parker","CO",80134,39.55994,-104.78492
2958,"BNC","Village Commons Shopping Center - 1400-31 Village Square Blvd","Tallahassee","FL",32312,30.51173,-84.24806
2959,"King Sooper","9820 W Belleview Ave","Littleton","CO",80123,39.62314,-105.10744
2960,"Safeway","5025 S Kipling Pkwy","Littleton","CO",80127,39.6248,-105.11287
2961,"Sam's Club","4827 S Wadsworth Blvd","Littleton","CO",80123,39.63068,-105.09132
2963,"Arrow Liquormart","8055 W Bowles Ave #2W","Littleton","CO",80123,39.61181,-105.09013
2964,"Target","3300 124th Ave NW","Coon Rapids","MN",55433,45.19441,-93.35205
2965,"Cub Foods","2050 Northdale Blvd NW","Coon Rapids","MN",55433,45.18025,-93.32097
2967,"Schnuck's","8660 Veterans Memorial Pkwy","O'Fallon","MO",63366,38.79913,-90.70092
2968,"Wine & Beverage Depot","823 Riverview Dr","Totowa","NJ",7512,40.89754,-74.23897
2970,"Little Falls Liquors","315 Main St","Little Falls","NJ",7424,40.88454,-74.23981
2971,"ShopRite","171 Browertown Rd","Little Falls","NJ",7424,40.88197,-74.21443
2972,"Fresh Market","2490 E 146th St","Carmel","IN",46033,40.00196,-86.12067
2973,"Walmart","2001 E 151st St","Carmel","IN",46033,40.0067,-86.12616
2974,"21st Amendment Wine and Spirits","3404 E 146th St","Carmel","IN",46033,40.00108,-86.10889
2975,"Meijer","1424 W Carmel Dr","Carmel","IN",46032,39.9737,-86.15479
2976,"Kroger","1217 S Rangeline Rd","Carmel","IN",46032,39.96274,-86.12761
2977,"Towne Spirits and Fine Wine","14126 Bergen Blvd","Noblesville","IN",46060,39.99442,-85.92931
2978,"Crown Liquors","13844 Olivia Way","Fishers","IN",46037,39.9894,-85.92358
2979,"Kroger","11700 Olio Rd","Fishers","IN",46037,39.95944,-85.92466
2980,"Publix","3521 Thomasville Rd","Tallahassee","FL",32309,30.50881,-84.24842
2981,"Market Square Liquors and Fine Wine","1415 Timberlane Rd #315","Tallahassee","FL",32312,30.50427,-84.25683
2982,"Walmart","3221 N Monroe St","Tallahassee","FL",32303,30.48876,-84.32073
2983,"Costco","4067 Lagniappe Way","Tallahassee","FL",32317,30.46164,-84.21432
2984,"ABC","1930 Thomasville Rd","Tallahassee","FL",32303,30.46625,-84.27147
2985,"Sam's Club","1400 E Jackson Ave","McAllen","TX",78503,26.18837,-98.20995
2986,"WB Liquors","1401 W Kelly Ave","Pharr","TX",78577,26.19319,-98.2043
2987,"HEB","200 US","McAllen","TX",78503,26.18953,-98.22727
2988,"Spec's","2700 W Expy 83 Suite 200","McAllen","TX",78501,26.19513,-98.25448
2989,"Walmart","1200 E Jackson Ave","McAllen","TX",78503,26.18843,-98.21204
2990,"Feldmans","1509 S Cage Blvd","Pharr","TX",78577,26.17716,-98.18859
2991,"Costco","1501 W Kelly Ave","Pharr","TX",78577,26.19309,-98.20406
2992,"HEB","1300 S Cage Blvd","Pharr","TX",78577,26.1801,-98.1891
2993,"Costco","16385 W Waddell Rd","Surprise","AZ",85388,33.60798,-112.41327
2994,"Walmart","14111 N Prasada Gateway Ave","Surprise","AZ",85388,33.61242,-112.42299
2995,"Fry's","15215 N Cotton Ln","Surprise","AZ",85388,33.62265,-112.42695
2996,"Basha's","15367 W Waddell Rd","Surprise","AZ",85379,33.60804,-112.39418
2997,"Safeway","13828 W Waddell Rd","Surprise","AZ",85379,33.61038,-112.35976
2998,"WinCo Foods","555 Grand Ave","San Marcos","CA",92078,33.13506,-117.17848
2999,"Sprouts","149 S Las Posas Rd","San Marcos","CA",92078,33.14054,-117.1929
3000,"Albertson's","1929 W San Marcos Blvd","San Marcos","CA",92078,33.13188,-117.21312
3001,"Ralph's","306 S Twin Oaks Valley Rd","San Marcos","CA",92078,33.13066,-117.1692
3002,"BevMo","2662 Gateway Rd Suite 155","Carlsbad","CA",92009,33.12845,-117.25566
3004,"Costco","4321 Texas 6 Frontage Rd","College Station","TX",77845,30.56528,-96.26578
3005,"Kroger","8745 S Emerson Ave","Indianapolis","IN",46237,39.63926,-86.08271
3006,"GoPuff Liquor & More","1445 Alton Rd","Miami Beach","FL",33139,25.78678,-80.14293
3007,"GoPuff Liquor & More","3265 SW 34th St Suite 1","Gainesville","FL",32608,29.62424,-82.37429
3008,"GoPuff Liquor & More","860 Eppes Dr","Tallahassee","FL",32304,30.43356,-84.30754
3009,"GoPuff Liquor & More","5135 International Dr #4","Orlando","FL",32819,28.47081,-81.45322
3010,"GoPuff Liquor & More","9101 Lakeridge Blvd # 21","Boca Raton","FL",33496,26.39468,-80.19357
3011,"Big Daddy's Wine & Liquor","13185 Biscayne Blvd","North Miami","FL",33181,25.89707,-80.16321
3012,"Bottle King","1950 NJ-23","Wayne","NJ",7470,40.94936,-74.27506
3013,"Bottle King","1950 Rt. 23 N","Wayne","NJ",7470,40.94936,-74.27506
3014,"ABC","1930 Thomasville Rd","Tallahassee","FL",32303,30.46625,-84.27147
3015,"HEB","200 US W Expy 83","McAllen","TX",78503,26.18953,-98.22727
3016,"Spec's","2700 W Expy 83 Suite 200","McAllen","TX",78501,26.19513,-98.25448
3017,"Bevy's Liquor World","5869 S Alkire St","Littleton","CO",80127,39.61132,-105.15132
3018,"Bevy's Liquor World","9749 S Parker Rd","Parker","CO",80134,39.53937,-104.77371
3019,"G-Will Liquors","13973 Round Lake Blvd NW","Andover","MN",55304,45.22458,-93.35869
3020,"Target","9600 Westview Drive","Pompano Beach","FL",33706,26.29661,-80.25249
3021,"BNC","800 E Expressway 83","McAllen","TX",78503,26.18568,-98.21212
3022,"McFarland Wine & Spirits","765 McFarland Pkwy suite e","Alpharetta","GA",30004,34.13014,-84.23033
3024,"HEB","4800 Main St","Frisco","TX",75033,33.05622,-96.79749
3025,"BJ's","7171 N Davis Hwy","Pensacola","FL",32504,30.49896,-87.22538
3026,"Top Ten Liquors","13627 Quinn St NW","Andover","MN",55304,45.2181,-93.32289
3027,"Kroger","15802 Champion Forest Dr","Spring","TX",77379,30.02323,-95.6759
3028,"Kroger","12222 Jones Rd","Houston","TX",77070,29.95149,-95.58464
3029,"Nielsen","301 Milam St","Houston","TX",77002,29.76232,-95.3621
3030,"Nielsen","532 S Olive St","Los Angeles","CA",90013,34.04882,-118.25194
3031,"Nielsen","301 Biscayne Blvd","Miami","FL",33132,25.77447,-80.18567
3032,"Costco Same-Day","3911 E State Rte 69","Prescott","AZ",86301,34.57935,-112.36388
3033,"Costco Same-Day","3901 W Costco Dr","Tucson","AZ",85741,32.32627,-111.04995
3034,"Costco Same-Day","2450 E BEARDSLEY RD","Phoenix","AZ",85050,33.67089,-112.02863
3035,"Costco Same-Day","6255 East Grant Road Tucson","Tucson","AZ",85712,32.25106,-110.85838
3036,"Costco Same-Day","10000 W MCDOWELL RD","Avondale","AZ",85392,33.46723,-112.27417
3037,"Costco Same-Day","17550 N 79th Ave","Glendale","AZ",85308,33.64255,-112.23301
3038,"Costco Same-Day","15255 North Hayden Road","Scottsdale","AZ",85260,33.62379,-111.90068
3039,"Costco Same-Day","1415 N ARIZONA AVE","Gilbert","AZ",85233,33.376,-111.84084
3040,"Costco Same-Day","1445 West Elliot Road","Tempe","AZ",85284,33.34756,-111.96231
3041,"Costco Same-Day","7100 N Abby St","Fresno","CA",93720,36.83963,-119.78795
3042,"Costco Same-Day","520 N Lone Hill Ave San Dimas","San Dimas","CA",91773,34.11251,-117.82676
3043,"Costco Same-Day","2655 El Camino Real Tustin","Tustin","CA",92782,33.72852,-117.79581
3044,"Costco Same-Day","11800 4th Street Rancho Cucamonga","Rancho Cucamonga","CA",91730,34.0776,-117.54851
3045,"Costco Same-Day","17550 Castleton Street City of Industry","City of Industry","CA",91748,33.99559,-117.92333
3046,"Costco Same-Day","900 S Harbor Blvd","Fullerton","CA",92832,33.86256,-117.92386
3047,"Costco Same-Day","8810 Tampa Ave.","Northridge","CA",91324,34.23076,-118.55106
3048,"Costco Same-Day","2207 West Commonwealth Avenue","Alhambra","CA",91803,34.08951,-118.14853
3049,"Costco Same-Day","26610 Ynez Rd","Temecula","CA",92591,33.52123,-117.15436
3050,"Costco Same-Day","21800 Victory Blvd","Woodland Hills","CA",91367,34.18673,-118.60332
3051,"Costco Same-Day","7562 Center Ave.","Huntington Beach","CA",92647,33.73323,-117.99702
3052,"Costco Same-Day","5700 Lindero Canyon Rd","Westlake Village","CA",91362,34.15207,-118.79722
3053,"Costco Same-Day","2700 Park Ave","Tustin","CA",92782,33.69991,-117.82291
3054,"Costco Same-Day","14501 Hindry Ave","Hawthorne","CA",90250,33.89982,-118.37377
3055,"Costco Same-Day","72800 Dinah Shore Dr","Palm Desert","CA",92211,33.80363,-116.38957
3056,"Costco Same-Day","7981 East Stockton Blvd.","Sacramento","CA",95823,38.46825,-121.4143
3057,"Costco Same-Day","6750 Stanford Ranch Rd","Roseville","CA",95678,38.78069,-121.26727
3058,"Costco Same-Day","1800 Cavitt Dr","Folsom","CA",95630,38.64584,-121.10999
3059,"Costco Same-Day","725 Center Drive","San Marcos","CA",92609,33.1351,-117.1279
3060,"Costco Same-Day","12350 Carmel Mtn Road","San Diego","CA",92128,32.98721,-117.09008
3061,"Costco Same-Day","2345 Fenton Pkwy","San Diego","CA",92108,32.78255,-117.1304
3062,"Costco Same-Day","951 Palomar Airport Rd","Carlsbad","CA",92009,33.12098,-117.31537
3063,"Costco Same-Day","2800 Independence Dr","Livermore","CA",94551,37.70319,-121.81205
3064,"Costco Same-Day","2201 Senter Rd","San Jose","CA",95112,37.30992,-121.85215
3065,"Costco Same-Day","1900 Davis Street","San Leandro","CA",94577,37.72081,-122.18187
3066,"Costco Same-Day","1600 El Camino Real","South San Francisco","CA",94080,37.66532,-122.44837
3067,"Costco Same-Day","1001 Metro Center Blvd","Foster City","CA",94404,37.56184,-122.27443
3068,"Costco Same-Day","5301 Almaden Expy","San Jose","CA",95118,37.25324,-121.88028
3069,"Costco Same-Day","3150 Fostoria Way","Danville","CA",94526,37.78265,-121.97344
3070,"Costco Same-Day","1000 N Rengstorff Ave","Mountain View","CA",94043,37.42095,-122.09564
3071,"Costco Same-Day","2400 Monument Boulevard","Concord","CA",94520,37.95912,-122.03418
3072,"Costco Same-Day","150 Lawrence Station Rd","Sunnyvale","CA",94086,37.37247,-121.99496
3073,"Costco Same-Day","801 Tioga Ave","Sand City","CA",93955,36.61712,-121.84755
3074,"Costco Same-Day","7900 W QUINCY Ave","Littleton","CO",,39.63727,-105.08611
3075,"Costco Same-Day","8686 Park Meadows Center Dr","Lone Tree","CO",80124,39.55816,-104.87711
3076,"Costco Same-Day","1718 Boston Post Rd","Milford","CT",6460,41.25074,-73.02392
3077,"Costco Same-Day","405 Hartford Rd","New Britain","CT",6053,41.70943,-72.76399
3078,"Costco Same-Day","1220 Tamarack Ave","South Windsor","CT",6074,41.8174,-72.55569
3079,"Costco Same-Day","900 Center Blvd S","Newark","DE",19702,39.67772,-75.64754
3080,"Costco Same-Day","7795 W Flagler St","Miami","FL",33144,25.77268,-80.32293
3081,"Costco Same-Day","3250 Northlake Blvd","Palm Beach Gardens","FL",33403,26.80655,-80.08754
3082,"Costco Same-Day","4261 Coral Ridge Dr","Coral Springs","FL",33065,26.28297,-80.28209
3083,"Costco Same-Day","17800 Congress Ave","Boca Raton","FL",33487,26.412,-80.10133
3084,"Costco Same-Day","13450 SW 120th St","Miami","FL",33186,25.65402,-80.41279
3085,"Costco Same-Day","1890 S University Dr","Davie","FL",33324,26.09676,-80.2479
3086,"Costco Same-Day","15915 Pines Blvd","Pembroke Pines","FL",33027,26.00947,-80.36065
3087,"Costco Same-Day","14800 Sole Mia Way","North Miami","FL",33181,25.91391,-80.15286
3088,"Costco Same-Day","7171 Cypress Lake Dr","Fort Myers","FL",33907,26.54453,-81.87451
3089,"Costco Same-Day","6275 NAPLES BLVD","Naples","FL",34109,26.2195,-81.77528
3090,"Costco Same-Day","4901 Gate Pkwy","Jacksonville","FL",32246,30.25161,-81.53342
3091,"Costco Same-Day","3333 University Blvd","Winter Park","FL",32792,28.59884,-81.30002
3092,"Costco Same-Day","741 ORANGE AVE","Altamonte Springs","FL",32714,28.66119,-81.41725
3093,"Costco Same-Day","4067 Lagniappe Way","Tallahassee","FL",32317,30.46164,-84.21432
3094,"Costco Same-Day","2655 Gulf to Bay Blvd","Clearwater","FL",33759,27.95797,-82.7286
3095,"Costco Same-Day","2225 Grand Cypress Dr","Lutz","FL",33559,28.18926,-82.39366
3096,"Costco Same-Day","10921 Causeway Blvd","Brandon","FL",33511,27.92148,-82.33065
3097,"Costco Same-Day","8712 W Linebaugh Ave","Tampa","FL",33625,28.04152,-82.58028
3098,"Costco Same-Day","8201 S Tamiami Trl Unit 501","Sarasota","FL",34238,27.23436,-82.49135
3099,"Costco Same-Day","2855 Jordan Ct","Alpharetta","GA",30004,34.09037,-84.27778
3100,"Costco Same-Day","6350 Peachtree Dunwoody Rd","Atlanta","GA",30328,33.92826,-84.35417
3101,"Costco Same-Day","2900 Cumberland Blvd SE","Atlanta","GA",30339,33.88258,-84.47535
3102,"Costco Same-Day","6110 E 86th St Indianapolis","Indianapolis","IN",46250,39.91366,-86.06167
3103,"Costco Same-Day","4628 E County Line Rd Indianapolis","Indianapolis","IN",46237,39.63842,-86.08927
3104,"Costco Same-Day","1500 FITZGERALD CT","Lexington","KY",40509,38.02496,-84.40873
3105,"Costco Same-Day","3408 Bardstown Road","Louisville","KY",40218,38.20397,-85.66799
3106,"Costco Same-Day","201 Meadow Farm Dr","Lafayette","LA",70508,30.15599,-92.04409
3107,"Costco Same-Day","3900 Dublin St","New Orleans","LA",70118,29.96786,-90.11061
3108,"Costco Same-Day","10000 Dawnadele Ave BLDG A","Baton Rouge","LA",70809,30.41912,-91.07697
3109,"Costco Same-Day","2 Mystic View Rd","Everett","MA",2149,42.39689,-71.07151
3110,"Costco Same-Day","11 Newbury St","Danvers","MA",1923,42.55669,-70.9786
3111,"Costco Same-Day","71 2nd Ave","Waltham","MA",2451,42.3944,-71.26545
3112,"Costco Same-Day","45460 Market St","Shelby Charter Twp","MI",48315,42.63038,-82.98174
3113,"Costco Same-Day","13700 Middlebelt Rd","Livonia","MI",48150,42.3817,-83.33201
3114,"Costco Same-Day","20000 Haggerty Rd","Livonia","MI",48152,42.43169,-83.43167
3115,"Costco Same-Day","5100 28th St SE","Grand Rapids","MI",49512,42.91108,-85.54333
3116,"Costco Same-Day","771 Airport Blvd","Ann Arbor","MI",48108,42.23064,-83.74618
3117,"Costco Same-Day","995 Blue Gentian Rd","Eagan","MN",55121,44.85927,-93.14038
3118,"Costco Same-Day","14050 Burnhaven Dr","Burnsville","MN",55337,44.74906,-93.29389
3119,"Costco Same-Day","11330 Fountains Drive","Maple Grove","MN",55369,45.09302,-93.42383
3120,"Costco Same-Day","5801 W 16th St","St Louis Park","MN",55416,44.96691,-93.3543
3121,"Costco Same-Day","200 Costco Way","Saint Peters","MO",63376,38.79642,-90.60769
3122,"Costco Same-Day","301 Highlands Blvd Dr","Manchester","MO",63011,38.59795,-90.50669
3123,"Costco Same-Day","500 Tyvola Rd","Charlotte","NC",28217,35.16195,-80.8848
3124,"Costco Same-Day","4201 W Wendover Ave","Greensboro","NC",27407,36.05759,-79.88358
3125,"Costco Same-Day","2838 Wake Forest Rd","Raleigh","NC",27609,35.81835,-78.6225
3126,"Costco Same-Day","1021 Pine Plaza Dr","Apex","NC",27523,35.7466,-78.8278
3127,"Costco Same-Day","5351 Gingerwood Dr","Wilmington","NC",28405,34.24854,-77.8729
3128,"Costco Same-Day","9955 Coors Bypass NW","Albuquerque","NM",87114,35.1955,-106.66095
3129,"Costco Same-Day","500 Eubank Blvd SE","Albuquerque","NM",87123,35.06826,-106.53073
3130,"Costco Same-Day","791 Marks St","Henderson","NV",89014,36.06992,-115.03789
3131,"Costco Same-Day","6555 N Decatur Blvd","Las Vegas","NV",89131,36.27856,-115.20855
3132,"Costco Same-Day","801 S Pavilion Center Dr","Las Vegas","NV",89144,36.163,-115.33271
3133,"Costco Same-Day","2200 Harvard Way","Reno","NV",89502,39.50301,-119.78494
3134,"Costco Same-Day","1250 Old Country Rd","Westbury","NY",11590,40.74396,-73.59751
3135,"Costco Same-Day","3525 Park Avenue Blvd","Mount Pleasant","SC",29466,32.88163,-79.77084
3136,"Costco Same-Day","3050 Ashley Town Center Dr","Charleston","SC",29414,32.79526,-80.03625
3137,"Costco Same-Day","507 Piney Grove Road","Columbia","SC",29210,34.0703,-81.13904
3138,"Costco Same-Day","1021 Woodruff Rd","Greenville","SC",29607,34.83639,-82.31059
3139,"Costco Same-Day","1021 Oak Forest Lane","Myrtle Beach","SC",29607,33.70582,-78.91574
3140,"Costco Same-Day","10745 Kingston Pike","Knoxville","TN",37934,35.89671,-84.14055
3141,"Costco Same-Day","98 Seaboard Ln","Brentwood","TN",37027,35.96482,-86.81908
3142,"Costco Same-Day","10401 Research Blvd","Austin","TX",78759,30.39688,-97.74543
3143,"Costco Same-Day","4301 W William Cannon Dr","Austin","TX",78749,30.2215,-97.84118
3144,"Costco Same-Day","4321 Texas 6 Frontage Rd","College Station","TX",77845,30.56528,-96.26578
3145,"Costco Same-Day","8900 Tehama Ridge Pkwy","Fort Worth","TX",76177,32.90087,-97.32094
3146,"Costco Same-Day","600 W Arbrook Blvd","Arlington","TX",76014,32.68366,-97.11314
3147,"Costco Same-Day","5300 Overton Ridge Blvd","Fort Worth","TX",76132,32.67754,-97.40873
3148,"Costco Same-Day","3800 N Central Expy","Plano","TX",75074,33.04487,-96.69902
3149,"Costco Same-Day","851 STATE HIGHWAY 121 BYP","Lewisville","TX",75067,32.99813,-96.96329
3150,"Costco Same-Day","8055 Churchill Way","Dallas","TX",75251,32.91929,-96.76784
3151,"Costco Same-Day","1701 Dallas Pkwy","Plano","TX",75093,33.02439,-96.8319
3152,"Costco Same-Day","6101 Gateway Blvd W Suite 1","El Paso","TX",79925,31.78319,-106.41319
3153,"Costco Same-Day","12405 North Gessner Road","Houston","TX",77064,29.95511,-95.54787
3154,"Costco Same-Day","21802 Townsen Blvd W","Humble","TX",77338,30.02147,-95.26665
3155,"Costco Same-Day","23645 Katy Freeway","Katy","TX",77494,29.78286,-95.78093
3156,"Costco Same-Day","1310 JasmineAve","Webster","TX",77598,29.53411,-95.13804
3157,"Costco Same-Day","1150 Bunker Hill Rd","Houston","TX",77055,29.788,-95.5304
3158,"Costco Same-Day","3836 Richmond Ave","Houston","TX",77027,29.7339,-95.43983
3159,"Costco Same-Day","1501 W Kelly Ave","Pharr","TX",78577,26.19309,-98.20406
3160,"Costco Same-Day","5611 UTSA Boulevard","San Antonio","TX",78249,29.57647,-98.59704
3161,"Costco Same-Day","1201 N Loop 1604 E","San Antonio","TX",78232,29.61006,-98.51105
3162,"Costco Same-Day","10701 Sudley Manor Drive","Manassas","VA",20109,38.78374,-77.51699
3163,"Costco Same-Day","7373 Boston Blvd","Springfield","VA",22153,38.73954,-77.19686
3164,"Costco Same-Day","3102 Plank Rd Ste 600","Fredericksburg","VA",22407,38.29054,-77.51554
3165,"Costco Same-Day","21398 Price Cascades Plaza","Sterling","VA",20164,39.02353,-77.4017
3166,"Costco Same-Day","14390 Chantilly Crossing Lane","Chantilly","VA",20151,38.89578,-77.4433
3167,"Costco Same-Day","1300 Edwards Ferry Rd Ne","Leesburg","VA",20176,39.11538,-77.53292
3168,"Costco Same-Day","1401 Mall Dr","North Chesterfield","VA",23235,37.51458,-77.6051
3169,"Costco Same-Day","9650 W Broad St","Glen Allen","VA",23060,37.64228,-77.56087
3170,"Costco Same-Day","12121 Jefferson Ave","Newport News","Va",23602,37.10535,-76.49494
3171,"Costco Same-Day","5500 Littlerock Rd SW","Tumwater","WA",98512,46.99669,-122.9164
3172,"Costco Same-Day","2219 S 37th St","Tacoma","WA",98409,47.22533,-122.4703
3173,"Costco Same-Day","1201 39th Ave SW","Puyallup","WA",98373,47.15634,-122.30834
3174,"Costco Same-Day","35100 Enchanted Pkwy S","Federal Way","WA",98003,47.28696,-122.31138
3175,"Costco Same-Day","18109 33rd Ave W","Lynnwood","WA",98037,47.8342,-122.27346
3176,"Costco Same-Day","400 Costco Dr #150","Tukwila","WA",98188,47.44511,-122.24853
3177,"Costco Same-Day","1175 N 205th St","Shoreline","WA",98133,47.77455,-122.34363
3178,"Costco Same-Day","10000 Mickelberry Rd NW","Silverdale","WA",98383,47.65665,-122.68092
3179,"Costco Same-Day","4401 4th Ave S","Seattle","WA",98134,47.56535,-122.33047
3180,"Costco Same-Day","8629 120th Ave NE","Kirkland","WA",98033,47.68062,-122.18153
3181,"Costco Same-Day","5601 E Sprague Ave","Spokane Valley","WA",99212,47.65844,-117.33222
3182,"Costco Same-Day","6720 NE 84th St","Vancouver","WA",98665,45.68499,-122.60418
3183,"Costco Same-Day","2150 Deming Way","Middleton","WI",53562,43.10131,-89.51913
3184,"Costco Same-Day","443 Pewaukee Road","Pewaukee","WI",53072,43.08899,-88.2309
3185,"Twin Liquors","2803 Business Center Dr #127","Pearland","TX",77584,29.559,-95.39371
3186,"Publix","2310 Pine Ridge Rd","Naples","FL",34109,26.21016,-81.78893
3187,"HEB","6001 Preston Rd Suite 100","Plano","TX",75093,33.05622,-96.79749
3188,"WinCo Foods","9518 176th St E","Puyallup","WA",98375,47.09558,-122.3029
3189,"WinCo Foods","160 SW Campus Dr","Federal Way","WA",98003,47.29098,-122.33546
3190,"Aldi","5925 N Illinois St","Fairview Heights","IL",62208,38.58623,-89.99199
3191,"Publix","7925 N Kings Hwy","Myrtle Beach","SC",29572,33.75134,-78.81548
3192,"Publix","4606 S Kirkman Rd","Orlando","FL",32811,28.49514,-81.46263
3193,"WB Liquors","6101 Gateway Blvd W Bldg #4","El Paso","TX",79925,31.78348,-106.41017
3194,"Costco","20220 S Ellsworth Rd","Queen Creek","AZ",85142,33.26524,-111.63825
3195,"Market Basket","200 Hartford Turnpike","Shrewsbury","MA",1545,42.24682,-71.72621
3196,"Sam's Club","3122 Dick Wilson Blvd","Tallahassee","FL",32301,30.43185,-84.22379
3197,"Dogwood Wine and Spirits","1206 Central Park Dr Suite A","O'Fallon","IL",62269,38.57604,-89.93649
3198,"Sam's Club","505 S Broadway","Denver","CO",80209,39.70689,-104.9908
3234,"Sam's Club","5170 S Cleveland Ave","Fort Myers","FL",33907,26.58521,-81.87737
3235,"Sam's Club","10690 Beach Blvd","Jacksonville","FL",32246,30.28409,-81.54226
3236,"Sam's Club","450 Townsend Rd","Cocoa","FL",32926,28.36246,-80.79619
3237,"Costco","200 Legacy Blvd","Dedham","MA",2026,42.23201,-71.17296
3238,"BJ's","688 Providence Hwy","Dedham","MA",2026,42.24167,-71.17733
3239,"Plaza Liquor Mart","761 Providence Hwy","Dedham","MA",2026,42.23969,-71.17946
3240,"Dedham Line Liquor","5211 Washington St","West Roxbury","MA",2132,42.26099,-71.16005
3241,"All Time Wine & Spirits","5540 Windward Pkwy","Alpharetta","GA",30004,34.08875,-84.2662
3242,"Publix Liquors","605 S Andrews Ave","Fort Lauderdale","FL",33301,26.11414,-80.14373
3243,"BJ's","13210 Tegler Dr","Noblesville","IN",46060,39.9972,-85.93194
3244,"Costco","392 Talbert Rd","Mooresville","NC",28117,35.58308,-80.85522
3245,"Costco","1600 NW 88th St","Kansas City","MO",64155,39.25388,-94.60031
3246,"Red X","2101 NW Platte Rd","Riverside","MO",64150,39.16838,-94.60702
3247,"Costco","12221 Blue Valley Pkwy","Overland Park","KS",66213,38.90651,-94.67335
3248,"Sam's Club","8300 W 135th St","Overland Park","KS",66223,38.88635,-94.68565
3249,"HEB","18611 Eastfield Dr","Webster","TX",77598,29.55245,-95.15193
3250,"Lukas Liquors","8550 N Flintlock Rd","Kansas City","MO",64157,39.24656,-94.46989
3251,"Walmart","8301 N Church Rd","Kansas City","MO",64158,39.24296,-94.46163
3253,"Sprouts","8383 N Booth Ave","Kansas City","MO",64158,39.24377,-94.47739
3254,"Hy-Vee","109 Blue Jay Dr","Liberty","MO",64068,39.24582,-94.44958
3255,"Price Chopper","896 Rte 291","Liberty","MO",64068,39.23583,-94.43785
3256,"Pina Wine & Spirits","826 Rte 291","Liberty","MO",64068,39.23801,-94.43709
3257,"Walmart","11701 Metcalf Ave","Overland Park","KS",66210,38.91485,-94.66641
3258,"Target","12200 Blue Valley Pkwy","Overland Park","KS",66213,38.90769,-94.67764
3259,"Sam's Club","8130 N Church Rd","Kansas City","MO",64158,39.24001,-94.46668
3260,"Gomer's","6298 N MO-9","Kansas City","MO",64152,39.20716,-94.68526
3261,"Cellar Rat","1701 Baltimore Ave","Kansas City","MO",64108,39.09334,-94.58705
3262,"Target","9220 NE Barry Rd","Kansas City","MO",64157,39.2474,-94.46643
3263,"Costco","8816 Dr Charles Nelson Dr","Avon","IN",46123,39.7652,-86.36438
3264,"BNC","12100 Blue Valley Pkwy","Overland Park","KS",66213,38.91066,-94.67693
3265,"BNC","2257 State Hwy K","O'Fallon","MO",63368,38.77796,-90.69995
3266,"BNC","8520 N Evanston Ave","Kansas City","MO",64157,39.24784,-94.46076
3268,"Gomer's","1301 W 103rd St","Kansas City","MO",64114,38.94183,-94.60982
3269,"Walmart","1701 W 133rd St","Kansas City","MO",64145,38.8852,-94.60784
3270,"Prime Wine Cellar","396 NJ-17","Paramus","NJ",7652,40.94742,-74.07398
3271,"Rouses Market","2900 E Milton Ave","Youngsville","LA",70592,30.10765,-92.0172
3272,"Publix","2121 Collier Parkway","Land O' Lakes","FL",34639,28.18834,-82.44108
3273,"Target","10209 E US Hwy 36","Avon","IN",46123,39.76082,-86.34478
3274,"Bottle Barn","3331-A Industrial Dr","Santa Rosa","CA",95403,38.476,-122.74125
3276,"Sam's Club","6336 College Grove Way","San Diego","CA",92115,32.73954,-117.05912
3277,"Sam's Club","3465 Berlin Turnpike","Newington","CT",6111,41.65176,-72.73437
3278,"Sam's Club","15 Texas Station Ct.","Timonium","MD",21093,39.45838,-76.64007
3279,"Sam's Club","300 Park Place","Secaucus","NJ",7094,40.79175,-74.04589
3280,"Sam's Club","4900 Centre Point Dr.","N. Charleston","SC",29418,32.87886,-80.02183
3281,"Sam's Club","3070 Mallory Lane","Franklin","TN",37067,35.94259,-89.05961
3282,"Sam's Club","8435 Walbrook Dr.","Knoxville","TN",37923,35.92714,-84.0629
3283,"Sam's Club","1225 Concord Ave","Concord","CA",94520,37.98194,-122.058
3284,"Sam's Club","1301 Lone Hill Ave.","Glendora","CA",91740,34.11502,-117.83633
3285,"Sam's Club","1399 Artesia Blvd","Gardena","CA",90248,33.87376,-118.30034
3286,"Sam's Club","17099 Brookhurst St","Fountain Valley","CA",92708,33.71365,-117.95826
3287,"Sam's Club","2495 Iron Point Rd","Folsom","CA",95630,38.64448,-121.12046
3288,"Sam's Club","26468 Carl Boyer Dr.","Santa Clarita","CA",91350,34.41495,-118.50627
3289,"Sam's Club","40500 Murrieta Hot Springs Rd.","Murrieta","CA",92563,33.55353,-117.18034
3290,"Sam's Club","4901 N. Santa Anita Blvd.","El Monte","CA",91731,34.09375,-118.0313
3291,"Sam's Club","603 S. Placentia Ave","Fullerton","CA",92831,33.86639,-117.88508
3292,"Sam's Club","7480 Carson St.","Long Beach","CA",90808,33.82646,-118.08596
3293,"Sam's Club","7663 N Blackstone Ave","Fresno","CA",93720,36.84869,-119.79663
3294,"Sam's Club","8250 Power Inn Rd","Sacramento","CA",95828,38.45812,-121.40991
3295,"Sam's Club","904 Pleasant Grove Blvd","Roseville","CA",95678,38.78663,-121.29088
3296,"Sam's Club","951 N Milliken Ave","Ontario","CA",91764,34.0736,-117.56351
3297,"Sam's Club","10444 North Mall Drive","Baton Rouge","LA",70809,30.37839,-91.06611
3298,"Sam's Club","3900 Airline Hwy.","Metairie","LA",70001,29.97368,-90.17298
3299,"Sam's Club","69630 Stirling Blvd","Covington","LA",70433,30.44291,-90.13748
3300,"Sam's Club","3535 Russett Grn","Laurel","MD",20724,39.10108,-76.80263
3301,"Sam's Club","3001 Calvary Dr.","Raleigh","NC",27604,35.8465,-78.58806
3302,"Sam's Club","4418 W. Wendover Ave.","Greensboro","NC",27407,36.05774,-79.90154
3303,"Sam's Club","8909 Jw Clay Blvd.","Charlotte","NC",28262,35.31468,-80.7571
3304,"Sam's Club","930 Hanes Mall Blvd.","Winston-Salem","NC",27103,36.06659,-80.31454
3306,"Sam's Club","4835 Kietzke Ln.","Reno","NV",89509,39.48201,-119.80064
3307,"Sam's Club","1211 Woodruff Rd.","Greenville","SC",29607,34.82538,-82.2918
3308,"Sam's Club","1946 10th Ave N","Myrtle Beach","SC",29577,33.71327,-78.89974
3309,"Sam's Club","10901 Lakeline Mall Dr","Austin","TX",78717,30.47294,-97.7979
3310,"Sam's Club","1200 E. Spring Creek Pkwy.","Plano","TX",75074,33.05552,-96.69404
3311,"Sam's Club","1213 Market Place Blvd","Irving","TX",75063,32.92004,-96.96486
3312,"Sam's Club","12349 I-35 N.","San Antonio","TX",78233,29.55284,-98.36061
3313,"Sam's Club","201 Golden Triangle Blvd","Keller","TX",76248,32.93346,-97.25843
3314,"Sam's Club","2218 Greenville Avenue","Dallas - Greenville","TX",75206,32.81666,-96.77427
3315,"Sam's Club","2325 W. Hwy. I 20","Grand Prairie","TX",75052,32.67359,-97.04228
3316,"Sam's Club","301 Coit Road","Plano","TX",75075,33.00184,-96.77287
3317,"Sam's Club","4970 W. Highway 290","Austin","TX",78735,30.23581,-97.82273
3318,"Sam's Club","5565 Dezavala Rd","San Antonio","TX",78249,29.56705,-98.59837
3319,"Sam's Club","6185 Retail Rd","Dallas","TX",75231,32.86377,-96.75648
3320,"Sam's Club","7001 Gateway Blvd. W.","El Paso","TX",79925,31.77788,-106.38904
3321,"Sam's Club","751 W. Main St.","Lewisville","TX",75067,33.04764,-97.01501
3322,"Sam's Club","8621 Ohio Dr","Plano","TX",75024,33.09523,-96.80222
3323,"Sam's Club","9700 N Capital Of Texas Hwy","Austin","TX",78759,30.39166,-97.74709
3324,"Sam's Club","45425 Dulles Crossing Plz.","Sterling","VA",20166,39.02316,-77.42936
3325,"Sam's Club","600 N. Springdale Rd.","Waukesha","WI",53186,43.0372,-88.1876
3326,"Sam's Club","6705 S. 27th St.","Franklin","WI",53132,42.92363,-87.95946
3327,"Sam's Club","34220 Monterey Ave.","Palm Desert","CA",92211,33.80003,-116.38705
3328,"Sam's Club","2521 US-130","Cinnaminson","NJ",8077,40.00704,-74.97943
3329,"Ocean Wine & Spirits","2780 E Oakland Park Blvd #2","Fort Lauderdale","FL",33306,26.16698,-80.11183
3330,"Primo Lquors","2541 E Sunrise Blvd","Fort Lauderdale","FL",33304,26.13865,-80.12487
3331,"Target","10800 E 21st St N","Wichita","KS",67206,37.72452,-97.21495
3332,"Walmart","3030 N Rock Rd","Wichita","KS",67226,37.73885,-97.24472
3333,"The Lqiuor Cabinet","2350 N Greenwich Rd Ste 400","Wichita","KS",67226,37.72587,-97.2121
3334,"Jacob Liquor Exchange","3049 N Rock Rd","Wichita","KS",67226,37.73871,-97.24953
3335,"JT's Liquor","3700 N Woodlawn Blvd # 103","Wichita","KS",67220,37.75066,-97.26426
3336,"Grove's Liquor","9983 E Kellogg Ave","Wichita","KS",67207,37.67842,-97.22677
3337,"R&J Discount Liquor","3015 E Douglas Ave","Wichita","KS",67211,37.68608,-97.30317
3338,"Auburn Wine and Spirits","320 N Rock Rd","Wichita","KS",67206,37.69128,-97.24637
3339,"Tom's Wine & Spirits","133 E 47th St S","Wichita","KS",67216,37.60751,-97.33803
3340,"Central Wine & Spirits","19950 W Kellogg Dr","Goddard","KS",67052,37.66512,-97.57292
3341,"Publix","17179 Tamiami Trail","North Port","FL",34287,27.03787,-82.21745
3342,"Walmart","5414 Immokalee Rd","Naples","FL",34109,26.27207,-81.74829
3343,"Dillons","2244 N Rock Rd Ct","Wichita","KS",67226,37.72461,-97.24501
3344,"Central Wine & Spirits","10330 W Central Ave","Wichita","KS",67212,37.69421,-97.46463
3345,"Bubbles Wine & Spirits","7411 N Oak Trafficway","Kansas City","MO",64118,39.2299,-94.57822
3346,"BNC","2762 N Greenwich Rd","Wichita","KS",67226,37.73325,-97.20751
3347,"Burgardt Liquor","3027 E Pawnee St","Wichita","KS",67211,37.64962,-97.30291
3348,"Publix","2270 SW 27th Ave","Miami","FL",33145,25.74894,-80.24161
3349,"BevMo","5634 Sepulveda Blvd","Culver City","CA",90230,33.98977,-118.39677
3350,"Sprouts","5660 Sepulveda Blvd","Culver City","CA",90230,33.9893,-118.39899
3351,"Pavilions","4365 Glencoe Ave","Marina Del Rey","CA",90292,33.98516,-118.44237
3352,"Vons","4030 S Centinela Ave","Los Angeles","CA",90066,33.99916,-118.43384
3353,"Ralphs","10772 Jefferson Blvd","Culver City","CA",90230,34.00237,-118.39612
3354,"BevMo","2020 Redwood Hwy","Greenbrae","CA",94904,37.93687,-122.51839
3355,"Trader Joes","2052 Redwood Hwy","Greenbrae","CA",94904,37.93786,-122.51753
3357,"Nugget's","5627 Paradise Dr","Corte Madera","CA",94925,37.91897,-122.51011
3358,"BevMo","2090 Santa Rosa Ave","Santa Rosa","CA",95407,38.41725,-122.7141
3359,"Safeway","1211 W College Ave","Santa Rosa","CA",95401,38.44669,-122.74407
3360,"BevMo","1621-D E Monte Vista Ave","Vacaville","CA",95688,38.36833,-121.96909
3361,"Safeway","2090 Harbison Dr","Vacaville","CA",95687,38.36221,-121.96433
